{"type": "FeatureCollection", "crs": {"type": "name", "properties": {"name": "EPSG:4326"}}, "features": [{"type": "Feature", "id": 1, "geometry": {"type": "Point", "coordinates": [-87.950928263, 41.7934361820001]}, "properties": {"FID": 1, "HubName": "Chicago Citygate", "Period": 202002, "Latitude": 41.7934361818, "Longitude": -87.9509282628}}, {"type": "Feature", "id": 2, "geometry": {"type": "Point", "coordinates": [-103.189521718, 31.581973259]}, "properties": {"FID": 2, "HubName": "Waha", "Period": 202002, "Latitude": 31.5819732588, "Longitude": -103.189521718}}, {"type": "Feature", "id": 3, "geometry": {"type": "Point", "coordinates": [-95.7860928909999, 29.750094818]}, "properties": {"FID": 3, "HubName": "Katy", "Period": 202002, "Latitude": 29.750094818, "Longitude": -95.786092891}}, {"type": "Feature", "id": 4, "geometry": {"type": "Point", "coordinates": [-79.654795658, 40.4314455620001]}, "properties": {"FID": 4, "HubName": "Dominion South", "Period": 202002, "Latitude": 40.4314455623, "Longitude": -79.6547956576}}, {"type": "Feature", "id": 5, "geometry": {"type": "Point", "coordinates": [-121.913986787, 38.404894966]}, "properties": {"FID": 5, "HubName": "PG&E Citygate", "Period": 202002, "Latitude": 38.404894966, "Longitude": -121.913986787}}, {"type": "Feature", "id": 6, "geometry": {"type": "Point", "coordinates": [-122.219984774, 49.0004942990001]}, "properties": {"FID": 6, "HubName": "Sumas", "Period": 202002, "Latitude": 49.000494299, "Longitude": -122.219984774}}, {"type": "Feature", "id": 7, "geometry": {"type": "Point", "coordinates": [-104.79598979, 40.9406934040001]}, "properties": {"FID": 7, "HubName": "Cheyenne", "Period": 202002, "Latitude": 40.940693404, "Longitude": -104.79598979}}, {"type": "Feature", "id": 8, "geometry": {"type": "Point", "coordinates": [-121.37198636, 42.0337946380001]}, "properties": {"FID": 8, "HubName": "Malin", "Period": 202002, "Latitude": 42.033794638, "Longitude": -121.37198636}}, {"type": "Feature", "id": 9, "geometry": {"type": "Point", "coordinates": [-92.063093854, 29.8954946630001]}, "properties": {"FID": 9, "HubName": "Henry Hub", "Period": 202002, "Latitude": 29.895494663, "Longitude": -92.063093854}}, {"type": "Feature", "id": 10, "geometry": {"type": "Point", "coordinates": [-110.223184395, 41.836743674]}, "properties": {"FID": 10, "HubName": "Kern River Opal", "Period": 202002, "Latitude": 41.8367436739, "Longitude": -110.223184396}}, {"type": "Feature", "id": 11, "geometry": {"type": "Point", "coordinates": [-103.12934401, 31.961074957]}, "properties": {"FID": 11, "HubName": "El Paso Permian", "Period": 202002, "Latitude": 31.9610749569, "Longitude": -103.129344009}}, {"type": "Feature", "id": 12, "geometry": {"type": "Point", "coordinates": [-114.599678812, 34.69091687]}, "properties": {"FID": 12, "HubName": "SoCal Border", "Period": 202002, "Latitude": 34.6909168697, "Longitude": -114.599678812}}, {"type": "Feature", "id": 13, "geometry": {"type": "Point", "coordinates": [-117.443841312, 34.048922658]}, "properties": {"FID": 13, "HubName": "SoCal Citygate", "Period": 202002, "Latitude": 34.0489226583, "Longitude": -117.443841313}}, {"type": "Feature", "id": 14, "geometry": {"type": "Point", "coordinates": [-93.496833077, 43.184778484]}, "properties": {"FID": 14, "HubName": "Ventura", "Period": 202002, "Latitude": 43.1847784838, "Longitude": -93.4968330768}}, {"type": "Feature", "id": 15, "geometry": {"type": "Point", "coordinates": [-91.884233786, 32.9585422920001]}, "properties": {"FID": 15, "HubName": "Texas Gas Zone 1", "Period": 202002, "Latitude": 32.9585422926, "Longitude": -91.8842337862}}, {"type": "Feature", "id": 16, "geometry": {"type": "Point", "coordinates": [-77.953930825, 38.2970368100001]}, "properties": {"FID": 16, "HubName": "Transco Zone 5 Delivered", "Period": 202002, "Latitude": 38.2970368097, "Longitude": -77.9539308252}}, {"type": "Feature", "id": 17, "geometry": {"type": "Point", "coordinates": [-88.378867176, 32.072173569]}, "properties": {"FID": 17, "HubName": "Transco Zone 4", "Period": 202002, "Latitude": 32.0721735693, "Longitude": -88.3788671754}}, {"type": "Feature", "id": 18, "geometry": {"type": "Point", "coordinates": [-90.709242377, 30.987814039]}, "properties": {"FID": 18, "HubName": "Transco Zone 3", "Period": 202002, "Latitude": 30.9878140391, "Longitude": -90.7092423775}}, {"type": "Feature", "id": 19, "geometry": {"type": "Point", "coordinates": [-74.776202676, 40.3155431530001]}, "properties": {"FID": 19, "HubName": "Transco Zone 6 non-NY", "Period": 202002, "Latitude": 40.3155431536, "Longitude": -74.7762026768}}, {"type": "Feature", "id": 20, "geometry": {"type": "Point", "coordinates": [-74.152450098, 40.692459257]}, "properties": {"FID": 20, "HubName": "Transco Zone 6 NY", "Period": 202002, "Latitude": 40.6924592569, "Longitude": -74.1524500979}}, {"type": "Feature", "id": 21, "geometry": {"type": "Point", "coordinates": [-80.193005935, 39.897899126]}, "properties": {"FID": 21, "HubName": "Columbia Gas Appalachia", "Period": 202002, "Latitude": 39.8978991256, "Longitude": -80.1930059354}}, {"type": "Feature", "id": 22, "geometry": {"type": "Point", "coordinates": [-94.203322987, 33.1165340910001]}, "properties": {"FID": 22, "HubName": "NGPL Texok zone", "Period": 202002, "Latitude": 33.116534091, "Longitude": -94.2033229871}}, {"type": "Feature", "id": 23, "geometry": {"type": "Point", "coordinates": [-99.933280865, 37.586070136]}, "properties": {"FID": 23, "HubName": "NGPL Midcontinent", "Period": 202002, "Latitude": 37.5860701365, "Longitude": -99.9332808651}}, {"type": "Feature", "id": 24, "geometry": {"type": "Point", "coordinates": [-81.0691785659999, 39.876786532]}, "properties": {"FID": 24, "HubName": "Texas Eastern M-2 (Receipts)", "Period": 202002, "Latitude": 39.8767865321, "Longitude": -81.069178566}}, {"type": "Feature", "id": 25, "geometry": {"type": "Point", "coordinates": [-74.9400105729999, 40.3756377450001]}, "properties": {"FID": 25, "HubName": "Texas Eastern M3", "Period": 202002, "Latitude": 40.3756377447, "Longitude": -74.9400105729}}, {"type": "Feature", "id": 26, "geometry": {"type": "Point", "coordinates": [-83.376883187, 42.144471512]}, "properties": {"FID": 26, "HubName": "MichCon", "Period": 202002, "Latitude": 42.1444715125, "Longitude": -83.3768831871}}, {"type": "Feature", "id": 27, "geometry": {"type": "Point", "coordinates": [-71.0873265079999, 42.3042679480001]}, "properties": {"FID": 27, "HubName": "Algonquin Citygate", "Period": 202002, "Latitude": 42.3042679484, "Longitude": -71.0873265081}}, {"type": "Feature", "id": 28, "geometry": {"type": "Point", "coordinates": [-97.262081689, 39.5314213620001]}, "properties": {"FID": 28, "HubName": "Northern Natural Demarc", "Period": 202002, "Latitude": 39.5314213619, "Longitude": -97.2620816888}}, {"type": "Feature", "id": 29, "geometry": {"type": "Point", "coordinates": [-91.3006131659999, 32.6495840310001]}, "properties": {"FID": 29, "HubName": "Columbia Gulf Mainline", "Period": 202002, "Latitude": 32.6495840308, "Longitude": -91.300613166}}, {"type": "Feature", "id": 30, "geometry": {"type": "Point", "coordinates": [-87.537764685, 39.8055213150001]}, "properties": {"FID": 30, "HubName": "Rockies Express Pipeline Zone 3", "Period": 202002, "Latitude": 39.8055213151, "Longitude": -87.5377646852}}, {"type": "Feature", "id": 31, "geometry": {"type": "Point", "coordinates": [-76.4051472239999, 41.7288047420001]}, "properties": {"FID": 31, "HubName": "Tennessee Gas Zone 4 Marcellus", "Period": 202002, "Latitude": 41.7288047426, "Longitude": -76.4051472244}}, {"type": "Feature", "id": 32, "geometry": {"type": "Point", "coordinates": [-97.625403621, 27.748898758]}, "properties": {"FID": 32, "HubName": "Agua Dulce", "Period": 202002, "Latitude": 27.7488987587, "Longitude": -97.6254036216}}]}