{"type": "FeatureCollection", "features": [{"type": "Feature", "geometry": {"type": "Polygon", "coordinates": [[[-100.936058, 36.499602], [-100.918513, 36.499621], [-100.884174, 36.499682], [-100.88408, 36.499682], [-100.859657, 36.499687], [-100.85084, 36.4997], [-100.824236, 36.499618], [-100.824218, 36.499618], [-100.80619, 36.499674], [-100.806172, 36.499634], [-100.802909, 36.499621], [-100.802886, 36.499621], [-100.761811, 36.499618], [-100.761811, 36.49958], [-100.724362, 36.49958], [-100.724361, 36.499558], [-100.708626, 36.499553], [-100.708628, 36.499521], [-100.657763, 36.499483], [-100.657763, 36.4995], [-100.648343, 36.499495], [-100.648344, 36.499463], [-100.592614, 36.499469], [-100.592556, 36.499469], [-100.592551, 36.499429], [-100.583539, 36.499483], [-100.583379, 36.499443], [-100.578114, 36.499463], [-100.578114, 36.499439], [-100.546145, 36.499343], [-100.546724, 36.056536], [-101.085716, 36.057572], [-101.085156, 36.499244], [-101.052418, 36.499563], [-101.045331, 36.49954], [-100.977088, 36.499595], [-100.954153, 36.499599], [-100.936058, 36.499602]]]}, "properties": {"name": "Ochiltree", "fips": "357"}}, {"type": "Feature", "geometry": {"type": "Polygon", "coordinates": [[[-103.042377, 35.183156], [-103.042497, 35.211862], [-103.041554, 35.622487], [-102.162809, 35.627515], [-102.162808, 35.625044], [-102.162752, 35.620035], [-102.167471, 35.183233], [-103.042377, 35.183156]]]}, "properties": {"name": "Oldham", "fips": "359"}}, {"type": "Feature", "geometry": {"type": "Polygon", "coordinates": [[[-102.168839, 34.747417], [-102.167471, 35.183233], [-101.622941, 35.183117], [-101.629396, 34.750056], [-101.629257, 34.747649], [-101.998493, 34.74819], [-102.168839, 34.747417]]]}, "properties": {"name": "Randall", "fips": "381"}}, {"type": "Feature", "geometry": {"type": "Polygon", "coordinates": [[[-100.540158, 35.619296], [-101.085935, 35.619102], [-101.086068, 35.625267], [-101.085735, 36.055276], [-101.085716, 36.057572], [-100.546724, 36.056536], [-100.540221, 36.056491], [-100.540158, 35.619296]]]}, "properties": {"name": "Roberts", "fips": "393"}}, {"type": "Feature", "geometry": {"type": "Polygon", "coordinates": [[[-101.471562, 34.747462], [-101.629257, 34.747649], [-101.629396, 34.750056], [-101.622941, 35.183117], [-101.086281, 35.18214], [-101.090749, 34.748246], [-101.471562, 34.747462]]]}, "properties": {"name": "Armstrong", "fips": "011"}}, {"type": "Feature", "geometry": {"type": "Polygon", "coordinates": [[[-102.168839, 34.747417], [-101.998493, 34.74819], [-101.99802, 34.313039], [-102.090415, 34.313132], [-102.525631, 34.313034], [-102.525184, 34.746931], [-102.168839, 34.747417]]]}, "properties": {"name": "Castro", "fips": "069"}}, {"type": "Feature", "geometry": {"type": "Polygon", "coordinates": [[[-101.085935, 35.619102], [-100.540158, 35.619296], [-100.538978, 35.183144], [-101.086281, 35.18214], [-101.085935, 35.619102]]]}, "properties": {"name": "Gray", "fips": "179"}}, {"type": "Feature", "geometry": {"type": "Polygon", "coordinates": [[[-100.415895, 34.747525], [-100.417783, 34.313524], [-100.498193, 34.313527], [-100.500398, 34.314074], [-100.51734, 34.314102], [-100.946132, 34.312759], [-100.944939, 34.748281], [-100.540703, 34.747723], [-100.415895, 34.747525]]]}, "properties": {"name": "Hall", "fips": "191"}}, {"type": "Feature", "geometry": {"type": "Polygon", "coordinates": [[[-101.085156, 36.499244], [-101.085716, 36.057572], [-101.085735, 36.055276], [-101.623466, 36.055405], [-101.623915, 36.499528], [-101.085156, 36.499244]]]}, "properties": {"name": "Hansford", "fips": "195"}}, {"type": "Feature", "geometry": {"type": "Polygon", "coordinates": [[[-101.086068, 35.625267], [-101.622831, 35.624057], [-101.623466, 36.055405], [-101.085735, 36.055276], [-101.086068, 35.625267]]]}, "properties": {"name": "Hutchinson", "fips": "233"}}, {"type": "Feature", "geometry": {"type": "Polygon", "coordinates": [[[-101.041484, 34.312444], [-101.47158, 34.31229], [-101.471562, 34.747462], [-101.090749, 34.748246], [-100.944939, 34.748281], [-100.946132, 34.312759], [-100.966896, 34.312711], [-100.966969, 34.31264], [-101.041484, 34.312444]]]}, "properties": {"name": "Briscoe", "fips": "045"}}, {"type": "Feature", "geometry": {"type": "Polygon", "coordinates": [[[-101.085935, 35.619102], [-101.086281, 35.18214], [-101.622941, 35.183117], [-101.622993, 35.184339], [-101.6228, 35.620196], [-101.622831, 35.624057], [-101.086068, 35.625267], [-101.085935, 35.619102]]]}, "properties": {"name": "Carson", "fips": "065"}}, {"type": "Feature", "geometry": {"type": "Polygon", "coordinates": [[[-100.000384, 35.030385], [-100.000381, 34.746461], [-100.000381, 34.746358], [-100.415895, 34.747525], [-100.540703, 34.747723], [-100.540997, 34.750052], [-100.538978, 35.183144], [-100.000385, 35.182702], [-100.000384, 35.030385]]]}, "properties": {"name": "Collingsworth", "fips": "087"}}, {"type": "Feature", "geometry": {"type": "Polygon", "coordinates": [[[-102.525184, 34.746931], [-102.525631, 34.313034], [-102.61515, 34.312891], [-103.043979, 34.312749], [-103.043979, 34.312764], [-103.043946, 34.379555], [-103.043944, 34.37966], [-103.043919, 34.380916], [-103.043693, 34.383578], [-103.04363, 34.38469], [-103.043614, 34.384969], [-103.043613, 34.388679], [-103.043613, 34.390442], [-103.043585, 34.393716], [-103.043611, 34.397105], [-103.043583, 34.400678], [-103.043538, 34.405463], [-103.043582, 34.455657], [-103.043588, 34.459662], [-103.043589, 34.459774], [-103.043594, 34.46266], [-103.043072, 34.619782], [-103.042827, 34.671188], [-103.042769, 34.747361], [-102.525184, 34.746931]]]}, "properties": {"name": "Parmer", "fips": "369"}}, {"type": "Feature", "geometry": {"type": "Polygon", "coordinates": [[[-101.47158, 34.31229], [-101.564856, 34.312493], [-101.99802, 34.313039], [-101.998493, 34.74819], [-101.629257, 34.747649], [-101.471562, 34.747462], [-101.47158, 34.31229]]]}, "properties": {"name": "Swisher", "fips": "437"}}, {"type": "Feature", "geometry": {"type": "Polygon", "coordinates": [[[-100.000385, 35.182702], [-100.538978, 35.183144], [-100.540158, 35.619296], [-100.000392, 35.619115], [-100.000389, 35.422364], [-100.000385, 35.182702]]]}, "properties": {"name": "Wheeler", "fips": "483"}}, {"type": "Feature", "geometry": {"type": "Polygon", "coordinates": [[[-100.546724, 36.056536], [-100.546145, 36.499343], [-100.531215, 36.499341], [-100.531215, 36.49929], [-100.530478, 36.49924], [-100.530314, 36.499357], [-100.522227, 36.499291], [-100.441065, 36.49949], [-100.441064, 36.499462], [-100.433959, 36.499456], [-100.421328, 36.499447], [-100.421301, 36.499488], [-100.413634, 36.499444], [-100.41355, 36.499469], [-100.378634, 36.499517], [-100.378592, 36.499445], [-100.351852, 36.499487], [-100.351842, 36.499473], [-100.334464, 36.49942], [-100.334441, 36.49944], [-100.32415, 36.499679], [-100.311245, 36.499631], [-100.311018, 36.499688], [-100.310643, 36.499642], [-100.181221, 36.499633], [-100.090021, 36.499634], [-100.003762, 36.499699], [-100.000406, 36.499702], [-100.000399, 36.055677], [-100.540221, 36.056491], [-100.546724, 36.056536]]]}, "properties": {"name": "Lipscomb", "fips": "295"}}, {"type": "Feature", "geometry": {"type": "Polygon", "coordinates": [[[-101.622831, 35.624057], [-101.6228, 35.620196], [-102.162752, 35.620035], [-102.162808, 35.625044], [-102.162809, 35.627515], [-102.163015, 36.055249], [-101.623466, 36.055405], [-101.622831, 35.624057]]]}, "properties": {"name": "Moore", "fips": "341"}}, {"type": "Feature", "geometry": {"type": "Polygon", "coordinates": [[[-102.162463, 36.500326], [-102.032339, 36.500066], [-101.826565, 36.499654], [-101.826498, 36.499535], [-101.78811, 36.499678], [-101.783359, 36.499709], [-101.781987, 36.499718], [-101.78061, 36.499727], [-101.779435, 36.499734], [-101.709314, 36.499722], [-101.698685, 36.499508], [-101.653708, 36.499573], [-101.649966, 36.499573], [-101.623915, 36.499528], [-101.623466, 36.055405], [-102.163015, 36.055249], [-102.162771, 36.497902], [-102.162463, 36.500326]]]}, "properties": {"name": "Sherman", "fips": "421"}}, {"type": "Feature", "geometry": {"type": "Polygon", "coordinates": [[[-99.99772, 34.311829], [-100.417783, 34.313524], [-100.415895, 34.747525], [-100.000381, 34.746358], [-100.000381, 34.560509], [-99.997853, 34.561485], [-99.997508, 34.558017], [-99.99772, 34.311829]]]}, "properties": {"name": "Childress", "fips": "075"}}, {"type": "Feature", "geometry": {"type": "Polygon", "coordinates": [[[-102.163015, 36.055249], [-102.162809, 35.627515], [-103.041554, 35.622487], [-103.041357, 35.739274], [-103.040824, 36.055231], [-102.163015, 36.055249]]]}, "properties": {"name": "Hartley", "fips": "205"}}, {"type": "Feature", "geometry": {"type": "Polygon", "coordinates": [[[-102.162463, 36.500326], [-102.162771, 36.497902], [-102.163015, 36.055249], [-103.040824, 36.055231], [-103.041674, 36.317534], [-103.041745, 36.318267], [-103.041669, 36.478514], [-103.002434, 36.500397], [-102.162463, 36.500326]]]}, "properties": {"name": "Dallam", "fips": "111"}}, {"type": "Feature", "geometry": {"type": "Polygon", "coordinates": [[[-100.540221, 36.056491], [-100.000399, 36.055677], [-100.000396, 35.880948], [-100.000392, 35.619115], [-100.540158, 35.619296], [-100.540221, 36.056491]]]}, "properties": {"name": "Hemphill", "fips": "211"}}, {"type": "Feature", "geometry": {"type": "Polygon", "coordinates": [[[-103.04252, 35.135596], [-103.0426, 35.142766], [-103.042711, 35.144735], [-103.042568, 35.159318], [-103.042395, 35.178573], [-103.042339, 35.181922], [-103.042366, 35.182786], [-103.042377, 35.183149], [-103.042377, 35.183156], [-102.167471, 35.183233], [-102.168839, 34.747417], [-102.525184, 34.746931], [-103.042769, 34.747361], [-103.04277, 34.792224], [-103.042781, 34.850243], [-103.042521, 34.899546], [-103.042521, 34.954101], [-103.04252, 35.135596]]]}, "properties": {"name": "Deaf Smith", "fips": "117"}}, {"type": "Feature", "geometry": {"type": "Polygon", "coordinates": [[[-100.538978, 35.183144], [-100.540997, 34.750052], [-100.540703, 34.747723], [-100.944939, 34.748281], [-101.090749, 34.748246], [-101.086281, 35.18214], [-100.538978, 35.183144]]]}, "properties": {"name": "Donley", "fips": "129"}}, {"type": "Feature", "geometry": {"type": "Polygon", "coordinates": [[[-101.622941, 35.183117], [-102.167471, 35.183233], [-102.162752, 35.620035], [-101.6228, 35.620196], [-101.622993, 35.184339], [-101.622941, 35.183117]]]}, "properties": {"name": "Potter", "fips": "375"}}]}