{"type": "FeatureCollection", "features": [{"type": "Feature", "geometry": {"type": "Point", "coordinates": [-102.45724, 35.67217]}, "properties": {"kind": "oil", "district": "10", "lease_no": "09334", "lease_name": "HOLT STATE", "field_name": "HARTLEY WEST (CANYON)", "operator_no": "394855", "operator_name": "NEC OPERATING, LLC", "period": "202607", "flared_mcf": 22440, "produced_mcf": 25080, "flared_mmcfd": 0.724, "wells": 1, "county": "Hartley"}}, {"type": "Feature", "geometry": {"type": "Point", "coordinates": [-100.97772, 36.244]}, "properties": {"kind": "oil", "district": "10", "lease_no": "09777", "lease_name": "LADD", "field_name": "ALLEN-PARKER (MARMATON)", "operator_no": "016855", "operator_name": "H & L EXPLORATION COMPANY, LLC", "period": "202607", "flared_mcf": 4650, "produced_mcf": 4650, "flared_mmcfd": 0.15, "wells": 1, "county": "Ochiltree"}}, {"type": "Feature", "geometry": {"type": "Point", "coordinates": [-102.06921, 35.54467]}, "properties": {"kind": "oil", "district": "10", "lease_no": "09807", "lease_name": "EXELL RANCH", "field_name": "BIVINS RANCH (MISSOURIAN WASH)", "operator_no": "084925", "operator_name": "SUNLIGHT EXPLORATION, INC.", "period": "202607", "flared_mcf": 4630, "produced_mcf": 4630, "flared_mmcfd": 0.149, "wells": 2, "county": "Potter"}}, {"type": "Feature", "geometry": {"type": "Point", "coordinates": [-102.234, 35.47525]}, "properties": {"kind": "oil", "district": "10", "lease_no": "09875", "lease_name": "L S RANCH", "field_name": "CAT SCRATCH(CISCO SAND)", "operator_no": "163993", "operator_name": "SUNLIGHT EXPLORATION, INC.", "period": "202607", "flared_mcf": 4080, "produced_mcf": 4080, "flared_mmcfd": 0.132, "wells": 1, "county": "Oldham"}}, {"type": "Feature", "geometry": {"type": "Point", "coordinates": [-102.26325, 35.50278]}, "properties": {"kind": "oil", "district": "10", "lease_no": "09343", "lease_name": "LS RANCH NORTH", "field_name": "HARTLEY WEST (CANYON)", "operator_no": "394855", "operator_name": "NEC OPERATING, LLC", "period": "202410", "flared_mcf": 2820, "produced_mcf": 5460, "flared_mmcfd": 0.091, "wells": 1, "county": "Oldham"}}, {"type": "Feature", "geometry": {"type": "Point", "coordinates": [-101.74858, 35.36966]}, "properties": {"kind": "oil", "district": "10", "lease_no": "09401", "lease_name": "BIVINS 55-41 EAST", "field_name": "AMARILLO, NORTH (CANYON LIME)", "operator_no": "022525", "operator_name": "PRESIDIO PETROLEUM LLC", "period": "202607", "flared_mcf": 1950, "produced_mcf": 1950, "flared_mmcfd": 0.063, "wells": 1, "county": "Potter"}}, {"type": "Feature", "geometry": {"type": "Point", "coordinates": [-102.4395, 35.8491]}, "properties": {"kind": "oil", "district": "10", "lease_no": "09345", "lease_name": "HOWARD 15", "field_name": "HARTLEY WEST (CANYON)", "operator_no": "394855", "operator_name": "NEC OPERATING, LLC", "period": "202502", "flared_mcf": 810, "produced_mcf": 2000, "flared_mmcfd": 0.029, "wells": 1, "county": "Hartley"}}, {"type": "Feature", "geometry": {"type": "Point", "coordinates": [-102.14572, 35.41753]}, "properties": {"kind": "oil", "district": "10", "lease_no": "08609", "lease_name": "MARTIAN", "field_name": "CRUZ CREEK (BROWN DOLOMITE)", "operator_no": "220781", "operator_name": "LDX OPERATING COMPANY, LLC.", "period": "202607", "flared_mcf": 120, "produced_mcf": 120, "flared_mmcfd": 0.004, "wells": 3, "county": "Potter"}}]}