{"type": "FeatureCollection", "features": [{"type": "Feature", "geometry": {"type": "Polygon", "coordinates": [[[-99.41388, 29.091335], [-99.409021, 28.640566], [-100.114336, 28.648122], [-100.111406, 29.086318], [-99.41388, 29.091335]]]}, "properties": {"name": "Zavala", "fips": "507"}}, {"type": "Feature", "geometry": {"type": "Polygon", "coordinates": [[[-97.04821, 30.137947], [-97.024461, 30.051435], [-97.315823, 29.786541], [-97.648043, 30.067262], [-97.649449, 30.067866], [-97.492679, 30.209946], [-97.486329, 30.220528], [-97.409875, 30.351329], [-97.377227, 30.407086], [-97.369539, 30.419563], [-97.334463, 30.402843], [-97.081834, 30.259357], [-97.04821, 30.137947]]]}, "properties": {"name": "Bastrop", "fips": "021"}}, {"type": "Feature", "geometry": {"type": "Polygon", "coordinates": [[[-97.574639, 28.8133], [-97.75511, 29.007113], [-97.613132, 29.109765], [-97.240108, 29.384488], [-96.976378, 29.104046], [-97.305916, 28.864037], [-97.41734, 28.925228], [-97.574639, 28.8133]]]}, "properties": {"name": "DeWitt", "fips": "123"}}, {"type": "Feature", "geometry": {"type": "Polygon", "coordinates": [[[-100.114336, 28.648122], [-99.409021, 28.640566], [-99.395736, 28.640784], [-99.394177, 28.204627], [-100.113719, 28.197819], [-100.114336, 28.648122]]]}, "properties": {"name": "Dimmit", "fips": "127"}}, {"type": "Feature", "geometry": {"type": "Polygon", "coordinates": [[[-97.317893, 29.784658], [-97.315823, 29.786541], [-97.024461, 30.051435], [-97.019163, 30.032], [-96.794552, 30.160545], [-96.647223, 30.145174], [-96.62198, 30.044283], [-96.569844, 29.961516], [-96.754307, 29.755502], [-96.874222, 29.632706], [-97.142643, 29.628101], [-97.130517, 29.643296], [-97.317893, 29.784658]]]}, "properties": {"name": "Fayette", "fips": "149"}}, {"type": "Feature", "geometry": {"type": "Polygon", "coordinates": [[[-97.240108, 29.384488], [-97.613132, 29.109765], [-97.728443, 29.221748], [-97.858782, 29.35289], [-97.840383, 29.376791], [-97.633176, 29.649863], [-97.597743, 29.630718], [-97.317893, 29.784658], [-97.130517, 29.643296], [-97.142643, 29.628101], [-97.204087, 29.580613], [-97.240108, 29.384488]]]}, "properties": {"name": "Gonzales", "fips": "177"}}, {"type": "Feature", "geometry": {"type": "Polygon", "coordinates": [[[-98.803325, 28.05748], [-99.388946, 28.030419], [-99.394177, 28.204627], [-99.395736, 28.640784], [-98.800841, 28.647487], [-98.800848, 28.647306], [-98.803325, 28.05748]]]}, "properties": {"name": "La Salle", "fips": "283"}}, {"type": "Feature", "geometry": {"type": "Polygon", "coordinates": [[[-97.883148, 28.0569], [-98.235497, 28.057966], [-98.334323, 28.0578], [-98.335031, 28.612658], [-98.098315, 28.786949], [-98.005252, 28.690239], [-98.089764, 28.662979], [-97.808774, 28.183415], [-97.817716, 28.176848], [-97.904081, 28.114228], [-97.883148, 28.0569]]]}, "properties": {"name": "Live Oak", "fips": "297"}}, {"type": "Feature", "geometry": {"type": "Polygon", "coordinates": [[[-98.800841, 28.647487], [-98.8049, 29.090434], [-98.804763, 29.250693], [-98.407336, 29.114435], [-98.190991, 28.882333], [-98.098315, 28.786949], [-98.335031, 28.612658], [-98.335047, 28.648275], [-98.800848, 28.647306], [-98.800841, 28.647487]]]}, "properties": {"name": "Atascosa", "fips": "013"}}, {"type": "Feature", "geometry": {"type": "Polygon", "coordinates": [[[-97.375579, 28.388684], [-97.541071, 28.164669], [-97.567622, 28.129683], [-97.817716, 28.176848], [-97.808774, 28.183415], [-98.089764, 28.662979], [-98.005252, 28.690239], [-97.915106, 28.719648], [-97.77853, 28.668027], [-97.696945, 28.541856], [-97.558496, 28.514054], [-97.551369, 28.450441], [-97.375579, 28.388684]]]}, "properties": {"name": "Bee", "fips": "025"}}, {"type": "Feature", "geometry": {"type": "Polygon", "coordinates": [[[-96.938587, 29.063244], [-96.946942, 29.072235], [-96.947333, 29.072716], [-96.947959, 29.073335], [-96.976378, 29.104046], [-97.240108, 29.384488], [-97.204087, 29.580613], [-97.142643, 29.628101], [-96.874222, 29.632706], [-96.793132, 29.577378], [-96.560555, 29.335439], [-96.658466, 29.263876], [-96.938587, 29.063244]]]}, "properties": {"name": "Lavaca", "fips": "285"}}, {"type": "Feature", "geometry": {"type": "Polygon", "coordinates": [[[-97.024461, 30.051435], [-97.04821, 30.137947], [-97.081834, 30.259357], [-97.334463, 30.402843], [-97.155219, 30.457344], [-96.963629, 30.557169], [-96.740542, 30.318655], [-96.640883, 30.296786], [-96.731645, 30.243886], [-96.794552, 30.160545], [-97.019163, 30.032], [-97.024461, 30.051435]]]}, "properties": {"name": "Lee", "fips": "287"}}, {"type": "Feature", "geometry": {"type": "Polygon", "coordinates": [[[-100.113719, 28.197819], [-100.209464, 28.196866], [-100.257788, 28.240341], [-100.291391, 28.275398], [-100.346986, 28.407232], [-100.333814, 28.499252], [-100.338518, 28.501833], [-100.386963, 28.514023], [-100.405058, 28.53578], [-100.429856, 28.596441], [-100.446659, 28.608659], [-100.500354, 28.66196], [-100.510055, 28.690723], [-100.511998, 28.705352], [-100.506701, 28.716745], [-100.507613, 28.740599], [-100.535438, 28.805195], [-100.546804, 28.825374], [-100.589854, 28.861618], [-100.640092, 28.915833], [-100.651512, 28.943432], [-100.648104, 28.98386], [-100.645894, 28.986421], [-100.664065, 29.073206], [-100.668356, 29.08397], [-100.667168, 29.08431], [-100.111406, 29.086318], [-100.114336, 28.648122], [-100.113719, 28.197819]]]}, "properties": {"name": "Maverick", "fips": "323"}}, {"type": "Feature", "geometry": {"type": "Polygon", "coordinates": [[[-96.829121, 31.105871], [-96.75633, 30.927206], [-96.68497, 30.906191], [-96.661054, 30.829686], [-96.621281, 30.730819], [-96.963629, 30.557169], [-97.155219, 30.457344], [-97.271418, 30.735692], [-97.315507, 30.752371], [-97.259082, 30.889596], [-97.070188, 30.98622], [-96.829121, 31.105871]]]}, "properties": {"name": "Milam", "fips": "331"}}, {"type": "Feature", "geometry": {"type": "Polygon", "coordinates": [[[-98.28702, 29.257626], [-98.137187, 29.440428], [-98.134171, 29.441751], [-98.084684, 29.379594], [-97.840383, 29.376791], [-97.858782, 29.35289], [-97.728443, 29.221748], [-98.190991, 28.882333], [-98.407336, 29.114435], [-98.28702, 29.257626]]]}, "properties": {"name": "Wilson", "fips": "493"}}, {"type": "Feature", "geometry": {"type": "Polygon", "coordinates": [[[-96.566983, 30.69567], [-96.45763, 30.744474], [-96.349364, 30.911423], [-96.336193, 30.9217], [-96.263223, 30.964123], [-96.24102, 30.973737], [-96.16837, 30.822997], [-96.187765, 30.598737], [-96.121806, 30.443426], [-96.079969, 30.43003], [-96.147255, 30.38284], [-96.15463, 30.330288], [-96.199544, 30.38291], [-96.299173, 30.379152], [-96.294068, 30.380235], [-96.294939, 30.385623], [-96.306356, 30.391715], [-96.302498, 30.399403], [-96.297599, 30.400421], [-96.298866, 30.410502], [-96.28659, 30.411661], [-96.278998, 30.407422], [-96.272837, 30.409042], [-96.272049, 30.416145], [-96.281109, 30.414831], [-96.287993, 30.421281], [-96.282564, 30.426614], [-96.286449, 30.433756], [-96.285516, 30.448393], [-96.290895, 30.443999], [-96.358817, 30.541753], [-96.510494, 30.627828], [-96.601708, 30.640535], [-96.594308, 30.652589], [-96.584439, 30.658957], [-96.582804, 30.663792], [-96.584171, 30.683191], [-96.581519, 30.68889], [-96.572064, 30.688849], [-96.566983, 30.69567]]]}, "properties": {"name": "Brazos", "fips": "041"}}, {"type": "Feature", "geometry": {"type": "Polygon", "coordinates": [[[-98.8049, 29.090434], [-98.800841, 28.647487], [-99.395736, 28.640784], [-99.409021, 28.640566], [-99.41388, 29.091335], [-98.8049, 29.090434]]]}, "properties": {"name": "Frio", "fips": "163"}}, {"type": "Feature", "geometry": {"type": "Polygon", "coordinates": [[[-98.098315, 28.786949], [-98.190991, 28.882333], [-97.728443, 29.221748], [-97.613132, 29.109765], [-97.75511, 29.007113], [-97.574639, 28.8133], [-97.77853, 28.668027], [-97.915106, 28.719648], [-98.005252, 28.690239], [-98.098315, 28.786949]]]}, "properties": {"name": "Karnes", "fips": "255"}}, {"type": "Feature", "geometry": {"type": "Polygon", "coordinates": [[[-96.319165, 31.357129], [-96.322853, 31.374067], [-96.304907, 31.382132], [-96.236629, 31.413392], [-95.7873, 31.618385], [-95.710112, 31.615587], [-95.739279, 31.504056], [-95.657202, 31.317999], [-95.725226, 31.271084], [-95.76441, 31.094211], [-95.973841, 31.09215], [-96.24102, 30.973737], [-96.33109, 31.25223], [-96.319165, 31.357129]]]}, "properties": {"name": "Leon", "fips": "289"}}, {"type": "Feature", "geometry": {"type": "Polygon", "coordinates": [[[-95.617872, 30.930418], [-95.863059, 30.864125], [-96.16837, 30.822997], [-96.24102, 30.973737], [-95.973841, 31.09215], [-95.76441, 31.094211], [-95.663546, 31.083884], [-95.681158, 30.986958], [-95.617872, 30.930418]]]}, "properties": {"name": "Madison", "fips": "313"}}, {"type": "Feature", "geometry": {"type": "Polygon", "coordinates": [[[-98.954669, 27.269397], [-99.33361, 27.273223], [-99.370621, 27.319174], [-99.453949, 27.264673], [-99.463309, 27.268437], [-99.47088, 27.265444], [-99.494678, 27.277595], [-99.529654, 27.306051], [-99.536443, 27.312538], [-99.537771, 27.316073], [-99.50696, 27.35642], [-99.492831, 27.390491], [-99.487704, 27.409924], [-99.480219, 27.485796], [-99.519381, 27.573569], [-99.541644, 27.605772], [-99.600619, 27.641314], [-99.623478, 27.644136], [-99.626294, 27.64245], [-99.627123, 27.638412], [-99.666175, 27.638324], [-99.843463, 27.77456], [-99.876174, 27.806276], [-99.901486, 27.864162], [-99.904385, 27.875284], [-99.895828, 27.904178], [-99.922046, 27.922119], [-99.991447, 27.99456], [-100.057049, 28.095656], [-100.080868, 28.137192], [-100.083393, 28.144035], [-100.088143, 28.147503], [-100.14414, 28.168238], [-100.171323, 28.17623], [-100.202448, 28.190554], [-100.209464, 28.196866], [-100.113719, 28.197819], [-99.394177, 28.204627], [-99.388946, 28.030419], [-98.803325, 28.05748], [-98.798323, 27.354029], [-98.798087, 27.268012], [-98.954669, 27.269397]]]}, "properties": {"name": "Webb", "fips": "479"}}, {"type": "Feature", "geometry": {"type": "Polygon", "coordinates": [[[-96.36919, 30.365072], [-96.640883, 30.296786], [-96.740542, 30.318655], [-96.963629, 30.557169], [-96.621281, 30.730819], [-96.599467, 30.728634], [-96.595776, 30.715072], [-96.568795, 30.701387], [-96.566983, 30.69567], [-96.572064, 30.688849], [-96.581519, 30.68889], [-96.584171, 30.683191], [-96.582804, 30.663792], [-96.584439, 30.658957], [-96.594308, 30.652589], [-96.601708, 30.640535], [-96.510494, 30.627828], [-96.358817, 30.541753], [-96.290895, 30.443999], [-96.285516, 30.448393], [-96.286449, 30.433756], [-96.282564, 30.426614], [-96.287993, 30.421281], [-96.281109, 30.414831], [-96.272049, 30.416145], [-96.272837, 30.409042], [-96.278998, 30.407422], [-96.28659, 30.411661], [-96.298866, 30.410502], [-96.297599, 30.400421], [-96.302498, 30.399403], [-96.306356, 30.391715], [-96.294939, 30.385623], [-96.294068, 30.380235], [-96.299173, 30.379152], [-96.312795, 30.3843], [-96.340485, 30.367925], [-96.358976, 30.372637], [-96.36919, 30.365072]]]}, "properties": {"name": "Burleson", "fips": "051"}}, {"type": "Feature", "geometry": {"type": "Polygon", "coordinates": [[[-98.334323, 28.0578], [-98.803325, 28.05748], [-98.800848, 28.647306], [-98.335047, 28.648275], [-98.335031, 28.612658], [-98.334323, 28.0578]]]}, "properties": {"name": "McMullen", "fips": "311"}}]}