{"type": "FeatureCollection", "features": [{"type": "Feature", "geometry": {"type": "Point", "coordinates": [-98.07606, 28.20173]}, "properties": {"voltage_kv": 230.0, "owner": "NOT AVAILABLE", "pipeline_operator": "El Paso Texas Pipeline Co", "distance_miles": 0.4}}, {"type": "Feature", "geometry": {"type": "Point", "coordinates": [-97.05309, 29.78105]}, "properties": {"voltage_kv": 345.0, "owner": "BLUEBONNET ELECTRIC COOP, INC", "pipeline_operator": "Energy Transfer", "distance_miles": 2.23}}, {"type": "Feature", "geometry": {"type": "Point", "coordinates": [-96.75633, 29.91408]}, "properties": {"voltage_kv": 345.0, "owner": "BLUEBONNET ELECTRIC COOP, INC", "pipeline_operator": "Energy Transfer", "distance_miles": 1.65}}, {"type": "Feature", "geometry": {"type": "Point", "coordinates": [-97.27218, 30.14191]}, "properties": {"voltage_kv": 345.0, "owner": "ONCOR ELECTRIC DELIVERY CO.", "pipeline_operator": "El Paso Texas Pipeline Co", "distance_miles": 1.22}}, {"type": "Feature", "geometry": {"type": "Point", "coordinates": [-99.20217, 27.34075]}, "properties": {"voltage_kv": 345.0, "owner": "AEP TEXAS CENTRAL COMPANY", "pipeline_operator": "Kinder Morgan Texas Pipeline Co", "distance_miles": 1.09}}, {"type": "Feature", "geometry": {"type": "Point", "coordinates": [-98.84169, 28.962]}, "properties": {"voltage_kv": 345.0, "owner": "AEP TEXAS CENTRAL COMPANY", "pipeline_operator": "Transcontinental Gas PL", "distance_miles": 0.45}}, {"type": "Feature", "geometry": {"type": "Point", "coordinates": [-97.60196, 30.06584]}, "properties": {"voltage_kv": 345.0, "owner": "BLUEBONNET ELECTRIC COOP, INC", "pipeline_operator": "El Paso Texas Pipeline Co", "distance_miles": 0.76}}, {"type": "Feature", "geometry": {"type": "Point", "coordinates": [-96.98671, 30.04371]}, "properties": {"voltage_kv": 345.0, "owner": "BLUEBONNET ELECTRIC COOP, INC", "pipeline_operator": "Energy Transfer", "distance_miles": 0.38}}, {"type": "Feature", "geometry": {"type": "Point", "coordinates": [-98.23923, 28.73318]}, "properties": {"voltage_kv": 345.0, "owner": "AEP TEXAS CENTRAL COMPANY", "pipeline_operator": "El Paso Texas Pipeline Co", "distance_miles": 2.31}}, {"type": "Feature", "geometry": {"type": "Point", "coordinates": [-99.25498, 27.45094]}, "properties": {"voltage_kv": 345.0, "owner": "AEP", "pipeline_operator": "Kinder Morgan Texas Pipeline Co", "distance_miles": 2.75}}, {"type": "Feature", "geometry": {"type": "Point", "coordinates": [-97.80938, 28.91094]}, "properties": {"voltage_kv": 345.0, "owner": "AEP TEXAS CENTRAL COMPANY", "pipeline_operator": "El Paso Texas Pipeline Co", "distance_miles": 1.19}}, {"type": "Feature", "geometry": {"type": "Point", "coordinates": [-97.84983, 28.25676]}, "properties": {"voltage_kv": 345.0, "owner": "AEP TEXAS CENTRAL COMPANY", "pipeline_operator": "El Paso Texas Pipeline Co", "distance_miles": 0.43}}]}