{"type": "FeatureCollection", "features": [{"type": "Feature", "geometry": {"type": "Polygon", "coordinates": [[[-95.15341, 32.570115], [-95.15211, 32.902641], [-94.719942, 32.904502], [-94.720065, 32.90045], [-94.705177, 32.892062], [-94.705878, 32.879177], [-94.70214, 32.793088], [-94.70179, 32.652209], [-94.986935, 32.537246], [-95.15341, 32.570115]]]}, "properties": {"name": "Upshur", "fips": "459"}}, {"type": "Feature", "geometry": {"type": "Polygon", "coordinates": [[[-94.865857, 31.526916], [-95.000212, 31.428196], [-95.003345, 31.42571], [-95.101382, 31.469887], [-95.176359, 31.584826], [-95.273203, 31.592886], [-95.258859, 31.609959], [-95.412908, 31.835157], [-95.446747, 31.843116], [-95.428512, 32.084475], [-95.447088, 32.107291], [-95.456843, 32.112307], [-95.459908, 32.135559], [-94.985272, 32.137989], [-94.985037, 31.846193], [-94.937532, 31.845555], [-94.967167, 31.753767], [-94.951969, 31.641351], [-94.865857, 31.526916]]]}, "properties": {"name": "Cherokee", "fips": "073"}}, {"type": "Feature", "geometry": {"type": "Polygon", "coordinates": [[[-94.039034, 31.134271], [-94.044154, 31.409979], [-93.983239, 31.466114], [-93.984461, 31.569419], [-93.834923, 31.58621], [-93.818582, 31.554826], [-93.798087, 31.534044], [-93.729613, 31.487922], [-93.695866, 31.409392], [-93.670182, 31.387184], [-93.640805, 31.372546], [-93.671676, 31.299586], [-93.644407, 31.27711], [-93.620829, 31.271299], [-93.614402, 31.260869], [-93.608158, 31.227835], [-93.607243, 31.204806], [-93.602315, 31.181742], [-93.599705, 31.176456], [-93.600308, 31.176158], [-93.911126, 31.158071], [-94.039034, 31.134271]]]}, "properties": {"name": "Sabine", "fips": "403"}}, {"type": "Feature", "geometry": {"type": "Polygon", "coordinates": [[[-94.511431, 31.973984], [-94.01563, 31.979856], [-93.975377, 31.92366], [-93.932135, 31.893672], [-93.92029, 31.888651], [-93.889193, 31.856819], [-93.878225, 31.844276], [-93.840029, 31.800596], [-93.812477, 31.715246], [-93.817059, 31.671694], [-93.82629, 31.614903], [-93.834924, 31.586211], [-93.834923, 31.58621], [-93.984461, 31.569419], [-94.090717, 31.620609], [-94.399091, 31.653596], [-94.452416, 31.844281], [-94.511431, 31.973984]]]}, "properties": {"name": "Shelby", "fips": "419"}}, {"type": "Feature", "geometry": {"type": "Polygon", "coordinates": [[[-94.985272, 32.137989], [-95.459908, 32.135559], [-95.488733, 32.232486], [-95.449165, 32.355233], [-95.5943, 32.479858], [-95.594541, 32.687026], [-95.47297, 32.606426], [-95.332164, 32.604252], [-95.167523, 32.543957], [-95.15341, 32.570115], [-94.986935, 32.537246], [-94.986406, 32.371322], [-94.985411, 32.37082], [-94.985272, 32.137989]]]}, "properties": {"name": "Smith", "fips": "423"}}, {"type": "Feature", "geometry": {"type": "Polygon", "coordinates": [[[-94.326616, 31.224754], [-94.339773, 31.24082], [-94.311042, 31.589252], [-94.395361, 31.638752], [-94.399091, 31.653596], [-94.090717, 31.620609], [-93.984461, 31.569419], [-93.983239, 31.466114], [-94.044154, 31.409979], [-94.039034, 31.134271], [-94.129632, 31.09928], [-94.326616, 31.224754]]]}, "properties": {"name": "San Augustine", "fips": "405"}}, {"type": "Feature", "geometry": {"type": "Polygon", "coordinates": [[[-94.986935, 32.537246], [-94.70179, 32.652209], [-94.701986, 32.421782], [-94.579219, 32.394916], [-94.600776, 32.360044], [-94.638347, 32.370539], [-94.985411, 32.37082], [-94.986406, 32.371322], [-94.986935, 32.537246]]]}, "properties": {"name": "Gregg", "fips": "183"}}, {"type": "Feature", "geometry": {"type": "Polygon", "coordinates": [[[-94.129632, 31.09928], [-94.039034, 31.134271], [-93.911126, 31.158071], [-93.865711, 30.947218], [-93.901452, 30.242672], [-94.117604, 30.241665], [-94.083386, 30.342181], [-94.116498, 30.433966], [-94.071689, 30.526033], [-94.094812, 30.575543], [-94.05096, 30.638568], [-94.125824, 30.684052], [-94.150119, 30.790203], [-94.179343, 30.794974], [-94.243766, 30.983554], [-94.238424, 31.013705], [-94.353782, 31.039371], [-94.451127, 31.003445], [-94.45782, 31.033326], [-94.129632, 31.09928]]]}, "properties": {"name": "Jasper", "fips": "241"}}, {"type": "Feature", "geometry": {"type": "Polygon", "coordinates": [[[-94.326616, 31.224754], [-94.495874, 31.405728], [-94.530634, 31.398654], [-94.544888, 31.431715], [-94.728679, 31.457226], [-94.865857, 31.526916], [-94.951969, 31.641351], [-94.967167, 31.753767], [-94.937532, 31.845555], [-94.452416, 31.844281], [-94.399091, 31.653596], [-94.395361, 31.638752], [-94.311042, 31.589252], [-94.339773, 31.24082], [-94.326616, 31.224754]]]}, "properties": {"name": "Nacogdoches", "fips": "347"}}, {"type": "Feature", "geometry": {"type": "Polygon", "coordinates": [[[-93.901452, 30.242672], [-93.865711, 30.947218], [-93.911126, 31.158071], [-93.600308, 31.176158], [-93.599705, 31.176456], [-93.598828, 31.174679], [-93.588503, 31.165581], [-93.579215, 31.167422], [-93.552649, 31.185575], [-93.55254, 31.185605], [-93.548931, 31.186601], [-93.535097, 31.185614], [-93.531744, 31.180817], [-93.527644, 31.074509], [-93.540354, 31.008135], [-93.530936, 30.924534], [-93.554576, 30.87747], [-93.55497, 30.876685], [-93.558617, 30.869424], [-93.558672, 30.868829], [-93.563292, 30.818503], [-93.578395, 30.802047], [-93.727844, 30.57407], [-93.740045, 30.538765], [-93.710117, 30.5064], [-93.697828, 30.443838], [-93.698302, 30.438657], [-93.702665, 30.429947], [-93.741701, 30.403007], [-93.751437, 30.396288], [-93.757654, 30.390423], [-93.765822, 30.333318], [-93.735896, 30.29944], [-93.723586, 30.294951], [-93.720575, 30.295961], [-93.716223, 30.244318], [-93.901452, 30.242672]]]}, "properties": {"name": "Newton", "fips": "351"}}, {"type": "Feature", "geometry": {"type": "Polygon", "coordinates": [[[-94.491818, 32.394137], [-94.579219, 32.394916], [-94.701986, 32.421782], [-94.70179, 32.652209], [-94.70214, 32.793088], [-94.507323, 32.693738], [-94.390783, 32.694377], [-94.242809, 32.75073], [-94.043147, 32.69303], [-94.042913, 32.655127], [-94.04278, 32.643466], [-94.042824, 32.640305], [-94.042926, 32.622015], [-94.042929, 32.61826], [-94.042919, 32.610142], [-94.043083, 32.564261], [-94.043142, 32.559502], [-94.043081, 32.513613], [-94.042885, 32.505145], [-94.042911, 32.492852], [-94.043089, 32.486561], [-94.043072, 32.4843], [-94.042955, 32.480261], [-94.042995, 32.478004], [-94.042902, 32.472906], [-94.042875, 32.471348], [-94.042903, 32.470386], [-94.042908, 32.439891], [-94.042986, 32.435507], [-94.042899, 32.400659], [-94.042923, 32.399918], [-94.042901, 32.392283], [-94.347563, 32.330682], [-94.491818, 32.394137]]]}, "properties": {"name": "Harrison", "fips": "203"}}, {"type": "Feature", "geometry": {"type": "Polygon", "coordinates": [[[-94.452416, 31.844281], [-94.937532, 31.845555], [-94.985037, 31.846193], [-94.985272, 32.137989], [-94.985411, 32.37082], [-94.638347, 32.370539], [-94.600776, 32.360044], [-94.579219, 32.394916], [-94.491818, 32.394137], [-94.5805, 32.201363], [-94.599978, 31.973193], [-94.511431, 31.973984], [-94.452416, 31.844281]]]}, "properties": {"name": "Rusk", "fips": "401"}}, {"type": "Feature", "geometry": {"type": "Polygon", "coordinates": [[[-94.326616, 31.224754], [-94.129632, 31.09928], [-94.45782, 31.033326], [-94.561943, 31.058952], [-94.842947, 31.146578], [-94.909502, 31.337059], [-94.95811, 31.38693], [-94.959415, 31.388884], [-94.966254, 31.391205], [-94.964521, 31.395558], [-94.967634, 31.397412], [-94.969369, 31.396948], [-94.973581, 31.399759], [-94.97778, 31.399381], [-94.976068, 31.402], [-94.976291, 31.40525], [-94.979364, 31.405975], [-94.976033, 31.407744], [-94.983053, 31.411593], [-94.984753, 31.41385], [-94.988061, 31.414417], [-94.990043, 31.413356], [-94.993832, 31.41422], [-94.994108, 31.417835], [-94.997132, 31.41678], [-94.998247, 31.42004], [-95.001258, 31.417949], [-95.005566, 31.421349], [-95.003345, 31.42571], [-95.000212, 31.428196], [-94.865857, 31.526916], [-94.728679, 31.457226], [-94.544888, 31.431715], [-94.530634, 31.398654], [-94.495874, 31.405728], [-94.326616, 31.224754]]]}, "properties": {"name": "Angelina", "fips": "005"}}, {"type": "Feature", "geometry": {"type": "Polygon", "coordinates": [[[-94.277594, 32.880532], [-94.046061, 32.880949], [-94.042886, 32.881089], [-94.042886, 32.880965], [-94.043025, 32.880446], [-94.042785, 32.871486], [-94.043026, 32.797476], [-94.042747, 32.786973], [-94.042829, 32.785277], [-94.042938, 32.780558], [-94.043027, 32.776863], [-94.042947, 32.767991], [-94.043147, 32.693031], [-94.043147, 32.69303], [-94.242809, 32.75073], [-94.390783, 32.694377], [-94.507323, 32.693738], [-94.70214, 32.793088], [-94.705878, 32.879177], [-94.653994, 32.879506], [-94.277594, 32.880532]]]}, "properties": {"name": "Marion", "fips": "315"}}, {"type": "Feature", "geometry": {"type": "Polygon", "coordinates": [[[-94.511431, 31.973984], [-94.599978, 31.973193], [-94.5805, 32.201363], [-94.491818, 32.394137], [-94.347563, 32.330682], [-94.042901, 32.392283], [-94.042763, 32.373332], [-94.042739, 32.363559], [-94.042733, 32.269696], [-94.042732, 32.26962], [-94.042662, 32.218146], [-94.042621, 32.196005], [-94.042566, 32.166894], [-94.042539, 32.166826], [-94.042591, 32.158097], [-94.042681, 32.137956], [-94.042337, 32.119914], [-94.0427, 32.056012], [-94.04272, 31.999265], [-94.01563, 31.979856], [-94.511431, 31.973984]]]}, "properties": {"name": "Panola", "fips": "365"}}]}