{"type": "FeatureCollection", "features": [{"type": "Feature", "geometry": {"type": "Point", "coordinates": [-95.4112, 32.0181]}, "properties": {"kind": "oil", "district": "06", "lease_no": "16194", "lease_name": "FRANKSTON", "field_name": "GIRLIE CALDWELL (GOODLAND LM)", "operator_no": "350605", "operator_name": "JAMEX, INC.", "period": "202607", "flared_mcf": 47090, "produced_mcf": 47090, "flared_mmcfd": 1.519, "wells": 1, "county": "Cherokee"}}, {"type": "Feature", "geometry": {"type": "Point", "coordinates": [-95.40812, 32.09617]}, "properties": {"kind": "oil", "district": "06", "lease_no": "16075", "lease_name": "LIONHEAD", "field_name": "GIRLIE CALDWELL (GOODLAND LM)", "operator_no": "350605", "operator_name": "VALENCE OPERATING COMPANY", "period": "202607", "flared_mcf": 10410, "produced_mcf": 10410, "flared_mmcfd": 0.336, "wells": 1, "county": "Cherokee"}}, {"type": "Feature", "geometry": {"type": "Point", "coordinates": [-95.38322, 32.29439]}, "properties": {"kind": "oil", "district": "06", "lease_no": "15981", "lease_name": "CLEO", "field_name": "GIRLIE CALDWELL (GOODLAND LM)", "operator_no": "350605", "operator_name": "VALENCE OPERATING COMPANY", "period": "202607", "flared_mcf": 4870, "produced_mcf": 4870, "flared_mmcfd": 0.157, "wells": 1, "county": "Smith"}}, {"type": "Feature", "geometry": {"type": "Point", "coordinates": [-95.38323, 32.29442]}, "properties": {"kind": "oil", "district": "06", "lease_no": "15993", "lease_name": "ANTONY", "field_name": "GIRLIE CALDWELL (GOODLAND LM)", "operator_no": "350605", "operator_name": "VALENCE OPERATING COMPANY", "period": "202607", "flared_mcf": 3840, "produced_mcf": 3840, "flared_mmcfd": 0.124, "wells": 1, "county": "Smith"}}, {"type": "Feature", "geometry": {"type": "Point", "coordinates": [-95.16615, 32.36783]}, "properties": {"kind": "oil", "district": "06", "lease_no": "16109", "lease_name": "EAST LANE CHAPEL PALUXY A UNIT", "field_name": "LANE CHAPEL (PALUXY A SAND)", "operator_no": "518506", "operator_name": "3-T EXPLORATION, INC.", "period": "202607", "flared_mcf": 300, "produced_mcf": 300, "flared_mmcfd": 0.01, "wells": 8, "county": "Smith"}}, {"type": "Feature", "geometry": {"type": "Point", "coordinates": [-95.26408, 32.47058]}, "properties": {"kind": "oil", "district": "06", "lease_no": "04884", "lease_name": "SAND FLAT UNIT", "field_name": "SAND FLAT", "operator_no": "804590", "operator_name": "VESS OIL CORPORATION", "period": "202607", "flared_mcf": 260, "produced_mcf": 2600, "flared_mmcfd": 0.008, "wells": 61, "county": "Smith"}}, {"type": "Feature", "geometry": {"type": "Point", "coordinates": [-95.20492, 32.35974]}, "properties": {"kind": "oil", "district": "06", "lease_no": "15873", "lease_name": "WEST LANE CHAPEL PALUXY A UNIT", "field_name": "LANE CHAPEL (PALUXY A SAND)", "operator_no": "518506", "operator_name": "3-T EXPLORATION, INC.", "period": "202607", "flared_mcf": 250, "produced_mcf": 250, "flared_mmcfd": 0.008, "wells": 9, "county": "Smith"}}, {"type": "Feature", "geometry": {"type": "Point", "coordinates": [-95.41208, 32.17004]}, "properties": {"kind": "oil", "district": "06", "lease_no": "15266", "lease_name": "COWAN UNIT", "field_name": "GIRLIE CALDWELL (GOODLAND LM)", "operator_no": "350605", "operator_name": "VALENCE OPERATING COMPANY", "period": "202607", "flared_mcf": 250, "produced_mcf": 250, "flared_mmcfd": 0.008, "wells": 1, "county": "Smith"}}, {"type": "Feature", "geometry": {"type": "Point", "coordinates": [-94.90365, 32.1241]}, "properties": {"kind": "gas", "district": "06", "lease_no": "127334", "lease_name": "REDWING HEIRS", "field_name": "MINDEN (TRAVIS PEAK CONS.)", "operator_no": "429781", "operator_name": "JANDAR EXPLORATION, L. C.", "period": "202607", "flared_mcf": 51, "produced_mcf": 51, "flared_mmcfd": 0.002, "wells": 1, "county": "Rusk"}}, {"type": "Feature", "geometry": {"type": "Point", "coordinates": [-94.87561, 32.16854]}, "properties": {"kind": "gas", "district": "06", "lease_no": "169071", "lease_name": "WALLACE, J GAS UNIT", "field_name": "MINDEN (COTTON VALLEY CONS.)", "operator_no": "429781", "operator_name": "JANDAR EXPLORATION, L. C.", "period": "202607", "flared_mcf": 44, "produced_mcf": 44, "flared_mmcfd": 0.001, "wells": 1, "county": "Rusk"}}, {"type": "Feature", "geometry": {"type": "Point", "coordinates": [-93.58171, 30.969]}, "properties": {"kind": "gas", "district": "03", "lease_no": "300246", "lease_name": "ARTEMIS", "field_name": "MAGNOLIA SPRINGS (AUSTIN CHALK)", "operator_no": "102302", "operator_name": "THERON ENERGY OPERATING, LLC", "period": "202606", "flared_mcf": 39, "produced_mcf": 83716, "flared_mmcfd": 0.001, "wells": 1, "county": "Newton"}}]}