{"type": "FeatureCollection", "features": [{"type": "Feature", "geometry": {"type": "Point", "coordinates": [-94.30877, 32.59041]}, "properties": {"voltage_kv": 345.0, "owner": "SOUTHWESTERN ELECTRIC POWER CO", "pipeline_operator": "Coral Energy Pipeline Co", "distance_miles": 0.68}}, {"type": "Feature", "geometry": {"type": "Point", "coordinates": [-94.21522, 32.65832]}, "properties": {"voltage_kv": 345.0, "owner": "SOUTHWESTERN ELECTRIC POWER CO", "pipeline_operator": "Texas Eastern Trans Co", "distance_miles": 2.06}}, {"type": "Feature", "geometry": {"type": "Point", "coordinates": [-95.256, 32.27929]}, "properties": {"voltage_kv": 345.0, "owner": "ONCOR ELECTRIC DELIVERY CO.", "pipeline_operator": "Atmos Pipeline - Texas", "distance_miles": 1.41}}, {"type": "Feature", "geometry": {"type": "Point", "coordinates": [-94.62609, 32.07955]}, "properties": {"voltage_kv": 345.0, "owner": "CHEROKEE COUNTY ELEC COOP ASSN", "pipeline_operator": "Enbridge Pipelines (East Texas)", "distance_miles": 1.71}}, {"type": "Feature", "geometry": {"type": "Point", "coordinates": [-94.94737, 32.21214]}, "properties": {"voltage_kv": 345.0, "owner": "UPSHUR RURAL ELEC COOP CORP", "pipeline_operator": "Enbridge Pipelines (East Texas)", "distance_miles": 2.44}}, {"type": "Feature", "geometry": {"type": "Point", "coordinates": [-93.73888, 30.26186]}, "properties": {"voltage_kv": 500.0, "owner": "DEEP EAST TEXAS ELEC COOP INC", "pipeline_operator": "Centana Pipeline Co (TX)", "distance_miles": 1.27}}, {"type": "Feature", "geometry": {"type": "Point", "coordinates": [-95.21585, 32.18621]}, "properties": {"voltage_kv": 345.0, "owner": "ONCOR ELECTRIC DELIVERY CO.", "pipeline_operator": "Enbridge Pipelines (East Texas)", "distance_miles": 1.36}}, {"type": "Feature", "geometry": {"type": "Point", "coordinates": [-94.55103, 32.84932]}, "properties": {"voltage_kv": 345.0, "owner": "UPSHUR RURAL ELEC COOP CORP", "pipeline_operator": "Enbridge Pipelines (East Texas)", "distance_miles": 0.33}}, {"type": "Feature", "geometry": {"type": "Point", "coordinates": [-94.8024, 32.88527]}, "properties": {"voltage_kv": 345.0, "owner": "SOUTHWESTERN ELECTRIC POWER CO", "pipeline_operator": "Enbridge Pipelines (East Texas)", "distance_miles": 1.49}}, {"type": "Feature", "geometry": {"type": "Point", "coordinates": [-93.96134, 30.28882]}, "properties": {"voltage_kv": 500.0, "owner": "ENTERGY TEXAS INC.", "pipeline_operator": "Transcontinental Gas PL", "distance_miles": 0.87}}, {"type": "Feature", "geometry": {"type": "Point", "coordinates": [-95.33639, 32.505]}, "properties": {"voltage_kv": 345.0, "owner": "ONCOR ELECTRIC DELIVERY CO.", "pipeline_operator": "Gulf South Pipeline Co", "distance_miles": 1.88}}, {"type": "Feature", "geometry": {"type": "Point", "coordinates": [-94.40455, 32.75477]}, "properties": {"voltage_kv": 345.0, "owner": "UPSHUR RURAL ELEC COOP CORP", "pipeline_operator": "Texas Eastern Trans Co", "distance_miles": 2.73}}, {"type": "Feature", "geometry": {"type": "Point", "coordinates": [-94.89264, 32.29467]}, "properties": {"voltage_kv": 345.0, "owner": "UPSHUR RURAL ELEC COOP CORP", "pipeline_operator": "Gulf South Pipeline Co", "distance_miles": 2.05}}, {"type": "Feature", "geometry": {"type": "Point", "coordinates": [-95.04655, 31.7156]}, "properties": {"voltage_kv": 345.0, "owner": "NOT AVAILABLE", "pipeline_operator": "Enbridge Pipelines (East Texas)", "distance_miles": 1.54}}, {"type": "Feature", "geometry": {"type": "Point", "coordinates": [-94.52571, 32.51487]}, "properties": {"voltage_kv": 345.0, "owner": "SOUTHWESTERN ELECTRIC POWER CO.", "pipeline_operator": "Enbridge Pipelines (East Texas)", "distance_miles": 1.83}}, {"type": "Feature", "geometry": {"type": "Point", "coordinates": [-94.46292, 32.1991]}, "properties": {"voltage_kv": 345.0, "owner": "NOT AVAILABLE", "pipeline_operator": "Enbridge Pipelines (East Texas)", "distance_miles": 1.35}}]}