{"type": "FeatureCollection", "features": [{"type": "Feature", "geometry": {"type": "LineString", "coordinates": [[-93.18766, 31.98003], [-93.19021, 31.97974], [-93.1912, 31.97813], [-93.19294, 31.97542], [-93.19456, 31.97281], [-93.19631, 31.97009], [-93.19778, 31.96764], [-93.19963, 31.96437], [-93.20116, 31.96165], [-93.20287, 31.95869], [-93.20461, 31.9556], [-93.20633, 31.95256], [-93.20802, 31.94962], [-93.20978, 31.94652], [-93.21147, 31.94358], [-93.21344, 31.94072], [-93.21527, 31.93803], [-93.21715, 31.93533], [-93.21905, 31.93251], [-93.22108, 31.92954], [-93.2231, 31.9266], [-93.22492, 31.92387], [-93.22638, 31.92156], [-93.22799, 31.91898], [-93.23003, 31.91575], [-93.23184, 31.91287], [-93.23368, 31.91001], [-93.23539, 31.90724], [-93.23725, 31.90399], [-93.23963, 31.90008], [-93.24105, 31.89754], [-93.24263, 31.89486], [-93.24413, 31.89226], [-93.24572, 31.8895], [-93.24732, 31.8866], [-93.24909, 31.8835], [-93.25083, 31.88029], [-93.25244, 31.87731], [-93.25423, 31.87412], [-93.25571, 31.87148], [-93.25746, 31.86822], [-93.25914, 31.86522], [-93.26076, 31.86233], [-93.26246, 31.85924], [-93.26411, 31.85628], [-93.26567, 31.85349], [-93.26746, 31.85064], [-93.2693, 31.84771], [-93.27111, 31.84483], [-93.27295, 31.84187], [-93.27486, 31.8389], [-93.27664, 31.83604], [-93.27861, 31.83291], [-93.28055, 31.82986], [-93.28243, 31.8269], [-93.28441, 31.82383], [-93.28621, 31.82106], [-93.28776, 31.81851], [-93.28949, 31.81563], [-93.29129, 31.81254], [-93.29308, 31.80949], [-93.29492, 31.8064], [-93.29671, 31.8033], [-93.2985, 31.80023], [-93.30031, 31.79716], [-93.30215, 31.79408], [-93.30398, 31.79096], [-93.30571, 31.78793], [-93.30753, 31.78485], [-93.30918, 31.78195], [-93.31099, 31.77884], [-93.3128, 31.77574], [-93.31454, 31.77278], [-93.31644, 31.76953], [-93.31812, 31.76665], [-93.31981, 31.76373], [-93.3215, 31.76087], [-93.32299, 31.75833], [-93.32442, 31.75563], [-93.32603, 31.75261], [-93.32749, 31.74989], [-93.3293, 31.74652], [-93.33075, 31.74373], [-93.33204, 31.74125], [-93.33333, 31.73867], [-93.33467, 31.73592], [-93.33624, 31.73276], [-93.3376, 31.72991], [-93.33907, 31.72662], [-93.34031, 31.72387], [-93.34165, 31.72086], [-93.34317, 31.71781], [-93.34469, 31.71485], [-93.34622, 31.71178], [-93.34771, 31.70891], [-93.34936, 31.70566], [-93.3509, 31.70259], [-93.35209, 31.69963], [-93.35325, 31.69671], [-93.35457, 31.69335], [-93.35587, 31.69015], [-93.3572, 31.68684], [-93.3585, 31.68352], [-93.35968, 31.68054], [-93.36096, 31.67729], [-93.36223, 31.67415], [-93.36354, 31.67081], [-93.36481, 31.66766], [-93.366, 31.66458], [-93.36761, 31.66107], [-93.3687, 31.65882], [-93.36998, 31.65597], [-93.37125, 31.65322], [-93.37254, 31.65048], [-93.37383, 31.64755], [-93.37505, 31.64453], [-93.37618, 31.64158], [-93.37735, 31.63849], [-93.37855, 31.63545], [-93.37963, 31.63271], [-93.3808, 31.6297], [-93.3819, 31.62689], [-93.38307, 31.62419], [-93.38433, 31.62136], [-93.38548, 31.61868], [-93.38679, 31.61568], [-93.38837, 31.61209], [-93.38992, 31.60928], [-93.39136, 31.60667], [-93.39287, 31.60392], [-93.39456, 31.60111], [-93.39632, 31.59816], [-93.3981, 31.59518], [-93.39985, 31.59224], [-93.40156, 31.58927], [-93.4034, 31.58605], [-93.40502, 31.58324], [-93.40669, 31.58035], [-93.40857, 31.57711], [-93.41016, 31.57432], [-93.41204, 31.57106], [-93.41375, 31.56807], [-93.41552, 31.56501], [-93.41683, 31.56274], [-93.41861, 31.55964], [-93.41984, 31.5575], [-93.4209, 31.55566], [-93.4211, 31.55532], [-93.42276, 31.5524], [-93.42425, 31.54986], [-93.42551, 31.54697], [-93.42662, 31.54461], [-93.42809, 31.5413], [-93.42933, 31.53851], [-93.43039, 31.53604], [-93.43095, 31.53472], [-93.43177, 31.53279], [-93.43307, 31.52974], [-93.43405, 31.52753], [-93.43515, 31.52494], [-93.43654, 31.52164], [-93.43787, 31.51847], [-93.43898, 31.51588], [-93.43982, 31.51381], [-93.44094, 31.51122], [-93.4425, 31.50795], [-93.44398, 31.50486], [-93.44539, 31.50185], [-93.44687, 31.49872], [-93.44842, 31.49548], [-93.44978, 31.49258], [-93.45123, 31.48958], [-93.45241, 31.48709], [-93.45373, 31.48429], [-93.4551, 31.48139], [-93.45671, 31.47806], [-93.45786, 31.47563], [-93.45922, 31.47279], [-93.46095, 31.46965], [-93.46265, 31.4666], [-93.46436, 31.46348], [-93.46572, 31.46103], [-93.46715, 31.45844], [-93.46872, 31.45558], [-93.47015, 31.45304], [-93.47187, 31.44991], [-93.4736, 31.44682], [-93.47503, 31.44416], [-93.47642, 31.44152], [-93.47809, 31.43827], [-93.47929, 31.43594], [-93.48085, 31.43291], [-93.48206, 31.43055], [-93.48346, 31.42809], [-93.48493, 31.42553], [-93.48648, 31.42277], [-93.48802, 31.42009], [-93.48926, 31.41784], [-93.49056, 31.415], [-93.49193, 31.41214], [-93.49344, 31.40878], [-93.49477, 31.40585], [-93.49603, 31.40311], [-93.49716, 31.4004], [-93.49843, 31.39734], [-93.49962, 31.39443], [-93.50081, 31.39156], [-93.50203, 31.38851], [-93.50321, 31.38569], [-93.50419, 31.38327], [-93.50562, 31.38006], [-93.50702, 31.37695], [-93.50846, 31.37417], [-93.50999, 31.37131], [-93.51159, 31.36818], [-93.51308, 31.36536], [-93.51458, 31.36246], [-93.51601, 31.35966], [-93.51733, 31.35718], [-93.51872, 31.35451], [-93.51999, 31.35204], [-93.52136, 31.3494], [-93.52312, 31.34608], [-93.52421, 31.34389], [-93.52554, 31.34136], [-93.52716, 31.33828], [-93.52866, 31.33538], [-93.52834, 31.33196], [-93.52804, 31.32882], [-93.52773, 31.32533], [-93.52744, 31.32223], [-93.5272, 31.31958], [-93.52689, 31.31609], [-93.52659, 31.31277], [-93.52628, 31.30947], [-93.52602, 31.30659], [-93.52575, 31.30371], [-93.52579, 31.30066], [-93.52581, 31.29767], [-93.52584, 31.29498], [-93.52587, 31.29198], [-93.5259, 31.28864], [-93.52595, 31.28525], [-93.52599, 31.28171], [-93.52602, 31.27919], [-93.52605, 31.27587], [-93.52608, 31.27332], [-93.52611, 31.27056], [-93.52615, 31.26784], [-93.52619, 31.26432], [-93.52622, 31.26102], [-93.52625, 31.258], [-93.52628, 31.25511], [-93.52632, 31.25167], [-93.52634, 31.2486], [-93.52637, 31.24628], [-93.52639, 31.24369], [-93.52644, 31.23967], [-93.52647, 31.23732], [-93.52651, 31.23381], [-93.52655, 31.23114], [-93.52657, 31.2283], [-93.52661, 31.22441], [-93.52664, 31.22041], [-93.52667, 31.21786], [-93.5267, 31.21496], [-93.52677, 31.21222], [-93.52677, 31.20904], [-93.5268, 31.20554], [-93.52681, 31.20292], [-93.52672, 31.20032], [-93.52665, 31.19714], [-93.52657, 31.1937], [-93.52651, 31.19067], [-93.52642, 31.18811], [-93.52637, 31.18625], [-93.52631, 31.18362], [-93.52622, 31.18087], [-93.52622, 31.18065], [-93.52612, 31.1768], [-93.5278, 31.17543], [-93.5289, 31.17454], [-93.53183, 31.17218], [-93.53478, 31.16977], [-93.53753, 31.16755], [-93.54007, 31.16554], [-93.55151, 31.15634], [-93.55915, 31.14892], [-93.57438, 31.13413], [-93.58089, 31.11175], [-93.60269, 31.07009], [-93.61356, 31.04356], [-93.63013, 31.0127], [-93.64335, 30.98743], [-93.65219, 30.96501], [-93.658, 30.95692], [-93.66235, 30.9472], [-93.66552, 30.94146], [-93.6672, 30.93872], [-93.70286, 30.88677], [-93.71365, 30.87181], [-93.7265, 30.85286], [-93.74512, 30.82413], [-93.74654, 30.82136], [-93.75485, 30.80122], [-93.7686, 30.77661], [-93.77783, 30.75481], [-93.79277, 30.71982], [-93.7978, 30.69909], [-93.80351, 30.66531], [-93.80274, 30.6329], [-93.81209, 30.45672], [-93.80942, 30.43948], [-93.79948, 30.37502], [-93.79402, 30.32778], [-93.79088, 30.29915], [-93.76086, 30.28401], [-93.75929, 30.28308], [-93.74248, 30.27189], [-93.74013, 30.26807], [-93.73866, 30.26667]]}, "properties": {"owner": "NOT AVAILABLE", "voltage_kv": 500.0}}, {"type": "Feature", "geometry": {"type": "LineString", "coordinates": [[-93.86463, 32.40478], [-93.86542, 32.4048], [-93.8656, 32.40458], [-93.86595, 32.40458], [-93.86761, 32.40555], [-93.88399, 32.41457], [-93.89175, 32.41891], [-93.89564, 32.42112], [-93.90004, 32.42112], [-93.9267, 32.42093], [-93.98595, 32.42179], [-93.99019, 32.42184], [-93.99228, 32.42187], [-93.99488, 32.4219], [-93.99856, 32.42183], [-94.0029, 32.42171], [-94.00705, 32.42161], [-94.00954, 32.42157], [-94.01278, 32.42134], [-94.01674, 32.42106], [-94.02108, 32.42074], [-94.0247, 32.4205], [-94.028, 32.42027], [-94.03203, 32.41998], [-94.03665, 32.41965], [-94.04098, 32.41934], [-94.04452, 32.4191], [-94.04864, 32.4185], [-94.05353, 32.41779], [-94.05673, 32.4173], [-94.06056, 32.41768], [-94.06427, 32.418], [-94.06812, 32.41835], [-94.0723, 32.41872], [-94.07699, 32.41912], [-94.0815, 32.41953], [-94.08388, 32.42175], [-94.08671, 32.4244], [-94.08991, 32.4274], [-94.09223, 32.42958], [-94.09459, 32.43178], [-94.09703, 32.43409], [-94.09949, 32.43641], [-94.10248, 32.43915], [-94.10574, 32.44223], [-94.10908, 32.44538], [-94.11178, 32.4479], [-94.11496, 32.45088], [-94.11736, 32.45313], [-94.11962, 32.45525], [-94.12274, 32.45815], [-94.12607, 32.46128], [-94.12897, 32.46401], [-94.13165, 32.46651], [-94.13454, 32.46919], [-94.13721, 32.4717], [-94.14024, 32.47451], [-94.14288, 32.47696], [-94.14319, 32.4797], [-94.14356, 32.48268], [-94.14396, 32.48605], [-94.14429, 32.48898], [-94.14461, 32.49148], [-94.14513, 32.49555], [-94.14558, 32.49936], [-94.14594, 32.50241], [-94.14623, 32.50525], [-94.14646, 32.50697], [-94.149, 32.50836], [-94.15177, 32.50984], [-94.15535, 32.51178], [-94.1588, 32.51364], [-94.16276, 32.51577], [-94.16681, 32.51794], [-94.1697, 32.51952], [-94.17364, 32.5213], [-94.1778, 32.52318], [-94.18086, 32.52457], [-94.18401, 32.5262], [-94.1889, 32.52872], [-94.19293, 32.5308], [-94.19708, 32.53296], [-94.20056, 32.53477], [-94.20505, 32.53709], [-94.20857, 32.5389], [-94.21154, 32.54044], [-94.21517, 32.54233], [-94.21825, 32.54392], [-94.22175, 32.54557], [-94.22357, 32.54644], [-94.22429, 32.54678], [-94.22783, 32.54845], [-94.2308, 32.54987], [-94.23463, 32.55168], [-94.23831, 32.55342], [-94.24214, 32.55523], [-94.24624, 32.55717], [-94.25115, 32.55949], [-94.25503, 32.56131], [-94.25883, 32.56338], [-94.26228, 32.56525], [-94.26643, 32.56749], [-94.27008, 32.56946], [-94.27268, 32.57087], [-94.27652, 32.57294], [-94.27986, 32.57475], [-94.2843, 32.57714], [-94.28841, 32.57938], [-94.29147, 32.58103], [-94.29542, 32.58316], [-94.30047, 32.58591], [-94.30464, 32.58816], [-94.30877, 32.59041], [-94.31131, 32.59175], [-94.31461, 32.59388], [-94.31772, 32.59588], [-94.32088, 32.5979], [-94.32439, 32.60014], [-94.3282, 32.60257], [-94.33223, 32.60516], [-94.33561, 32.60731], [-94.33863, 32.60922], [-94.34197, 32.61137], [-94.34605, 32.61399], [-94.34687, 32.61451], [-94.34943, 32.61612], [-94.35252, 32.61811], [-94.35587, 32.62023], [-94.35869, 32.62206], [-94.36159, 32.62392], [-94.3654, 32.62636], [-94.36774, 32.62785], [-94.37034, 32.62952], [-94.37318, 32.63133], [-94.37665, 32.63356], [-94.38113, 32.63643], [-94.38418, 32.63836], [-94.38793, 32.64077], [-94.39124, 32.64288], [-94.39495, 32.64527], [-94.39893, 32.64778], [-94.40078, 32.64896], [-94.4017, 32.64954], [-94.40469, 32.65147], [-94.40777, 32.65343], [-94.41048, 32.65516], [-94.41301, 32.65677], [-94.41659, 32.65906], [-94.42068, 32.66168], [-94.42374, 32.66356], [-94.42725, 32.66472], [-94.43088, 32.66589], [-94.43164, 32.66614], [-94.43598, 32.66753], [-94.44031, 32.66892], [-94.44488, 32.6704], [-94.44985, 32.672], [-94.4532, 32.67307], [-94.4572, 32.67435], [-94.46112, 32.67561], [-94.46443, 32.67668], [-94.4684, 32.67794], [-94.47338, 32.67954], [-94.47803, 32.68102], [-94.48019, 32.68173], [-94.48339, 32.68286], [-94.48625, 32.68387], [-94.49044, 32.68535], [-94.49403, 32.68664], [-94.49787, 32.68798], [-94.50224, 32.68953], [-94.50566, 32.69074], [-94.50974, 32.6922], [-94.51323, 32.69341], [-94.51631, 32.69451], [-94.52046, 32.69598], [-94.52373, 32.69713], [-94.52725, 32.69839], [-94.53237, 32.7002], [-94.53619, 32.70153], [-94.54003, 32.70289], [-94.54396, 32.70428], [-94.54864, 32.70594], [-94.55224, 32.7072], [-94.55563, 32.70841], [-94.55983, 32.70988], [-94.56312, 32.71104], [-94.56779, 32.7127], [-94.57127, 32.71388], [-94.57405, 32.71571], [-94.57463, 32.71608], [-94.57802, 32.71823], [-94.58197, 32.72074], [-94.58546, 32.72295], [-94.58945, 32.72548], [-94.59222, 32.72726], [-94.59486, 32.72893], [-94.59743, 32.73057], [-94.60067, 32.73261], [-94.60399, 32.73468], [-94.60879, 32.73518], [-94.61344, 32.73566], [-94.61788, 32.73612], [-94.62299, 32.73665], [-94.62754, 32.73712], [-94.63137, 32.73752], [-94.63429, 32.73781], [-94.63899, 32.7383], [-94.64261, 32.73865], [-94.64671, 32.73906], [-94.65302, 32.73973], [-94.65642, 32.74008], [-94.66177, 32.74064], [-94.66493, 32.74094], [-94.6685, 32.74132], [-94.67285, 32.74177], [-94.67628, 32.74213], [-94.67998, 32.74251], [-94.68338, 32.74286], [-94.68744, 32.74327], [-94.69137, 32.74368], [-94.69515, 32.74407], [-94.69748, 32.74454], [-94.69829, 32.74433]]}, "properties": {"owner": "SOUTHWESTERN ELECTRIC POWER CO", "voltage_kv": 345.0}}, {"type": "Feature", "geometry": {"type": "LineString", "coordinates": [[-94.55103, 32.84932], [-94.55149, 32.84929], [-94.55429, 32.84849], [-94.55701, 32.84494], [-94.55796, 32.84372], [-94.55641, 32.8426], [-94.55013, 32.83806], [-94.54724, 32.83608], [-94.54595, 32.83518], [-94.54486, 32.83442], [-94.53827, 32.82983], [-94.53353, 32.82637], [-94.52841, 32.82285], [-94.50047, 32.80273], [-94.4903, 32.79537], [-94.48738, 32.79367], [-94.47412, 32.78565], [-94.4622, 32.77844], [-94.43328, 32.76108], [-94.42023, 32.75068], [-94.40674, 32.74092], [-94.40396, 32.73891], [-94.40121, 32.73703], [-94.39857, 32.73514], [-94.38871, 32.72787], [-94.38626, 32.72612], [-94.38263, 32.72351], [-94.37904, 32.72105], [-94.37126, 32.71646], [-94.37023, 32.71583], [-94.36158, 32.71106], [-94.36106, 32.7108], [-94.35118, 32.70516], [-94.34776, 32.70328], [-94.34464, 32.70148], [-94.34197, 32.70082], [-94.33972, 32.70021], [-94.3385, 32.69988], [-94.33536, 32.69905], [-94.33158, 32.69805], [-94.32808, 32.69712], [-94.32471, 32.69622], [-94.32113, 32.69525], [-94.3176, 32.69432], [-94.31431, 32.69344], [-94.31067, 32.69247], [-94.30784, 32.69133], [-94.30509, 32.69022], [-94.3023, 32.68909], [-94.29959, 32.688], [-94.2963, 32.68666], [-94.2925, 32.68512], [-94.28867, 32.68357], [-94.28597, 32.68248], [-94.28282, 32.68122], [-94.27996, 32.68006], [-94.27688, 32.67883], [-94.27381, 32.67756], [-94.27041, 32.6762], [-94.26779, 32.67515], [-94.26516, 32.67429], [-94.26243, 32.6734], [-94.25967, 32.67251], [-94.25914, 32.67233], [-94.25694, 32.67161], [-94.25421, 32.67072], [-94.25028, 32.66944], [-94.24704, 32.66839], [-94.24331, 32.66718], [-94.24044, 32.66625], [-94.23698, 32.66509], [-94.23384, 32.66408], [-94.23041, 32.66297], [-94.22728, 32.66205], [-94.22449, 32.66118], [-94.2218, 32.66034], [-94.21876, 32.65942], [-94.21522, 32.65832], [-94.21208, 32.65736], [-94.20866, 32.65629], [-94.20559, 32.65535], [-94.20252, 32.65441], [-94.1997, 32.65353], [-94.19653, 32.65255], [-94.1933, 32.65154], [-94.19, 32.65052], [-94.18656, 32.64946], [-94.18338, 32.64848], [-94.1801, 32.64713], [-94.17703, 32.64587], [-94.17373, 32.64453], [-94.17034, 32.64313], [-94.16742, 32.64194], [-94.16548, 32.6411], [-94.16474, 32.64078], [-94.16093, 32.6392], [-94.16017, 32.63888], [-94.15851, 32.63818], [-94.15823, 32.63806], [-94.15502, 32.63672], [-94.15173, 32.63534], [-94.14811, 32.63384], [-94.14724, 32.63347], [-94.14555, 32.63275], [-94.14195, 32.6317], [-94.13824, 32.63059], [-94.13405, 32.62939], [-94.13097, 32.62849], [-94.12798, 32.62728], [-94.125, 32.62607], [-94.12177, 32.62443], [-94.11914, 32.62304], [-94.11607, 32.62243], [-94.11299, 32.62177], [-94.11016, 32.62117], [-94.10693, 32.6205], [-94.10386, 32.61984], [-94.10067, 32.61915], [-94.09676, 32.61834], [-94.09344, 32.61762], [-94.09003, 32.61689], [-94.08734, 32.61607], [-94.08385, 32.61499], [-94.08063, 32.614], [-94.07742, 32.61301], [-94.07413, 32.61199], [-94.07128, 32.61111], [-94.06795, 32.61009], [-94.06463, 32.60906], [-94.06163, 32.60813], [-94.05874, 32.60723], [-94.05579, 32.60617], [-94.05243, 32.60493], [-94.05091, 32.60439], [-94.04964, 32.60393], [-94.04729, 32.60307], [-94.04414, 32.60218], [-94.04034, 32.60111], [-94.03407, 32.59918], [-94.02594, 32.59678], [-94.02435, 32.5963], [-94.02061, 32.59511], [-94.0199, 32.59489], [-94.01814, 32.59433], [-94.01626, 32.59375], [-94.01538, 32.59347], [-94.00918, 32.5914], [-94.00683, 32.59063], [-94.00501, 32.59003], [-94.00079, 32.58869], [-93.99792, 32.58753], [-93.99498, 32.58632], [-93.99408, 32.58595], [-93.99387, 32.58596]]}, "properties": {"owner": "SOUTHWESTERN ELECTRIC POWER CO", "voltage_kv": 345.0}}, {"type": "Feature", "geometry": {"type": "LineString", "coordinates": [[-93.43705, 30.27977], [-93.43752, 30.28188], [-93.43914, 30.28187], [-93.44246, 30.28185], [-93.44563, 30.28182], [-93.44891, 30.28181], [-93.45219, 30.28177], [-93.45541, 30.28175], [-93.45869, 30.28173], [-93.46195, 30.28173], [-93.4644, 30.28172], [-93.46685, 30.28172], [-93.4693, 30.28172], [-93.47177, 30.28171], [-93.47506, 30.2817], [-93.4783, 30.2817], [-93.48058, 30.28168], [-93.4828, 30.28168], [-93.48504, 30.28167], [-93.48826, 30.28166], [-93.49149, 30.28165], [-93.49463, 30.28165], [-93.49772, 30.28165], [-93.50077, 30.28167], [-93.50382, 30.28175], [-93.50701, 30.28173], [-93.51025, 30.28173], [-93.51355, 30.28173], [-93.51678, 30.2817], [-93.51997, 30.28169], [-93.52324, 30.28169], [-93.52651, 30.28168], [-93.52978, 30.28167], [-93.53304, 30.28166], [-93.53629, 30.28165], [-93.53952, 30.28163], [-93.54278, 30.2816], [-93.54602, 30.28157], [-93.54927, 30.28157], [-93.55248, 30.28155], [-93.55573, 30.28152], [-93.55896, 30.28151], [-93.56193, 30.28148], [-93.56499, 30.28146], [-93.56812, 30.28145], [-93.57107, 30.28142], [-93.57413, 30.2814], [-93.57732, 30.28139], [-93.5802, 30.28136], [-93.58299, 30.28134], [-93.58601, 30.28135], [-93.58916, 30.28136], [-93.59249, 30.28135], [-93.5958, 30.28137], [-93.59903, 30.28139], [-93.60234, 30.28139], [-93.60564, 30.28141], [-93.60876, 30.28141], [-93.61204, 30.28142], [-93.61522, 30.28145], [-93.61844, 30.28145], [-93.62174, 30.28146], [-93.62507, 30.28147], [-93.62822, 30.28148], [-93.63141, 30.28149], [-93.63461, 30.28151], [-93.63786, 30.28151], [-93.64122, 30.28152], [-93.64454, 30.28153], [-93.64776, 30.28154], [-93.65106, 30.28155], [-93.65406, 30.28155], [-93.65735, 30.28156], [-93.6606, 30.28154], [-93.66384, 30.28154], [-93.66708, 30.28155], [-93.67034, 30.28155], [-93.67366, 30.28155], [-93.6762, 30.28157], [-93.67867, 30.28104], [-93.68154, 30.28044], [-93.68429, 30.27988], [-93.68747, 30.2792], [-93.69037, 30.2786], [-93.69347, 30.27796], [-93.69646, 30.27732], [-93.69956, 30.27667], [-93.70249, 30.27606], [-93.70537, 30.27546], [-93.70618, 30.27528], [-93.70771, 30.27496], [-93.7108, 30.27431], [-93.7134, 30.27376], [-93.71628, 30.27315], [-93.71892, 30.27261], [-93.72128, 30.27213], [-93.72378, 30.27161], [-93.72573, 30.27106], [-93.72809, 30.2702], [-93.73073, 30.26927], [-93.73401, 30.26809], [-93.73672, 30.2671], [-93.73866, 30.26667]]}, "properties": {"owner": "ENTERGY LOUISIANA LLC", "voltage_kv": 500.0}}, {"type": "Feature", "geometry": {"type": "LineString", "coordinates": [[-93.73866, 30.26667], [-93.74018, 30.2681], [-93.74155, 30.27042], [-93.7426, 30.27189], [-93.75918, 30.28311], [-93.79086, 30.29917], [-93.79568, 30.34251], [-93.79867, 30.36933], [-93.801, 30.38496], [-93.80405, 30.40518], [-93.80802, 30.42872], [-93.80936, 30.4395], [-93.81202, 30.45675], [-93.80324, 30.62254], [-93.80293, 30.64314], [-93.80334, 30.65999], [-93.80346, 30.6653], [-93.79274, 30.71984], [-93.77901, 30.75204], [-93.76854, 30.77664], [-93.75394, 30.8033], [-93.74802, 30.81805], [-93.74665, 30.82133], [-93.72863, 30.84983], [-93.71506, 30.86969], [-93.66702, 30.93871], [-93.65908, 30.95467], [-93.65206, 30.96486], [-93.64896, 30.97352], [-93.64202, 30.99011], [-93.61648, 31.03756], [-93.60654, 31.06027], [-93.60135, 31.07292], [-93.59152, 31.09107], [-93.58415, 31.1059], [-93.58302, 31.10781], [-93.57645, 31.12761], [-93.57188, 31.1417], [-93.57249, 31.14231]]}, "properties": {"owner": "ENTERGY TEXAS INC.", "voltage_kv": 500.0}}, {"type": "Feature", "geometry": {"type": "LineString", "coordinates": [[-94.67656, 31.60817], [-94.67665, 31.60684], [-94.67908, 31.60683], [-94.685, 31.60678], [-94.68779, 31.60683], [-94.69061, 31.60691], [-94.69742, 31.60719], [-94.70122, 31.60712], [-94.70328, 31.60713], [-94.71079, 31.60706], [-94.71285, 31.60703], [-94.71491, 31.60705], [-94.72111, 31.607], [-94.72515, 31.60694], [-94.72674, 31.60696]]}, "properties": {"owner": "NOT AVAILABLE", "voltage_kv": 345.0}}, {"type": "Feature", "geometry": {"type": "LineString", "coordinates": [[-95.19651, 32.27774], [-95.23902, 32.27884], [-95.24514, 32.27902], [-95.256, 32.27929], [-95.25604, 32.27709], [-95.25773, 32.2771], [-95.25772, 32.27751]]}, "properties": {"owner": "ONCOR ELECTRIC DELIVERY CO.", "voltage_kv": 345.0}}, {"type": "Feature", "geometry": {"type": "LineString", "coordinates": [[-94.16008, 33.29067], [-94.16093, 33.29027], [-94.16329, 33.26093], [-94.16832, 33.25117], [-94.17074, 33.24639], [-94.18169, 33.22594], [-94.18264, 33.22416], [-94.18572, 33.21841], [-94.19005, 33.21032], [-94.19369, 33.20416], [-94.19781, 33.19705], [-94.20086, 33.19217], [-94.20354, 33.18777], [-94.21633, 33.16821], [-94.21888, 33.16427], [-94.22994, 33.1465], [-94.23812, 33.13375], [-94.24087, 33.13015], [-94.24568, 33.12325], [-94.25782, 33.10345], [-94.26569, 33.0909], [-94.2741, 33.07798], [-94.2859, 33.05792], [-94.2943, 33.04748], [-94.301, 33.03747], [-94.30913, 33.02464], [-94.31261, 33.01802], [-94.32323, 33.00109], [-94.33688, 32.97491], [-94.34354, 32.96369], [-94.35001, 32.95276], [-94.35381, 32.94579], [-94.35462, 32.94445], [-94.35852, 32.93771], [-94.36913, 32.92029], [-94.37174, 32.91232], [-94.37574, 32.89662], [-94.37754, 32.88959], [-94.37894, 32.88162], [-94.37919, 32.88013], [-94.38018, 32.87503], [-94.38173, 32.86628], [-94.38286, 32.86008], [-94.38575, 32.83975], [-94.38735, 32.8274], [-94.38904, 32.8142], [-94.38974, 32.80255], [-94.39009, 32.79445], [-94.39041, 32.78728], [-94.39049, 32.78556], [-94.39058, 32.7838], [-94.39062, 32.78247], [-94.39082, 32.78109], [-94.39108, 32.77913], [-94.39124, 32.77779], [-94.39139, 32.77658], [-94.39166, 32.77452], [-94.39179, 32.77356], [-94.39209, 32.77304]]}, "properties": {"owner": "UPSHUR RURAL ELEC COOP CORP", "voltage_kv": 345.0}}, {"type": "Feature", "geometry": {"type": "LineString", "coordinates": [[-94.99326, 31.93778], [-94.99272, 31.93748], [-94.99205, 31.93622], [-94.98993, 31.93233], [-94.98448, 31.92892], [-94.92852, 31.92825], [-94.8218, 31.95793], [-94.72132, 31.98595], [-94.67853, 32.00869], [-94.66672, 32.01446], [-94.62667, 32.03241], [-94.62723, 32.04679], [-94.62609, 32.07955], [-94.62529, 32.08629], [-94.62527, 32.10374], [-94.61973, 32.13664], [-94.61821, 32.14568], [-94.61815, 32.16536], [-94.61922, 32.17638], [-94.61962, 32.20263], [-94.6176, 32.22921], [-94.61804, 32.2463], [-94.61587, 32.2487], [-94.58259, 32.25466], [-94.57488, 32.25747]]}, "properties": {"owner": "CHEROKEE COUNTY ELEC COOP ASSN", "voltage_kv": 345.0}}, {"type": "Feature", "geometry": {"type": "LineString", "coordinates": [[-94.70021, 32.74438], [-94.70009, 32.74482], [-94.69923, 32.80211], [-94.70125, 32.80574], [-94.70076, 32.8106], [-94.70947, 32.82707], [-94.72175, 32.85094], [-94.72674, 32.89883], [-94.72499, 32.90888], [-94.72463, 32.91082], [-94.7179, 32.90818], [-94.71619, 32.90766], [-94.71324, 32.90678], [-94.71313, 32.90857]]}, "properties": {"owner": "UPSHUR RURAL ELEC COOP CORP", "voltage_kv": 345.0}}, {"type": "Feature", "geometry": {"type": "LineString", "coordinates": [[-95.25772, 32.27751], [-95.25694, 32.27811], [-95.25635, 32.27811], [-95.25626, 32.2791], [-95.17077, 32.27677], [-95.13091, 32.27561], [-95.1166, 32.28231], [-95.10833, 32.28521], [-95.10268, 32.28293], [-95.08908, 32.27842], [-95.07827, 32.27481], [-95.06651, 32.27087], [-95.05564, 32.26717], [-95.01378, 32.24592], [-95.00967, 32.24346], [-94.98206, 32.22453], [-94.95218, 32.21229], [-94.94737, 32.21214], [-94.93163, 32.20583], [-94.91721, 32.20457], [-94.91069, 32.20603], [-94.90437, 32.20428], [-94.85896, 32.19895], [-94.84015, 32.19765], [-94.83452, 32.19786], [-94.79951, 32.19872], [-94.75796, 32.19892], [-94.73299, 32.20677], [-94.71, 32.20701], [-94.70358, 32.20963], [-94.62257, 32.24774], [-94.58375, 32.2547], [-94.57564, 32.25783], [-94.57488, 32.25747]]}, "properties": {"owner": "UPSHUR RURAL ELEC COOP CORP", "voltage_kv": 345.0}}, {"type": "Feature", "geometry": {"type": "LineString", "coordinates": [[-93.73786, 30.2597], [-93.73807, 30.25991], [-93.73888, 30.26186], [-93.74076, 30.26638], [-93.73866, 30.26667]]}, "properties": {"owner": "DEEP EAST TEXAS ELEC COOP INC", "voltage_kv": 500.0}}, {"type": "Feature", "geometry": {"type": "LineString", "coordinates": [[-96.10575, 32.12632], [-96.1053, 32.12666], [-96.1044, 32.12942], [-96.10281, 32.13021], [-96.09989, 32.13164], [-96.08915, 32.12376], [-96.01154, 32.11542], [-96.00166, 32.11427], [-95.99926, 32.11393], [-95.98929, 32.11369], [-95.96957, 32.11262], [-95.93599, 32.11083], [-95.92339, 32.11018], [-95.92017, 32.10994], [-95.90569, 32.10856], [-95.85012, 32.10291], [-95.80421, 32.09839], [-95.76903, 32.09173], [-95.75998, 32.08801], [-95.74871, 32.08363], [-95.70255, 32.07461], [-95.67505, 32.06913], [-95.67166, 32.06846], [-95.66848, 32.06782], [-95.66494, 32.06714], [-95.63111, 32.06056], [-95.57904, 32.05028], [-95.57366, 32.04916], [-95.57142, 32.04876], [-95.56426, 32.04736], [-95.51379, 32.0354], [-95.50761, 32.03425], [-95.50216, 32.03324], [-95.49313, 32.03162], [-95.4837, 32.02997], [-95.47092, 32.02775], [-95.46202, 32.02619], [-95.44951, 32.02402], [-95.43313, 32.02121], [-95.36701, 32.03504], [-95.35532, 32.03605], [-95.34325, 32.03584], [-95.30256, 32.03465], [-95.28623, 32.0337], [-95.27564, 32.03301], [-95.26737, 32.03252], [-95.26055, 32.03229], [-95.24992, 32.03195], [-95.23201, 32.03148], [-95.2187, 32.03081], [-95.20213, 32.03], [-95.18489, 32.02915], [-95.17172, 32.02841], [-95.1683, 32.02824], [-95.15825, 32.02783], [-95.09352, 31.99283], [-95.06624, 31.97779], [-95.05128, 31.96908], [-95.03926, 31.96151], [-95.02034, 31.95096], [-95.00238, 31.94225], [-94.99542, 31.93722], [-94.99423, 31.93773], [-94.99326, 31.93778]]}, "properties": {"owner": "ONCOR ELECTRIC DELIVERY COMPANY LLC", "voltage_kv": 345.0}}, {"type": "Feature", "geometry": {"type": "LineString", "coordinates": [[-95.21515, 32.18931], [-95.21508, 32.18616], [-95.21585, 32.18621], [-95.21593, 32.18581]]}, "properties": {"owner": "ONCOR ELECTRIC DELIVERY CO.", "voltage_kv": 345.0}}, {"type": "Feature", "geometry": {"type": "MultiLineString", "coordinates": [[[-95.34644, 32.27986], [-95.34684, 32.28034], [-95.35266, 32.28032], [-95.43462, 32.33899], [-95.44277, 32.34132], [-95.45711, 32.35473], [-95.53989, 32.41754], [-95.62238, 32.48115], [-95.82785, 32.48346], [-95.87353, 32.47965], [-95.92361, 32.48253], [-95.97146, 32.51841], [-95.99343, 32.51905], [-96.0183, 32.52181]], [[-96.0183, 32.52181], [-96.0634, 32.52682], [-96.11618, 32.53259], [-96.14267, 32.53243], [-96.17703, 32.53206], [-96.24176, 32.53685], [-96.28291, 32.53986], [-96.33722, 32.53895], [-96.3585, 32.53687], [-96.43514, 32.53679], [-96.48626, 32.52076], [-96.50601, 32.53649], [-96.53064, 32.54934], [-96.53708, 32.55337], [-96.5375, 32.55367]]]}, "properties": {"owner": "ONCOR ELECTRIC DELIVERY COMPANY LLC", "voltage_kv": 345.0}}, {"type": "Feature", "geometry": {"type": "LineString", "coordinates": [[-94.54936, 32.84864], [-94.55103, 32.84932]]}, "properties": {"owner": "UPSHUR RURAL ELEC COOP CORP", "voltage_kv": 345.0}}, {"type": "Feature", "geometry": {"type": "LineString", "coordinates": [[-94.57488, 32.25747], [-94.57564, 32.25773], [-94.58372, 32.25461], [-94.62254, 32.24765], [-94.70354, 32.20954], [-94.70998, 32.20691], [-94.73298, 32.20667], [-94.75795, 32.19882], [-94.79951, 32.19862], [-94.83452, 32.19776], [-94.84015, 32.19755], [-94.85897, 32.19885], [-94.90439, 32.20418], [-94.9107, 32.20593], [-94.91721, 32.20447], [-94.93165, 32.20573], [-94.94739, 32.21204], [-94.9522, 32.21219], [-94.98211, 32.22444], [-95.00972, 32.24337], [-95.01383, 32.24583], [-95.05568, 32.26707], [-95.06654, 32.27077], [-95.07831, 32.27471], [-95.08911, 32.27832], [-95.10272, 32.28284], [-95.10833, 32.28511], [-95.11657, 32.28222], [-95.13089, 32.27551], [-95.17078, 32.27667], [-95.25602, 32.27891], [-95.25616, 32.27789], [-95.25693, 32.27789], [-95.25772, 32.27751]]}, "properties": {"owner": "UPSHUR RURAL ELEC COOP CORP", "voltage_kv": 345.0}}, {"type": "Feature", "geometry": {"type": "LineString", "coordinates": [[-94.61148, 31.5842], [-94.61132, 31.58601], [-94.61136, 31.58811], [-94.60855, 31.59712], [-94.60533, 31.60288], [-94.60541, 31.61247], [-94.60341, 31.62425], [-94.60241, 31.62672], [-94.5986, 31.641], [-94.59822, 31.64321], [-94.59548, 31.65613], [-94.59394, 31.66132], [-94.59232, 31.66905], [-94.59075, 31.67245], [-94.58996, 31.67548], [-94.59639, 31.70227], [-94.59341, 31.71885], [-94.59943, 31.7353], [-94.60188, 31.73715], [-94.60298, 31.7435], [-94.61887, 31.77686], [-94.6437, 31.84247], [-94.6427, 31.8942], [-94.6245, 32.0009], [-94.62501, 32.01197], [-94.62469, 32.01421], [-94.6243, 32.0147]]}, "properties": {"owner": "CHEROKEE COUNTY ELEC COOP ASSN", "voltage_kv": 345.0}}, {"type": "Feature", "geometry": {"type": "LineString", "coordinates": [[-93.73624, 30.25824], [-93.73786, 30.2597]]}, "properties": {"owner": "DEEP EAST TEXAS ELEC COOP INC", "voltage_kv": 500.0}}, {"type": "Feature", "geometry": {"type": "LineString", "coordinates": [[-94.99326, 31.93778], [-94.9928, 31.93637], [-94.99276, 31.93626], [-94.9916, 31.93411], [-94.99046, 31.93199], [-94.98791, 31.93039], [-94.98466, 31.92837], [-94.98371, 31.92777], [-94.98299, 31.92732], [-94.98118, 31.92618], [-94.98026, 31.92561], [-94.97803, 31.92423], [-94.97546, 31.92262], [-94.97259, 31.92083], [-94.96961, 31.91896], [-94.96649, 31.91701], [-94.96341, 31.91506], [-94.96027, 31.91311], [-94.95716, 31.91116], [-94.95421, 31.90932], [-94.95096, 31.90729], [-94.9481, 31.9055], [-94.94479, 31.90343], [-94.94207, 31.90174], [-94.93937, 31.90003], [-94.93598, 31.89792], [-94.93337, 31.8963], [-94.93013, 31.89427], [-94.92726, 31.89249], [-94.92415, 31.89053], [-94.92109, 31.88861], [-94.91834, 31.88691], [-94.91485, 31.88472], [-94.91212, 31.88301], [-94.90865, 31.88084], [-94.90618, 31.8793], [-94.90307, 31.87734], [-94.89997, 31.8754], [-94.89684, 31.87345], [-94.89375, 31.8715], [-94.89074, 31.86963], [-94.88766, 31.86768], [-94.88452, 31.86573], [-94.88155, 31.86381], [-94.87929, 31.86244], [-94.87629, 31.86053], [-94.87429, 31.85927], [-94.87077, 31.85708], [-94.86803, 31.85537], [-94.86621, 31.85421], [-94.86545, 31.85373], [-94.8621, 31.85162], [-94.85859, 31.84942], [-94.85596, 31.84776], [-94.85277, 31.84574], [-94.84981, 31.84387], [-94.84656, 31.84183], [-94.84373, 31.84003], [-94.84035, 31.8379], [-94.8379, 31.83636], [-94.83493, 31.83448], [-94.82939, 31.83097], [-94.82636, 31.82905], [-94.82515, 31.82704], [-94.82355, 31.82434], [-94.82215, 31.82195], [-94.8201, 31.81853], [-94.81862, 31.81606], [-94.8169, 31.81311], [-94.81545, 31.81072], [-94.81374, 31.80784], [-94.81197, 31.80486], [-94.81115, 31.80346], [-94.80903, 31.79993], [-94.80678, 31.79618], [-94.80499, 31.79321], [-94.80326, 31.79034], [-94.80157, 31.78752], [-94.79999, 31.78491], [-94.79839, 31.78224], [-94.79618, 31.77859], [-94.79464, 31.77602], [-94.79268, 31.77275], [-94.79143, 31.7707], [-94.78965, 31.768], [-94.78788, 31.76529], [-94.78603, 31.76249], [-94.78434, 31.7599], [-94.783, 31.75786], [-94.78095, 31.75475], [-94.77954, 31.75261], [-94.77763, 31.74971], [-94.7759, 31.74707], [-94.77408, 31.74432], [-94.77227, 31.74156], [-94.77054, 31.7389], [-94.7685, 31.7358], [-94.76675, 31.73316], [-94.76472, 31.73003], [-94.76302, 31.72741], [-94.76094, 31.7243], [-94.75921, 31.72166], [-94.75731, 31.71878], [-94.75548, 31.71603], [-94.75352, 31.71306], [-94.75178, 31.71039], [-94.74975, 31.70732], [-94.74818, 31.70498], [-94.74649, 31.70242], [-94.74499, 31.70014], [-94.74322, 31.69742], [-94.74193, 31.6955], [-94.74014, 31.69266], [-94.73822, 31.68967], [-94.73644, 31.68688], [-94.73467, 31.68409], [-94.73291, 31.68135], [-94.73113, 31.67855], [-94.7293, 31.67566], [-94.72746, 31.67276], [-94.72561, 31.66987], [-94.72558, 31.66686], [-94.7256, 31.66398], [-94.72559, 31.66207], [-94.72559, 31.66149], [-94.72559, 31.65767], [-94.72559, 31.65469], [-94.72558, 31.65111], [-94.72558, 31.64831], [-94.72557, 31.64453], [-94.72556, 31.64178], [-94.72555, 31.63814], [-94.72555, 31.63538], [-94.72553, 31.63162], [-94.72553, 31.62888], [-94.72551, 31.62573], [-94.7255, 31.62331], [-94.72549, 31.61963], [-94.72549, 31.61675], [-94.72547, 31.61404], [-94.72622, 31.61016], [-94.72675, 31.60743], [-94.72674, 31.60644], [-94.72623, 31.60331], [-94.72585, 31.60101], [-94.72546, 31.59861], [-94.72547, 31.59529], [-94.72548, 31.59117], [-94.72548, 31.58814], [-94.72549, 31.5856], [-94.72548, 31.58166], [-94.72642, 31.57772], [-94.72706, 31.57498], [-94.72772, 31.57226], [-94.72837, 31.56948], [-94.72902, 31.56676], [-94.7297, 31.5639], [-94.73033, 31.56125], [-94.73098, 31.55853], [-94.73163, 31.55576], [-94.73223, 31.55328], [-94.7331, 31.54955], [-94.73367, 31.54722], [-94.73393, 31.54288], [-94.73412, 31.5399], [-94.73438, 31.53585], [-94.73452, 31.53355], [-94.73471, 31.53], [-94.73484, 31.52773], [-94.73507, 31.5237], [-94.73522, 31.52118], [-94.73545, 31.51718], [-94.73564, 31.51382], [-94.7358, 31.51086], [-94.73601, 31.50731], [-94.73617, 31.50432], [-94.73636, 31.50092], [-94.73658, 31.49723], [-94.73671, 31.49486], [-94.73688, 31.49162], [-94.73708, 31.48826], [-94.73725, 31.4851], [-94.73745, 31.48181], [-94.73763, 31.47853], [-94.73779, 31.47524], [-94.738, 31.47197], [-94.73817, 31.46874], [-94.73834, 31.46544], [-94.73853, 31.46217], [-94.73874, 31.45886], [-94.73887, 31.4556], [-94.73903, 31.45259], [-94.73922, 31.45004], [-94.73942, 31.44746], [-94.73966, 31.44417], [-94.73991, 31.44085], [-94.74015, 31.43765], [-94.74035, 31.43496], [-94.74054, 31.43248], [-94.74184, 31.42933], [-94.7431, 31.4263], [-94.74414, 31.42377], [-94.74563, 31.42019], [-94.74669, 31.41758], [-94.74818, 31.41399], [-94.74957, 31.4106], [-94.75057, 31.40814], [-94.75185, 31.40502], [-94.75305, 31.40214], [-94.75314, 31.40194], [-94.75406, 31.39961], [-94.75526, 31.39672], [-94.75654, 31.39364], [-94.7576, 31.39102], [-94.7587, 31.38836], [-94.75997, 31.38532], [-94.7612, 31.38215], [-94.76241, 31.37904], [-94.76347, 31.37629], [-94.76453, 31.37351], [-94.76541, 31.37084], [-94.76793, 31.37043], [-94.76861, 31.37015]]}, "properties": {"owner": "ONCOR ELECTRIC DELIVERY CO.", "voltage_kv": 345.0}}, {"type": "Feature", "geometry": {"type": "LineString", "coordinates": [[-94.83754, 33.05506], [-94.83764, 33.05396], [-94.83758, 33.05169], [-94.8376, 33.04944], [-94.83902, 33.04575], [-94.84009, 33.04292], [-94.83998, 33.03954], [-94.84006, 33.03576], [-94.8402, 33.03163], [-94.84028, 33.02749], [-94.84046, 33.02342], [-94.84057, 33.01953], [-94.84067, 33.01597], [-94.84076, 33.01244], [-94.84088, 33.00838], [-94.84099, 33.00456], [-94.84111, 33.00063], [-94.84122, 32.99662], [-94.84134, 32.99273], [-94.84144, 32.98872], [-94.84157, 32.98462], [-94.84168, 32.98059], [-94.8418, 32.97647], [-94.84194, 32.97222], [-94.84198, 32.97051], [-94.842, 32.96971], [-94.84213, 32.96669], [-94.84228, 32.96346], [-94.84104, 32.96072], [-94.83985, 32.95787], [-94.83873, 32.95528], [-94.83745, 32.95226], [-94.83588, 32.94854], [-94.83461, 32.94554], [-94.83312, 32.94204], [-94.83146, 32.93806], [-94.82987, 32.9343], [-94.82826, 32.93051], [-94.82687, 32.92717], [-94.82536, 32.9236], [-94.82346, 32.92049], [-94.82177, 32.91765], [-94.81932, 32.91355], [-94.81729, 32.91015], [-94.81509, 32.90647], [-94.81321, 32.90334], [-94.81133, 32.90017], [-94.8095, 32.89711], [-94.80746, 32.8937], [-94.80513, 32.88982], [-94.8024, 32.88527], [-94.80074, 32.8825], [-94.79938, 32.88023], [-94.79719, 32.8766], [-94.79506, 32.873], [-94.79335, 32.87014], [-94.79194, 32.8678], [-94.79025, 32.865], [-94.78744, 32.86029], [-94.78608, 32.85803], [-94.78389, 32.85434], [-94.78222, 32.85154], [-94.77995, 32.84779], [-94.77758, 32.84382], [-94.77614, 32.84138], [-94.77423, 32.83822], [-94.77221, 32.83484], [-94.77049, 32.83277], [-94.76842, 32.83027], [-94.76549, 32.82672], [-94.7632, 32.82393], [-94.76047, 32.82064], [-94.75849, 32.81824], [-94.75592, 32.81511], [-94.75299, 32.81156], [-94.75108, 32.80926], [-94.74757, 32.80501], [-94.74557, 32.80259], [-94.74265, 32.79904], [-94.74093, 32.79696], [-94.73854, 32.79405], [-94.73537, 32.79021], [-94.73236, 32.78655], [-94.73072, 32.78457], [-94.72809, 32.78137], [-94.72503, 32.77847], [-94.72236, 32.77592], [-94.71997, 32.77366], [-94.7168, 32.77065], [-94.71352, 32.76752], [-94.71089, 32.76504], [-94.70813, 32.76244], [-94.70452, 32.75897], [-94.7021, 32.7567], [-94.69995, 32.75461], [-94.69957, 32.75424], [-94.69928, 32.75199], [-94.69862, 32.74809], [-94.69817, 32.7447], [-94.69829, 32.74433]]}, "properties": {"owner": "SOUTHWESTERN ELECTRIC POWER CO", "voltage_kv": 345.0}}, {"type": "Feature", "geometry": {"type": "LineString", "coordinates": [[-93.73866, 30.26667], [-93.74017, 30.26582], [-93.74148, 30.26891], [-93.74282, 30.27165], [-93.76027, 30.28327], [-93.77072, 30.28854], [-93.87941, 30.28624], [-93.88685, 30.28768], [-93.89396, 30.28747], [-93.90457, 30.28768], [-93.94964, 30.28711], [-93.96134, 30.28882], [-94.0205, 30.28759], [-94.09142, 30.28759], [-94.13268, 30.30399], [-94.17899, 30.30387], [-94.18229, 30.30442], [-94.20928, 30.30429], [-94.22763, 30.30733], [-94.24287, 30.30733], [-94.25563, 30.30418], [-94.2572, 30.30363]]}, "properties": {"owner": "ENTERGY TEXAS INC.", "voltage_kv": 500.0}}, {"type": "Feature", "geometry": {"type": "LineString", "coordinates": [[-94.69829, 32.74433], [-94.69789, 32.74454], [-94.69788, 32.74537], [-94.69834, 32.74812], [-94.69903, 32.75201], [-94.69929, 32.75434], [-94.69995, 32.75497], [-94.70189, 32.75685], [-94.70433, 32.75913], [-94.70794, 32.76257], [-94.71067, 32.76518], [-94.71324, 32.76759], [-94.71662, 32.77079], [-94.71978, 32.7738], [-94.72213, 32.77604], [-94.72484, 32.77863], [-94.72789, 32.7815], [-94.73052, 32.7847], [-94.7322, 32.78674], [-94.73514, 32.79033], [-94.73836, 32.79422], [-94.74071, 32.79706], [-94.74244, 32.79916], [-94.74534, 32.80271], [-94.74737, 32.80512], [-94.75086, 32.80939], [-94.75276, 32.8117], [-94.75571, 32.81524], [-94.75828, 32.81835], [-94.76024, 32.82076], [-94.76298, 32.82405], [-94.76529, 32.82684], [-94.76819, 32.83038], [-94.77028, 32.83288], [-94.77199, 32.83496], [-94.77399, 32.83832], [-94.77578, 32.8413], [-94.77734, 32.84393], [-94.77971, 32.8479], [-94.78197, 32.85167], [-94.78366, 32.85446], [-94.78585, 32.85814], [-94.7872, 32.86037], [-94.79003, 32.86509], [-94.7917, 32.8679], [-94.7931, 32.87023], [-94.79484, 32.87313], [-94.79698, 32.87669], [-94.79915, 32.88033], [-94.80052, 32.88261], [-94.80219, 32.88538], [-94.80476, 32.88968], [-94.80723, 32.8938], [-94.8093, 32.89725], [-94.8111, 32.90026], [-94.81298, 32.90343], [-94.81486, 32.90656], [-94.81708, 32.91026], [-94.81908, 32.91362], [-94.82155, 32.91774], [-94.82324, 32.92059], [-94.82508, 32.92365], [-94.82661, 32.92724], [-94.82802, 32.93058], [-94.82962, 32.93438], [-94.83124, 32.93815], [-94.83288, 32.94211], [-94.83435, 32.94561], [-94.83564, 32.94862], [-94.83722, 32.95236], [-94.83847, 32.95535], [-94.83959, 32.95795], [-94.8408, 32.96079], [-94.842, 32.9635], [-94.84181, 32.96668], [-94.84175, 32.96971], [-94.84173, 32.97038], [-94.84167, 32.9722], [-94.84154, 32.97646], [-94.84141, 32.98062], [-94.84129, 32.98463], [-94.84118, 32.98871], [-94.84105, 32.99272], [-94.84094, 32.99661], [-94.84084, 33.00062], [-94.84073, 33.00455], [-94.84061, 33.00838], [-94.84049, 33.01243], [-94.8404, 33.01595], [-94.8403, 33.01951], [-94.84018, 33.02341], [-94.84006, 33.0275], [-94.83996, 33.03161], [-94.83979, 33.03575], [-94.83971, 33.03954], [-94.83967, 33.04286], [-94.83861, 33.04564], [-94.83722, 33.04939], [-94.83725, 33.05214], [-94.83722, 33.05396], [-94.83754, 33.05506]]}, "properties": {"owner": "SOUTHWESTERN ELECTRIC POWER CO", "voltage_kv": 345.0}}, {"type": "Feature", "geometry": {"type": "LineString", "coordinates": [[-95.25772, 32.27751], [-95.25836, 32.27789], [-95.25893, 32.27791], [-95.26052, 32.27963], [-95.34542, 32.28003], [-95.34644, 32.27986]]}, "properties": {"owner": "ONCOR ELECTRIC DELIVERY CO.", "voltage_kv": 345.0}}, {"type": "Feature", "geometry": {"type": "LineString", "coordinates": [[-95.19568, 32.27667], [-95.19651, 32.27774]]}, "properties": {"owner": "ONCOR ELECTRIC DELIVERY CO.", "voltage_kv": 345.0}}, {"type": "Feature", "geometry": {"type": "LineString", "coordinates": [[-94.6243, 32.0147], [-94.62396, 32.01475], [-94.62287, 32.01555], [-94.62185, 32.0163], [-94.62173, 32.01708], [-94.62124, 32.01777]]}, "properties": {"owner": "SOUTHWESTERN ELECTRIC POWER CO.", "voltage_kv": 345.0}}, {"type": "Feature", "geometry": {"type": "LineString", "coordinates": [[-95.25346, 32.41989], [-95.25441, 32.41991], [-95.25471, 32.42031], [-95.2539, 32.42092], [-95.25501, 32.42235], [-95.25497, 32.43821], [-95.25474, 32.46244], [-95.25398, 32.48386], [-95.25376, 32.49018], [-95.25379, 32.49583], [-95.2533, 32.50719], [-95.28802, 32.52993], [-95.29663, 32.53468], [-95.299, 32.53601], [-95.30425, 32.53947], [-95.30533, 32.54017], [-95.30667, 32.53928], [-95.30664, 32.53798], [-95.30661, 32.53614], [-95.30659, 32.53463], [-95.30658, 32.53306], [-95.30656, 32.53153], [-95.30655, 32.53002], [-95.30652, 32.52851], [-95.30651, 32.52716], [-95.30649, 32.52546], [-95.3065, 32.52394], [-95.30646, 32.52214], [-95.30646, 32.52064], [-95.30641, 32.51915], [-95.30822, 32.51846], [-95.30983, 32.51785], [-95.31176, 32.51712], [-95.31367, 32.51639], [-95.31568, 32.51562], [-95.31773, 32.51484], [-95.31908, 32.51432], [-95.32081, 32.51365], [-95.32273, 32.51294], [-95.3244, 32.51228], [-95.32617, 32.51158], [-95.32798, 32.51087], [-95.32988, 32.51019], [-95.33126, 32.50906], [-95.33248, 32.50806], [-95.33379, 32.50705], [-95.33491, 32.50619], [-95.33577, 32.50551], [-95.33639, 32.505], [-95.33747, 32.50417], [-95.33854, 32.50334], [-95.33961, 32.5025], [-95.3408, 32.50156], [-95.34219, 32.50045], [-95.34363, 32.49937], [-95.34488, 32.49831], [-95.34646, 32.49708], [-95.34783, 32.49601], [-95.34909, 32.49501], [-95.35032, 32.49405], [-95.35142, 32.4932], [-95.35257, 32.49231], [-95.35425, 32.491], [-95.35475, 32.49052], [-95.35682, 32.49048], [-95.35859, 32.49042], [-95.36072, 32.49035], [-95.36241, 32.49022], [-95.36423, 32.49016], [-95.36597, 32.49013], [-95.36786, 32.49011], [-95.36972, 32.49005], [-95.3716, 32.48998], [-95.37345, 32.48991], [-95.37525, 32.48985], [-95.3768, 32.4898], [-95.37906, 32.48972], [-95.37984, 32.4906], [-95.38058, 32.49149], [-95.3824, 32.49148], [-95.38417, 32.49147], [-95.38602, 32.49145], [-95.38782, 32.49146], [-95.38961, 32.49145], [-95.39146, 32.49147], [-95.39143, 32.48995], [-95.3914, 32.48842], [-95.39322, 32.48852], [-95.39508, 32.48862], [-95.39671, 32.48871], [-95.39836, 32.48879], [-95.40049, 32.48892], [-95.4023, 32.48792], [-95.40373, 32.48719], [-95.40442, 32.4884], [-95.40514, 32.48946], [-95.40555, 32.49025]]}, "properties": {"owner": "ONCOR ELECTRIC DELIVERY CO.", "voltage_kv": 345.0}}, {"type": "Feature", "geometry": {"type": "LineString", "coordinates": [[-94.39209, 32.77304], [-94.39248, 32.7731], [-94.39255, 32.77236], [-94.39654, 32.76654], [-94.3975, 32.76511], [-94.39828, 32.76397], [-94.3991, 32.76277], [-94.40034, 32.76095], [-94.40137, 32.75943], [-94.40243, 32.75788], [-94.40365, 32.7561], [-94.40455, 32.75477], [-94.40545, 32.75348], [-94.40645, 32.75199], [-94.40739, 32.75062], [-94.40835, 32.74919], [-94.41185, 32.74414], [-94.42509, 32.72481], [-94.43186, 32.71499], [-94.43662, 32.70331], [-94.4453, 32.702], [-94.44812, 32.70115], [-94.44853, 32.70137]]}, "properties": {"owner": "UPSHUR RURAL ELEC COOP CORP", "voltage_kv": 345.0}}, {"type": "Feature", "geometry": {"type": "LineString", "coordinates": [[-94.57488, 32.25747], [-94.57589, 32.25829], [-94.58495, 32.25482], [-94.61802, 32.24893], [-94.65952, 32.28898], [-94.67954, 32.29008], [-94.68601, 32.29027], [-94.71152, 32.29039], [-94.72568, 32.29566], [-94.74655, 32.30162], [-94.77174, 32.30429], [-94.83595, 32.29254], [-94.88346, 32.295], [-94.89264, 32.29467], [-94.89958, 32.29519], [-94.91055, 32.3009], [-94.94278, 32.30229], [-94.9914, 32.32666], [-95.02769, 32.34132], [-95.05648, 32.35313], [-95.07989, 32.36262], [-95.09999, 32.37401], [-95.12548, 32.39322], [-95.16132, 32.39388], [-95.25085, 32.41731], [-95.25282, 32.41941], [-95.25346, 32.41989]]}, "properties": {"owner": "UPSHUR RURAL ELEC COOP CORP", "voltage_kv": 345.0}}, {"type": "Feature", "geometry": {"type": "LineString", "coordinates": [[-93.73866, 30.26667], [-93.73652, 30.26593], [-93.73554, 30.26337], [-93.73723, 30.26007], [-93.73786, 30.2597]]}, "properties": {"owner": "DEEP EAST TEXAS ELEC COOP INC", "voltage_kv": 500.0}}, {"type": "Feature", "geometry": {"type": "LineString", "coordinates": [[-95.34644, 32.27986], [-95.34688, 32.28024], [-95.35269, 32.28021], [-95.43466, 32.3389], [-95.44283, 32.34123], [-95.45717, 32.35465], [-95.54011, 32.41742], [-95.62241, 32.48105], [-95.82785, 32.48336], [-95.87353, 32.47955], [-95.92364, 32.48243], [-95.97149, 32.51831], [-95.99343, 32.51895], [-96.01831, 32.52171], [-96.06341, 32.52672], [-96.11618, 32.53249], [-96.14267, 32.53233], [-96.17704, 32.53196], [-96.24177, 32.53675], [-96.28291, 32.53976], [-96.33722, 32.53885], [-96.3585, 32.53677], [-96.43513, 32.53669], [-96.48628, 32.52065], [-96.50607, 32.5364], [-96.53069, 32.54925], [-96.53714, 32.55329], [-96.5375, 32.55367]]}, "properties": {"owner": "ONCOR ELECTRIC DELIVERY CO.", "voltage_kv": 345.0}}, {"type": "Feature", "geometry": {"type": "LineString", "coordinates": [[-95.39547, 31.36439], [-95.39472, 31.36473], [-95.39431, 31.36509], [-95.39534, 31.36579], [-95.39524, 31.36755], [-95.39507, 31.37009], [-95.39482, 31.37368], [-95.39297, 31.3768], [-95.39088, 31.3803], [-95.38922, 31.3831], [-95.38709, 31.38667], [-95.38529, 31.38969], [-95.38359, 31.39253], [-95.38157, 31.39593], [-95.37953, 31.39933], [-95.3775, 31.40262], [-95.37745, 31.40632], [-95.37729, 31.41033], [-95.37714, 31.4143], [-95.37699, 31.4179], [-95.37685, 31.42119], [-95.37658, 31.42501], [-95.37561, 31.42784], [-95.37428, 31.43141], [-95.37299, 31.43477], [-95.37176, 31.43796], [-95.37022, 31.44196], [-95.36876, 31.44577], [-95.36776, 31.44837], [-95.36657, 31.45149], [-95.36549, 31.45434], [-95.36415, 31.45776], [-95.36338, 31.46047], [-95.36224, 31.46454], [-95.36122, 31.46808], [-95.3603, 31.47131], [-95.35934, 31.47469], [-95.35824, 31.47855], [-95.35728, 31.48195], [-95.35641, 31.48507], [-95.35561, 31.48778], [-95.35147, 31.49062], [-95.34755, 31.49334], [-95.34395, 31.49574], [-95.34023, 31.49829], [-95.33751, 31.50012], [-95.33309, 31.50315], [-95.3301, 31.50518], [-95.32752, 31.50695], [-95.32398, 31.50936], [-95.32133, 31.51117], [-95.31746, 31.51378], [-95.31393, 31.5162], [-95.31111, 31.51813], [-95.30834, 31.52004], [-95.30512, 31.52225], [-95.30213, 31.52428], [-95.29909, 31.52635], [-95.29541, 31.52886], [-95.29208, 31.53113], [-95.2888, 31.53335], [-95.28501, 31.53594], [-95.28123, 31.53854], [-95.27773, 31.54073], [-95.27514, 31.54239], [-95.27251, 31.54405], [-95.26842, 31.54658], [-95.2661, 31.54946], [-95.26372, 31.55237], [-95.26145, 31.55512], [-95.25901, 31.55806], [-95.25712, 31.56046], [-95.2555, 31.56269], [-95.25301, 31.56532], [-95.25044, 31.56844], [-95.2482, 31.57116], [-95.24578, 31.57408], [-95.2431, 31.57734], [-95.24024, 31.5808], [-95.23757, 31.584], [-95.23522, 31.58687], [-95.23274, 31.58986], [-95.23027, 31.59283], [-95.22736, 31.59637], [-95.22571, 31.59837], [-95.22346, 31.60108], [-95.22092, 31.60414], [-95.21854, 31.60701], [-95.21621, 31.60984], [-95.214, 31.61253], [-95.21223, 31.61464], [-95.21, 31.61735], [-95.20776, 31.62003], [-95.20472, 31.62372], [-95.2017, 31.62732], [-95.2004, 31.62954], [-95.19832, 31.63297], [-95.19698, 31.63519], [-95.19488, 31.63869], [-95.19183, 31.64028], [-95.18947, 31.6415], [-95.18598, 31.64332], [-95.18239, 31.64518], [-95.178, 31.64748], [-95.17292, 31.65013], [-95.17013, 31.65157], [-95.16698, 31.6532], [-95.16453, 31.65448], [-95.16016, 31.65675], [-95.15555, 31.65913], [-95.15253, 31.6607], [-95.14817, 31.66297], [-95.14485, 31.66467], [-95.14144, 31.66647], [-95.13856, 31.66794], [-95.13533, 31.66962], [-95.13272, 31.67144], [-95.13017, 31.6732], [-95.12696, 31.67488], [-95.12443, 31.6758], [-95.12076, 31.67715], [-95.11704, 31.67907], [-95.11419, 31.68054], [-95.11107, 31.68215], [-95.10756, 31.68397], [-95.10374, 31.68594], [-95.10048, 31.68763], [-95.10016, 31.6878], [-95.09733, 31.68926], [-95.09267, 31.69167], [-95.08931, 31.6934], [-95.08549, 31.69538], [-95.08113, 31.69823], [-95.07706, 31.7009], [-95.07454, 31.70257], [-95.07156, 31.70451], [-95.0674, 31.70635], [-95.06301, 31.7083], [-95.05885, 31.71015], [-95.0548, 31.71194], [-95.05116, 31.71357], [-95.04655, 31.7156], [-95.04327, 31.71704], [-95.03999, 31.71851], [-95.03653, 31.72005], [-95.03327, 31.7215], [-95.02985, 31.72301], [-95.02615, 31.72465], [-95.0216, 31.72665], [-95.01761, 31.72844], [-95.01322, 31.73037], [-95.00908, 31.73221], [-95.0065, 31.73334], [-95.0029, 31.73493], [-94.99922, 31.73658], [-94.99561, 31.73817], [-94.99334, 31.74011], [-94.99044, 31.74262], [-94.98742, 31.74524], [-94.9841, 31.74811], [-94.98094, 31.75084], [-94.9773, 31.754], [-94.97419, 31.75671], [-94.97103, 31.75942], [-94.96756, 31.76244], [-94.96423, 31.76531], [-94.96104, 31.76808], [-94.95743, 31.7712], [-94.95427, 31.77394], [-94.95123, 31.77658], [-94.94806, 31.77933], [-94.94471, 31.78219], [-94.94192, 31.78462], [-94.93905, 31.78702], [-94.93615, 31.78943], [-94.93337, 31.79176], [-94.93123, 31.79357], [-94.92773, 31.79656], [-94.92467, 31.79918], [-94.92188, 31.80159], [-94.9195, 31.80362], [-94.91699, 31.80543], [-94.91519, 31.80808], [-94.9129, 31.81132], [-94.91044, 31.81478], [-94.90909, 31.81666], [-94.90638, 31.82049], [-94.90536, 31.82191], [-94.90488, 31.82259], [-94.90251, 31.82593], [-94.90011, 31.82929], [-94.89762, 31.83281], [-94.89529, 31.83611], [-94.89509, 31.8364], [-94.89277, 31.83963], [-94.89042, 31.84297], [-94.88723, 31.84445], [-94.88357, 31.84615], [-94.88012, 31.84776], [-94.87735, 31.84904], [-94.87289, 31.85111], [-94.86916, 31.85284], [-94.86621, 31.85421], [-94.86562, 31.85449], [-94.86167, 31.85631], [-94.8584, 31.85783], [-94.85453, 31.85962], [-94.85024, 31.86161], [-94.84616, 31.8635], [-94.84315, 31.86448], [-94.8362, 31.86771], [-94.83294, 31.86925], [-94.82903, 31.87106], [-94.82493, 31.87295], [-94.82122, 31.87467], [-94.81701, 31.87708], [-94.8124, 31.87974], [-94.80968, 31.88129], [-94.80604, 31.88278], [-94.80222, 31.88434], [-94.79875, 31.88577], [-94.79349, 31.88784], [-94.79065, 31.89065], [-94.78837, 31.89284], [-94.7857, 31.89537], [-94.78343, 31.89753], [-94.78071, 31.90013], [-94.77812, 31.90258], [-94.77506, 31.90549], [-94.77189, 31.90853], [-94.76864, 31.91164], [-94.76604, 31.91413], [-94.76297, 31.91634], [-94.75954, 31.91818], [-94.75695, 31.91917], [-94.75369, 31.92043], [-94.75158, 31.92307], [-94.74897, 31.9255], [-94.74562, 31.92787], [-94.74208, 31.93035], [-94.73825, 31.93305], [-94.73472, 31.93554], [-94.73107, 31.93813], [-94.72723, 31.94082], [-94.72392, 31.94316], [-94.72062, 31.94549], [-94.71707, 31.94799], [-94.71417, 31.95004], [-94.71163, 31.95182], [-94.70852, 31.954], [-94.70596, 31.95582], [-94.70234, 31.95836], [-94.69913, 31.96066], [-94.69526, 31.96336], [-94.69226, 31.96548], [-94.68805, 31.96844], [-94.68389, 31.97137], [-94.68066, 31.97365], [-94.67654, 31.97653], [-94.67349, 31.97863], [-94.67163, 31.98086], [-94.66901, 31.98387], [-94.66736, 31.98577], [-94.66546, 31.98796], [-94.66271, 31.99035], [-94.66097, 31.99236], [-94.65865, 31.99504], [-94.65597, 31.99812], [-94.65303, 32.00153], [-94.64994, 32.00378], [-94.64748, 32.00558], [-94.64465, 32.00762], [-94.6413, 32.01007], [-94.63838, 32.01219], [-94.63541, 32.01437], [-94.63298, 32.01613], [-94.62965, 32.01858], [-94.62621, 32.02051], [-94.62529, 32.02103], [-94.62354, 32.02201], [-94.6216, 32.02311], [-94.62153, 32.02436], [-94.62108, 32.02461]]}, "properties": {"owner": "NOT AVAILABLE", "voltage_kv": 345.0}}, {"type": "Feature", "geometry": {"type": "LineString", "coordinates": [[-95.25346, 32.41989], [-95.2536, 32.42036], [-95.25511, 32.42231], [-95.25507, 32.43821], [-95.25484, 32.46244], [-95.25408, 32.48386], [-95.25386, 32.49018], [-95.25389, 32.49583], [-95.2534, 32.50714], [-95.28807, 32.52984], [-95.29667, 32.53459], [-95.29905, 32.53593], [-95.3043, 32.53938], [-95.30729, 32.54132], [-95.32435, 32.55244], [-95.35953, 32.57052], [-95.40768, 32.6036], [-95.47742, 32.6059], [-95.50911, 32.61744], [-95.52656, 32.62982], [-95.55501, 32.63696], [-95.59759, 32.65113], [-95.60751, 32.65452], [-95.61411, 32.65705], [-95.65549, 32.66657], [-95.67817, 32.6901], [-95.68405, 32.69617], [-95.73098, 32.71491], [-95.82686, 32.73804], [-95.85297, 32.74671], [-95.85829, 32.74595], [-95.93091, 32.75824], [-95.97951, 32.76975], [-96.06973, 32.77761], [-96.14366, 32.78597], [-96.15523, 32.78735], [-96.16042, 32.80199], [-96.20263, 32.84004], [-96.20821, 32.8458], [-96.2235, 32.85905], [-96.23632, 32.86672], [-96.24574, 32.88248], [-96.26215, 32.89619], [-96.31863, 32.91643], [-96.32965, 32.92475], [-96.35045, 32.94256], [-96.35071, 32.95946], [-96.35025, 32.96643], [-96.34965, 32.9685], [-96.35077, 32.96925]]}, "properties": {"owner": "ONCOR ELECTRIC DELIVERY CO.", "voltage_kv": 345.0}}, {"type": "Feature", "geometry": {"type": "LineString", "coordinates": [[-94.55103, 32.84932], [-94.55131, 32.84996], [-94.55274, 32.85539], [-94.55343, 32.85807], [-94.55409, 32.8606], [-94.55487, 32.86354], [-94.55555, 32.86613], [-94.55626, 32.86882], [-94.55712, 32.87203], [-94.55767, 32.87408], [-94.55811, 32.87603], [-94.56047, 32.878], [-94.56257, 32.87982], [-94.5646, 32.88159], [-94.56675, 32.88342], [-94.56735, 32.88624], [-94.56806, 32.88946], [-94.56855, 32.89169], [-94.56927, 32.89483], [-94.56992, 32.89779], [-94.57058, 32.9008], [-94.57111, 32.90316], [-94.57153, 32.90537], [-94.5721, 32.90845], [-94.5727, 32.9117], [-94.57325, 32.91456], [-94.57387, 32.91782], [-94.57446, 32.92108], [-94.57504, 32.92419], [-94.57563, 32.92739], [-94.57614, 32.9301], [-94.57663, 32.93278], [-94.57725, 32.93603], [-94.57786, 32.93928], [-94.57844, 32.94256], [-94.57898, 32.94535], [-94.5796, 32.94863], [-94.58017, 32.95172], [-94.58076, 32.95494], [-94.58133, 32.95808], [-94.58178, 32.96044], [-94.58247, 32.96403], [-94.58305, 32.9669], [-94.58369, 32.96985], [-94.58436, 32.97308], [-94.58506, 32.97631], [-94.58574, 32.97956], [-94.58631, 32.98226], [-94.58709, 32.98593], [-94.58786, 32.98952], [-94.58862, 32.99316], [-94.58933, 32.99661], [-94.58994, 32.99963], [-94.58995, 32.99964], [-94.59142, 33.00239], [-94.59267, 33.00487], [-94.59398, 33.00738], [-94.59534, 33.01004], [-94.59705, 33.01335], [-94.59845, 33.01607], [-94.59977, 33.01859], [-94.601, 33.02108], [-94.60264, 33.02425], [-94.60412, 33.02712], [-94.60525, 33.02932], [-94.6068, 33.03237], [-94.60812, 33.03488], [-94.60982, 33.03815], [-94.6112, 33.04093], [-94.61251, 33.04344], [-94.6138, 33.04599], [-94.61523, 33.04874], [-94.6167, 33.05153], [-94.61796, 33.05405], [-94.61926, 33.05656], [-94.62054, 33.05909], [-94.62208, 33.06212], [-94.62366, 33.06515], [-94.62508, 33.06794], [-94.62646, 33.07067], [-94.62791, 33.07342], [-94.62917, 33.07596], [-94.63049, 33.07854], [-94.63196, 33.08136], [-94.63361, 33.08456], [-94.63528, 33.08784], [-94.63668, 33.09061], [-94.63843, 33.09404], [-94.63978, 33.09666], [-94.64147, 33.09993], [-94.64289, 33.1027], [-94.64383, 33.10432], [-94.64582, 33.10443], [-94.64896, 33.10451], [-94.65256, 33.1046], [-94.65522, 33.10468], [-94.65848, 33.10474], [-94.66191, 33.1048], [-94.66547, 33.10433], [-94.66914, 33.10384], [-94.67303, 33.10333], [-94.67674, 33.10281], [-94.68007, 33.10237], [-94.68373, 33.10189], [-94.68704, 33.10145], [-94.69054, 33.10099], [-94.69412, 33.10051], [-94.69778, 33.10003], [-94.70113, 33.09959], [-94.70342, 33.09929], [-94.70681, 33.09884], [-94.70993, 33.09733], [-94.71313, 33.09575], [-94.71662, 33.09409], [-94.72036, 33.0923], [-94.7239, 33.09059], [-94.72757, 33.0888], [-94.73105, 33.08714], [-94.73414, 33.08566], [-94.73709, 33.08423], [-94.74043, 33.08261], [-94.74377, 33.08096], [-94.74717, 33.07933], [-94.75088, 33.07755], [-94.75446, 33.07584], [-94.75749, 33.07439], [-94.7599, 33.07323], [-94.76246, 33.072], [-94.76582, 33.07039], [-94.76862, 33.06905], [-94.77161, 33.06762], [-94.77475, 33.06611], [-94.77789, 33.0646], [-94.78131, 33.06296], [-94.78496, 33.06122], [-94.78815, 33.05967], [-94.7913, 33.05814], [-94.79472, 33.0565], [-94.79798, 33.05493], [-94.80029, 33.05381], [-94.80347, 33.05406], [-94.80672, 33.05433], [-94.80985, 33.05458], [-94.81338, 33.05486], [-94.8168, 33.05514], [-94.81894, 33.05531], [-94.82118, 33.05513], [-94.82431, 33.05487], [-94.82777, 33.05485], [-94.83361, 33.05483], [-94.83642, 33.05463], [-94.83677, 33.05461], [-94.83754, 33.05506]]}, "properties": {"owner": "SOUTHWESTERN ELECTRIC POWER CO", "voltage_kv": 345.0}}, {"type": "Feature", "geometry": {"type": "LineString", "coordinates": [[-93.73866, 30.26667], [-93.73876, 30.26334], [-93.73833, 30.26224], [-93.73888, 30.26016], [-93.74287, 30.24443], [-93.74447, 30.23784], [-93.74573, 30.23289], [-93.74636, 30.22795], [-93.75193, 30.22457], [-93.75363, 30.21816], [-93.74554, 30.21773], [-93.74403, 30.2176], [-93.74388, 30.21751]]}, "properties": {"owner": "JASPER-NEWTON ELEC COOP, INC", "voltage_kv": 230.0}}, {"type": "Feature", "geometry": {"type": "LineString", "coordinates": [[-94.39631, 32.53904], [-94.39646, 32.5386], [-94.39697, 32.53867], [-94.39735, 32.53866], [-94.39798, 32.53863], [-94.39871, 32.53861], [-94.39938, 32.5386], [-94.39993, 32.53858], [-94.40077, 32.53856], [-94.40161, 32.53854], [-94.40247, 32.53852], [-94.40314, 32.5385], [-94.40329, 32.53849], [-94.40405, 32.53847], [-94.40469, 32.53845], [-94.40476, 32.53845], [-94.40536, 32.53842], [-94.40602, 32.53842], [-94.40659, 32.5382], [-94.4075, 32.53786], [-94.40811, 32.53763], [-94.40899, 32.53732], [-94.40976, 32.53703], [-94.41061, 32.53672], [-94.41149, 32.53637], [-94.41226, 32.5361], [-94.41318, 32.53577], [-94.41383, 32.53538], [-94.41473, 32.53508], [-94.41567, 32.53475], [-94.41725, 32.53421], [-94.41815, 32.53393], [-94.41907, 32.53366], [-94.42008, 32.53335], [-94.42112, 32.53306], [-94.42184, 32.53287], [-94.42297, 32.53258], [-94.42386, 32.53236], [-94.42459, 32.53218], [-94.42564, 32.53192], [-94.42659, 32.5317], [-94.42757, 32.53145], [-94.42847, 32.53123], [-94.42962, 32.53066], [-94.43041, 32.53015], [-94.43115, 32.52966], [-94.43197, 32.52912], [-94.43275, 32.52861], [-94.43343, 32.52812], [-94.43424, 32.5276], [-94.43504, 32.52711], [-94.43579, 32.5266], [-94.43654, 32.52612], [-94.43734, 32.5256], [-94.43811, 32.5251], [-94.43872, 32.5247], [-94.43952, 32.52469], [-94.44056, 32.52467], [-94.44157, 32.52465], [-94.44223, 32.52464], [-94.44324, 32.52463], [-94.44419, 32.52461], [-94.44519, 32.52459], [-94.44736, 32.52456], [-94.44779, 32.52455], [-94.44873, 32.52454], [-94.44971, 32.52452], [-94.4507, 32.52451], [-94.45165, 32.52448], [-94.45265, 32.52447], [-94.45363, 32.52445], [-94.45459, 32.52445], [-94.45652, 32.5244], [-94.45734, 32.52439], [-94.45802, 32.52439], [-94.4588, 32.52438], [-94.45976, 32.52437], [-94.46004, 32.52437], [-94.46076, 32.52435], [-94.46171, 32.52433], [-94.46272, 32.5243], [-94.46368, 32.52429], [-94.46464, 32.52429], [-94.46562, 32.52426], [-94.46661, 32.52425], [-94.46758, 32.52423], [-94.46824, 32.52423], [-94.4692, 32.5242], [-94.46999, 32.5242], [-94.47068, 32.52419], [-94.47162, 32.52418], [-94.47243, 32.52417], [-94.47339, 32.52415], [-94.47436, 32.52413], [-94.47537, 32.52412], [-94.47634, 32.52411], [-94.47728, 32.5241], [-94.47811, 32.52408], [-94.47907, 32.52408], [-94.47976, 32.52406], [-94.48057, 32.52405], [-94.48121, 32.52404], [-94.4819, 32.52386], [-94.48274, 32.52363], [-94.4837, 32.52337], [-94.48457, 32.52314], [-94.48562, 32.52285], [-94.48652, 32.52261], [-94.48723, 32.52242], [-94.48764, 32.52231], [-94.48812, 32.52218], [-94.48908, 32.52193], [-94.49004, 32.52167], [-94.49092, 32.52142], [-94.49184, 32.52118], [-94.49278, 32.52092], [-94.49373, 32.52067], [-94.49464, 32.52043], [-94.49557, 32.52018], [-94.49648, 32.51993], [-94.4974, 32.51968], [-94.49833, 32.51942], [-94.49918, 32.51921], [-94.5002, 32.51893], [-94.50113, 32.51867], [-94.50204, 32.51844], [-94.50298, 32.51818], [-94.50387, 32.51793], [-94.50634, 32.51726], [-94.50697, 32.5171], [-94.50795, 32.51684], [-94.50887, 32.5166], [-94.50983, 32.51631], [-94.51066, 32.51609], [-94.51135, 32.51591], [-94.51344, 32.51534], [-94.51501, 32.51492], [-94.5159, 32.51469], [-94.51655, 32.51451], [-94.5172, 32.51453], [-94.51808, 32.51456], [-94.51903, 32.5146], [-94.5197, 32.51462], [-94.52004, 32.51464], [-94.52097, 32.51468], [-94.52199, 32.51472], [-94.52296, 32.51476], [-94.52392, 32.5148], [-94.52476, 32.51483], [-94.52571, 32.51487], [-94.52653, 32.51491], [-94.52718, 32.51492], [-94.52779, 32.51494], [-94.52876, 32.51499], [-94.52974, 32.51502], [-94.5307, 32.51506], [-94.53171, 32.5151], [-94.53266, 32.51514], [-94.53365, 32.51518], [-94.53458, 32.51522], [-94.53526, 32.51525], [-94.53591, 32.51527], [-94.53655, 32.5153], [-94.53717, 32.51507], [-94.53803, 32.51476], [-94.53893, 32.51444], [-94.53983, 32.5141], [-94.54069, 32.51378], [-94.54163, 32.51345], [-94.54251, 32.51313], [-94.54341, 32.5128], [-94.54415, 32.51253], [-94.54505, 32.51221], [-94.54563, 32.51199], [-94.54639, 32.51172], [-94.54952, 32.51055], [-94.55019, 32.5103], [-94.55201, 32.50965], [-94.55298, 32.50931], [-94.55348, 32.50912], [-94.55424, 32.509], [-94.55521, 32.50887], [-94.55623, 32.50874], [-94.55908, 32.50838], [-94.56192, 32.50801], [-94.56477, 32.50765], [-94.56575, 32.50754], [-94.56963, 32.50705], [-94.57068, 32.50692], [-94.57174, 32.50679], [-94.57286, 32.50665], [-94.57442, 32.50645], [-94.57511, 32.50637], [-94.57651, 32.50619], [-94.57732, 32.50609], [-94.57819, 32.50598], [-94.5783, 32.50596], [-94.57856, 32.50594], [-94.57933, 32.50623], [-94.58007, 32.50651], [-94.58094, 32.50685], [-94.58183, 32.50719], [-94.58269, 32.50752], [-94.58358, 32.50787], [-94.58451, 32.50823], [-94.5851, 32.50845], [-94.58622, 32.50889], [-94.588, 32.50959], [-94.58978, 32.51026], [-94.59155, 32.51095], [-94.59201, 32.51113], [-94.59235, 32.51126], [-94.59328, 32.51161], [-94.59333, 32.51163], [-94.59419, 32.51196], [-94.59504, 32.51229], [-94.59597, 32.51264], [-94.59687, 32.51299], [-94.59778, 32.51334], [-94.59868, 32.51368], [-94.5994, 32.51394], [-94.60066, 32.51375], [-94.60162, 32.51359], [-94.60258, 32.51344], [-94.60452, 32.51312], [-94.60545, 32.51296], [-94.60643, 32.5128], [-94.60833, 32.51248], [-94.60938, 32.51231], [-94.61028, 32.51216], [-94.61123, 32.512], [-94.61215, 32.51184], [-94.61322, 32.51166], [-94.61407, 32.51152], [-94.61502, 32.51136], [-94.61579, 32.51123], [-94.61693, 32.51104], [-94.61818, 32.51083], [-94.61915, 32.51067], [-94.62105, 32.51035], [-94.62195, 32.5102], [-94.62284, 32.51009], [-94.6238, 32.50998], [-94.62478, 32.50987], [-94.62573, 32.50975], [-94.62672, 32.50965], [-94.62762, 32.50953], [-94.62861, 32.50942], [-94.62964, 32.5093], [-94.63038, 32.50921], [-94.63136, 32.50897], [-94.63198, 32.50882], [-94.63273, 32.50864], [-94.63493, 32.5081], [-94.63608, 32.50783], [-94.63801, 32.50735], [-94.6388, 32.50717], [-94.63961, 32.50698], [-94.6403, 32.50696], [-94.64126, 32.50694], [-94.64214, 32.50691], [-94.64306, 32.5069], [-94.64415, 32.50688], [-94.64515, 32.50687], [-94.64611, 32.50684], [-94.64885, 32.5068], [-94.65084, 32.50677], [-94.65261, 32.50674], [-94.65359, 32.50672], [-94.65456, 32.50671], [-94.65553, 32.50669], [-94.6565, 32.50667], [-94.65745, 32.50664], [-94.65847, 32.50663], [-94.66036, 32.5066], [-94.66137, 32.50659], [-94.66232, 32.50658], [-94.66332, 32.50656], [-94.66431, 32.50655], [-94.66625, 32.50652], [-94.66722, 32.5065], [-94.66817, 32.50649], [-94.66892, 32.50647], [-94.67029, 32.50645], [-94.67144, 32.50643], [-94.67257, 32.50641], [-94.6737, 32.5064], [-94.67599, 32.50634], [-94.67686, 32.50633], [-94.67764, 32.50632], [-94.67914, 32.5063], [-94.68033, 32.50629], [-94.68156, 32.50626], [-94.68227, 32.50626], [-94.68366, 32.50622], [-94.68495, 32.50621], [-94.68582, 32.5062], [-94.6873, 32.50618], [-94.68739, 32.50648]]}, "properties": {"owner": "SOUTHWESTERN ELECTRIC POWER CO.", "voltage_kv": 345.0}}, {"type": "Feature", "geometry": {"type": "LineString", "coordinates": [[-94.62108, 32.02461], [-94.62065, 32.02432], [-94.62069, 32.0237], [-94.61829, 32.02538], [-94.61501, 32.02769], [-94.61196, 32.02983], [-94.6089, 32.03198], [-94.6063, 32.03379], [-94.60299, 32.03613], [-94.59901, 32.03894], [-94.59556, 32.04132], [-94.59199, 32.04382], [-94.5887, 32.04615], [-94.58559, 32.04831], [-94.58202, 32.05083], [-94.57921, 32.05281], [-94.57605, 32.05504], [-94.57324, 32.057], [-94.56979, 32.05941], [-94.56687, 32.06145], [-94.56394, 32.06358], [-94.55992, 32.06529], [-94.55555, 32.06721], [-94.55137, 32.06905], [-94.54727, 32.07084], [-94.54391, 32.07289], [-94.53994, 32.0753], [-94.53643, 32.07744], [-94.53218, 32.08002], [-94.52917, 32.08186], [-94.52582, 32.08389], [-94.52195, 32.08624], [-94.51811, 32.08857], [-94.5156, 32.09172], [-94.51282, 32.09522], [-94.51023, 32.09847], [-94.50782, 32.10147], [-94.50509, 32.10489], [-94.50288, 32.10766], [-94.50057, 32.11057], [-94.49853, 32.11311], [-94.4958, 32.11655], [-94.49381, 32.11905], [-94.4913, 32.12217], [-94.48891, 32.12518], [-94.48603, 32.12876], [-94.4835, 32.13195], [-94.48145, 32.1345], [-94.47908, 32.13738], [-94.47796, 32.14057], [-94.47653, 32.1444], [-94.47528, 32.14776], [-94.4736, 32.15227], [-94.47239, 32.15554], [-94.47137, 32.15828], [-94.46994, 32.16209], [-94.46856, 32.16575], [-94.4672, 32.16941], [-94.46572, 32.17334], [-94.46428, 32.17717], [-94.46284, 32.18101], [-94.46144, 32.18454], [-94.46232, 32.18848], [-94.463, 32.1919], [-94.46362, 32.19495], [-94.46421, 32.19785], [-94.46292, 32.1991], [-94.45948, 32.20236], [-94.45679, 32.20531], [-94.45459, 32.20771], [-94.45206, 32.21047], [-94.44971, 32.21273], [-94.44743, 32.21494], [-94.44501, 32.21765], [-94.442, 32.22097], [-94.43958, 32.22366], [-94.43658, 32.22699], [-94.43457, 32.22999], [-94.43266, 32.23311], [-94.43219, 32.23389], [-94.4301, 32.23729], [-94.42782, 32.24089], [-94.42746, 32.24449], [-94.42707, 32.24797], [-94.42658, 32.25208], [-94.42609, 32.25608], [-94.42607, 32.25996], [-94.42606, 32.26313], [-94.42605, 32.267], [-94.42603, 32.27097], [-94.42602, 32.27457], [-94.426, 32.27876], [-94.42599, 32.28206], [-94.42596, 32.28525], [-94.42596, 32.28853], [-94.42595, 32.29213], [-94.42592, 32.29589], [-94.42591, 32.29735], [-94.4259, 32.29908], [-94.4259, 32.30109], [-94.4259, 32.30184], [-94.4259, 32.30358], [-94.42589, 32.30505], [-94.42588, 32.30684], [-94.42586, 32.3095], [-94.42586, 32.31258], [-94.42583, 32.31602], [-94.42582, 32.32009], [-94.42579, 32.32426], [-94.42578, 32.32817], [-94.42576, 32.33191], [-94.42577, 32.33588], [-94.42572, 32.34009], [-94.4257, 32.34373], [-94.4257, 32.34595], [-94.42605, 32.34986], [-94.42641, 32.35369], [-94.42668, 32.3566], [-94.42696, 32.35946], [-94.42724, 32.36273], [-94.42739, 32.36602], [-94.42753, 32.36987], [-94.42769, 32.37425], [-94.42784, 32.37811], [-94.42802, 32.38244], [-94.42762, 32.38586], [-94.42732, 32.38859], [-94.42695, 32.39184], [-94.42692, 32.39418], [-94.42989, 32.39418], [-94.43269, 32.39417], [-94.4344, 32.39488], [-94.43448, 32.39543]]}, "properties": {"owner": "NOT AVAILABLE", "voltage_kv": 345.0}}, {"type": "Feature", "geometry": {"type": "LineString", "coordinates": [[-95.14821, 32.11284], [-95.14864, 32.11321], [-95.1505, 32.11531], [-95.15265, 32.11773], [-95.15616, 32.12186], [-95.16807, 32.13556], [-95.17619, 32.14505], [-95.18198, 32.15177], [-95.18723, 32.15782], [-95.20068, 32.17329], [-95.2085, 32.18196], [-95.21515, 32.18931]]}, "properties": {"owner": "ONCOR ELECTRIC DELIVERY CO.", "voltage_kv": 345.0}}]}