{"type": "FeatureCollection", "features": [{"type": "Feature", "geometry": {"type": "Polygon", "coordinates": [[[-95.688349, 29.710862], [-95.82622, 29.78828], [-95.960733, 30.163415], [-95.80333, 30.090096], [-95.65543, 30.108994], [-95.551421, 30.170606], [-95.505125, 30.145153], [-95.264013, 30.032217], [-95.096708, 30.167214], [-95.031179, 29.993324], [-94.985364, 29.972279], [-94.98146, 29.884276], [-94.908654, 29.825181], [-94.931154, 29.673874], [-94.934167, 29.678682], [-94.936089, 29.692704], [-94.942681, 29.697778], [-94.965963, 29.70033], [-94.972666, 29.68487], [-94.988924, 29.672202], [-95.005398, 29.659366], [-95.005648, 29.658985], [-95.006381, 29.657871], [-95.007623, 29.65598], [-95.011025, 29.650803], [-95.011683, 29.649802], [-95.01272, 29.647088], [-95.013777, 29.644322], [-95.015636, 29.639457], [-95.0156, 29.639285], [-95.013623, 29.62979], [-95.013499, 29.629194], [-95.01166, 29.627768], [-95.000781, 29.619331], [-95.00046, 29.619082], [-94.999481, 29.618323], [-94.999082, 29.618014], [-94.988871, 29.610095], [-94.984831, 29.604361], [-94.982936, 29.60167], [-94.982706, 29.601344], [-94.982855, 29.601103], [-94.982923, 29.600992], [-94.988993, 29.591155], [-95.00767, 29.574257], [-95.016145, 29.559336], [-95.016353, 29.55897], [-95.016627, 29.558487], [-95.016672, 29.558388], [-95.018253, 29.554885], [-95.018198, 29.554618], [-95.018191, 29.554584], [-95.163927, 29.498051], [-95.216422, 29.55608], [-95.297409, 29.596514], [-95.424118, 29.580233], [-95.435618, 29.585633], [-95.440415, 29.588065], [-95.44697, 29.590978], [-95.537948, 29.633282], [-95.610025, 29.66699], [-95.687082, 29.710078], [-95.687994, 29.710667], [-95.688349, 29.710862]]]}, "properties": {"name": "Harris", "fips": "201"}}, {"type": "Feature", "geometry": {"type": "MultiPolygon", "coordinates": [[[[-94.370866, 29.55507], [-94.500807, 29.505367], [-94.594853, 29.467903], [-94.631084, 29.451464], [-94.670389, 29.43078], [-94.694158, 29.415632], [-94.708473, 29.403049], [-94.723959, 29.383268], [-94.731047, 29.369141], [-94.744834, 29.369158], [-94.761491, 29.361883], [-94.778691, 29.361483], [-94.782356, 29.364266], [-94.783131, 29.375642], [-94.766848, 29.393489], [-94.7541, 29.401], [-94.723818, 29.426536], [-94.706365, 29.436805], [-94.686386, 29.466509], [-94.681541, 29.471389], [-94.6724, 29.476843], [-94.665853, 29.478401], [-94.656737, 29.478033], [-94.645948, 29.473769], [-94.628217, 29.475986], [-94.608557, 29.483345], [-94.594211, 29.492127], [-94.59544, 29.507669], [-94.591407, 29.513858], [-94.580274, 29.525295], [-94.566674, 29.531988], [-94.55399, 29.529559], [-94.546994, 29.524379], [-94.532348, 29.5178], [-94.511045, 29.51965], [-94.495025, 29.525031], [-94.503429, 29.54325], [-94.509487, 29.54259], [-94.511086, 29.542971], [-94.412771, 29.572612], [-94.408992, 29.597467], [-94.371828, 29.597178], [-94.370866, 29.55507]]], [[[-95.223994, 29.514422], [-95.221862, 29.526521], [-95.221212, 29.529137], [-95.220748, 29.532688], [-95.219813, 29.536757], [-95.219395, 29.539122], [-95.219169, 29.541283], [-95.217794, 29.548449], [-95.217702, 29.549503], [-95.216788, 29.554643], [-95.216422, 29.55608], [-95.163927, 29.498051], [-95.018191, 29.554584], [-95.016889, 29.548303], [-95.015165, 29.539989], [-95.013378, 29.537822], [-94.999581, 29.521093], [-94.981916, 29.511141], [-94.958443, 29.505013], [-94.934876, 29.501079], [-94.933483, 29.500847], [-94.933039, 29.500773], [-94.909898, 29.49691], [-94.909465, 29.496838], [-94.913385, 29.487254], [-94.925914, 29.469047], [-94.930861, 29.450504], [-94.919401, 29.448031], [-94.8908, 29.433432], [-94.8873, 29.415132], [-94.886536, 29.366386], [-94.894234, 29.338], [-94.893994, 29.30817], [-94.886536, 29.297826], [-94.875952, 29.293015], [-94.865126, 29.293977], [-94.84973, 29.297345], [-94.824953, 29.306005], [-94.822547, 29.321882], [-94.822307, 29.344254], [-94.810696, 29.353435], [-94.784895, 29.335535], [-94.779995, 29.334935], [-94.777064, 29.336811], [-94.745529, 29.334235], [-94.744945, 29.33641], [-94.73132, 29.338066], [-94.72253, 29.331446], [-94.731082, 29.331833], [-94.769695, 29.304936], [-94.786095, 29.290737], [-94.803695, 29.279237], [-95.026219, 29.148064], [-95.081773, 29.111222], [-95.110484, 29.088224], [-95.119271, 29.077844], [-95.056528, 29.199934], [-95.233081, 29.465566], [-95.231803, 29.472607], [-95.229732, 29.480714], [-95.225168, 29.503974], [-95.223994, 29.514422]]]]}, "properties": {"name": "Galveston", "fips": "167"}}, {"type": "Feature", "geometry": {"type": "Polygon", "coordinates": [[[-95.424118, 29.580233], [-95.297409, 29.596514], [-95.216422, 29.55608], [-95.216788, 29.554643], [-95.217702, 29.549503], [-95.217794, 29.548449], [-95.219169, 29.541283], [-95.219395, 29.539122], [-95.219813, 29.536757], [-95.220748, 29.532688], [-95.221212, 29.529137], [-95.221862, 29.526521], [-95.223994, 29.514422], [-95.225168, 29.503974], [-95.229732, 29.480714], [-95.231803, 29.472607], [-95.233081, 29.465566], [-95.056528, 29.199934], [-95.119271, 29.077844], [-95.122525, 29.074], [-95.125134, 29.067321], [-95.191391, 29.02309], [-95.238924, 28.988644], [-95.272266, 28.961546], [-95.297147, 28.934073], [-95.309704, 28.928262], [-95.353451, 28.898145], [-95.376979, 28.87616], [-95.38239, 28.866348], [-95.416174, 28.859482], [-95.439594, 28.859022], [-95.486769, 28.836287], [-95.507041, 28.824755], [-95.567708, 28.829758], [-95.67955, 28.965734], [-95.764937, 28.967359], [-95.770446, 29.06621], [-95.84631, 29.107799], [-95.874028, 29.229702], [-95.841948, 29.258707], [-95.847656, 29.26259], [-95.752866, 29.324503], [-95.654355, 29.290945], [-95.579598, 29.340129], [-95.549994, 29.438439], [-95.462503, 29.43924], [-95.443224, 29.510214], [-95.424118, 29.580233]]]}, "properties": {"name": "Brazoria", "fips": "039"}}, {"type": "Feature", "geometry": {"type": "Polygon", "coordinates": [[[-94.370866, 29.55507], [-94.371828, 29.597178], [-94.408992, 29.597467], [-94.412771, 29.572612], [-94.511086, 29.542971], [-94.522421, 29.545672], [-94.523743, 29.545987], [-94.526336, 29.552634], [-94.532021, 29.558379], [-94.541108, 29.567561], [-94.542532, 29.569], [-94.546385, 29.572048], [-94.553988, 29.573882], [-94.570006, 29.572232], [-94.570593, 29.571878], [-94.570867, 29.571713], [-94.578211, 29.567281], [-94.593518, 29.561319], [-94.610147, 29.556947], [-94.618028, 29.554875], [-94.621819, 29.553878], [-94.621953, 29.553843], [-94.62589, 29.552808], [-94.682706, 29.539825], [-94.689353, 29.538306], [-94.691625, 29.537787], [-94.718276, 29.533547], [-94.740699, 29.525858], [-94.755514, 29.524776], [-94.757689, 29.524617], [-94.757788, 29.524626], [-94.757883, 29.524635], [-94.767246, 29.525523], [-94.768676, 29.525659], [-94.769418, 29.525988], [-94.769573, 29.526057], [-94.77084, 29.526618], [-94.774571, 29.528271], [-94.774798, 29.528372], [-94.779674, 29.530533], [-94.779708, 29.530548], [-94.779831, 29.530602], [-94.780938, 29.531093], [-94.783296, 29.535314], [-94.784034, 29.536635], [-94.786512, 29.541073], [-94.786649, 29.541319], [-94.78954, 29.546494], [-94.790605, 29.548401], [-94.779439, 29.549472], [-94.771053, 29.548439], [-94.755237, 29.562782], [-94.734626, 29.584046], [-94.708741, 29.625226], [-94.693154, 29.694453], [-94.692434, 29.70361], [-94.695317, 29.723052], [-94.724616, 29.774766], [-94.735271, 29.785433], [-94.740919, 29.787081], [-94.771512, 29.773889], [-94.792238, 29.767433], [-94.816085, 29.75671], [-94.851108, 29.721373], [-94.865007, 29.695337], [-94.867438, 29.678768], [-94.872551, 29.67125], [-94.893107, 29.661336], [-94.915413, 29.656614], [-94.921318, 29.658178], [-94.931154, 29.673874], [-94.908654, 29.825181], [-94.98146, 29.884276], [-94.442235, 29.889538], [-94.357976, 29.887464], [-94.354163, 29.561459], [-94.370866, 29.55507]]]}, "properties": {"name": "Chambers", "fips": "071"}}, {"type": "Feature", "geometry": {"type": "Polygon", "coordinates": [[[-94.354163, 29.561459], [-94.357976, 29.887464], [-94.442235, 29.889538], [-94.445096, 30.110966], [-94.44491, 30.113015], [-94.292629, 30.117671], [-94.209577, 30.187724], [-94.115917, 30.160347], [-94.031976, 30.028013], [-93.860169, 29.977397], [-93.840799, 29.914423], [-93.890679, 29.843159], [-93.89847, 29.771577], [-93.892246, 29.765241], [-93.837971, 29.690619], [-93.852868, 29.675885], [-93.866981, 29.673085], [-93.88999, 29.674013], [-93.931, 29.679612], [-94.001406, 29.681486], [-94.056506, 29.671163], [-94.132577, 29.646217], [-94.354163, 29.561459]]]}, "properties": {"name": "Jefferson", "fips": "245"}}, {"type": "Feature", "geometry": {"type": "Polygon", "coordinates": [[[-93.901452, 30.242672], [-93.716223, 30.244318], [-93.712008, 30.194304], [-93.695252, 30.1476], [-93.695684, 30.135729], [-93.712101, 30.067346], [-93.721589, 30.051939], [-93.722481, 30.050898], [-93.752038, 30.016403], [-93.75663, 30.014163], [-93.789431, 29.987812], [-93.840799, 29.914423], [-93.860169, 29.977397], [-94.031976, 30.028013], [-94.115917, 30.160347], [-94.117604, 30.241665], [-93.901452, 30.242672]]]}, "properties": {"name": "Orange", "fips": "361"}}, {"type": "Feature", "geometry": {"type": "Polygon", "coordinates": [[[-95.165897, 30.344976], [-95.03246, 30.404091], [-95.024589, 30.406903], [-94.849414, 30.493553], [-94.777341, 30.489002], [-94.732732, 30.490066], [-94.603159, 30.130904], [-94.44491, 30.113015], [-94.445096, 30.110966], [-94.442235, 29.889538], [-94.98146, 29.884276], [-94.985364, 29.972279], [-95.031179, 29.993324], [-95.096708, 30.167214], [-95.165897, 30.344976]]]}, "properties": {"name": "Liberty", "fips": "291"}}, {"type": "Feature", "geometry": {"type": "Polygon", "coordinates": [[[-94.545717, 30.526977], [-94.071689, 30.526033], [-94.116498, 30.433966], [-94.083386, 30.342181], [-94.117604, 30.241665], [-94.115917, 30.160347], [-94.209577, 30.187724], [-94.292629, 30.117671], [-94.44491, 30.113015], [-94.603159, 30.130904], [-94.732732, 30.490066], [-94.537926, 30.491059], [-94.545717, 30.526977]]]}, "properties": {"name": "Hardin", "fips": "199"}}, {"type": "Feature", "geometry": {"type": "Polygon", "coordinates": [[[-94.129632, 31.09928], [-94.039034, 31.134271], [-93.911126, 31.158071], [-93.865711, 30.947218], [-93.901452, 30.242672], [-94.117604, 30.241665], [-94.083386, 30.342181], [-94.116498, 30.433966], [-94.071689, 30.526033], [-94.094812, 30.575543], [-94.05096, 30.638568], [-94.125824, 30.684052], [-94.150119, 30.790203], [-94.179343, 30.794974], [-94.243766, 30.983554], [-94.238424, 31.013705], [-94.353782, 31.039371], [-94.451127, 31.003445], [-94.45782, 31.033326], [-94.129632, 31.09928]]]}, "properties": {"name": "Jasper", "fips": "241"}}, {"type": "Feature", "geometry": {"type": "Polygon", "coordinates": [[[-93.901452, 30.242672], [-93.865711, 30.947218], [-93.911126, 31.158071], [-93.600308, 31.176158], [-93.599705, 31.176456], [-93.598828, 31.174679], [-93.588503, 31.165581], [-93.579215, 31.167422], [-93.552649, 31.185575], [-93.55254, 31.185605], [-93.548931, 31.186601], [-93.535097, 31.185614], [-93.531744, 31.180817], [-93.527644, 31.074509], [-93.540354, 31.008135], [-93.530936, 30.924534], [-93.554576, 30.87747], [-93.55497, 30.876685], [-93.558617, 30.869424], [-93.558672, 30.868829], [-93.563292, 30.818503], [-93.578395, 30.802047], [-93.727844, 30.57407], [-93.740045, 30.538765], [-93.710117, 30.5064], [-93.697828, 30.443838], [-93.698302, 30.438657], [-93.702665, 30.429947], [-93.741701, 30.403007], [-93.751437, 30.396288], [-93.757654, 30.390423], [-93.765822, 30.333318], [-93.735896, 30.29944], [-93.723586, 30.294951], [-93.720575, 30.295961], [-93.716223, 30.244318], [-93.901452, 30.242672]]]}, "properties": {"name": "Newton", "fips": "351"}}, {"type": "Feature", "geometry": {"type": "Polygon", "coordinates": [[[-96.322921, 28.64186], [-96.323522, 28.675597], [-96.309178, 28.963291], [-95.965196, 29.146865], [-95.874028, 29.229702], [-95.84631, 29.107799], [-95.770446, 29.06621], [-95.764937, 28.967359], [-95.67955, 28.965734], [-95.567708, 28.829758], [-95.507041, 28.824755], [-95.568136, 28.789998], [-95.812504, 28.664942], [-95.884026, 28.633098], [-96.000682, 28.588238], [-96.077868, 28.556626], [-96.194412, 28.502224], [-96.220376, 28.491966], [-96.244751, 28.475055], [-96.270391, 28.46193], [-96.303212, 28.441871], [-96.32156, 28.425148], [-96.328817, 28.423659], [-96.341617, 28.417334], [-96.371117, 28.397661], [-96.372101, 28.393875], [-96.370717, 28.387667], [-96.378616, 28.383909], [-96.379372, 28.386089], [-96.381864, 28.393276], [-96.37596, 28.401682], [-96.374138, 28.404275], [-96.335119, 28.437795], [-96.268341, 28.477992], [-96.223825, 28.495067], [-96.218978, 28.500383], [-96.21505, 28.509679], [-96.145448, 28.544741], [-96.104735, 28.559499], [-96.046211, 28.58698], [-96.032979, 28.589016], [-96.007534, 28.599703], [-95.98616, 28.606319], [-95.982088, 28.614461], [-95.985651, 28.621077], [-95.983106, 28.641942], [-95.978526, 28.650594], [-95.986066, 28.655468], [-95.996338, 28.658736], [-96.002954, 28.656192], [-96.006516, 28.648049], [-96.033488, 28.652629], [-96.047737, 28.649067], [-96.072165, 28.635326], [-96.099137, 28.624639], [-96.148501, 28.611408], [-96.187178, 28.593596], [-96.198374, 28.58698], [-96.221784, 28.580364], [-96.228909, 28.580873], [-96.233998, 28.596649], [-96.233998, 28.601738], [-96.222293, 28.607336], [-96.21415, 28.613443], [-96.212624, 28.622604], [-96.230944, 28.641433], [-96.208552, 28.662298], [-96.214659, 28.665352], [-96.192267, 28.687744], [-96.19125, 28.69436], [-96.19583, 28.69894], [-96.202446, 28.700976], [-96.222802, 28.698431], [-96.231453, 28.696395], [-96.256899, 28.68469], [-96.263515, 28.683673], [-96.268604, 28.688762], [-96.287942, 28.683164], [-96.304227, 28.671459], [-96.305245, 28.660263], [-96.303718, 28.644996], [-96.322921, 28.64186]]]}, "properties": {"name": "Matagorda", "fips": "321"}}, {"type": "Feature", "geometry": {"type": "Polygon", "coordinates": [[[-96.088912, 29.601658], [-96.044596, 29.562238], [-96.060676, 29.476473], [-95.97343, 29.411445], [-95.937434, 29.358086], [-95.94681, 29.333433], [-95.894468, 29.31498], [-95.8796, 29.266761], [-95.847656, 29.26259], [-95.841948, 29.258707], [-95.874028, 29.229702], [-95.965196, 29.146865], [-96.309178, 28.963291], [-96.640315, 29.247804], [-96.349217, 29.406052], [-96.307672, 29.514523], [-96.175422, 29.633806], [-96.088912, 29.601658]]]}, "properties": {"name": "Wharton", "fips": "481"}}, {"type": "Feature", "geometry": {"type": "Polygon", "coordinates": [[[-95.688349, 29.710862], [-95.687994, 29.710667], [-95.687082, 29.710078], [-95.610025, 29.66699], [-95.537948, 29.633282], [-95.44697, 29.590978], [-95.440415, 29.588065], [-95.435618, 29.585633], [-95.424118, 29.580233], [-95.443224, 29.510214], [-95.462503, 29.43924], [-95.549994, 29.438439], [-95.579598, 29.340129], [-95.654355, 29.290945], [-95.752866, 29.324503], [-95.847656, 29.26259], [-95.8796, 29.266761], [-95.894468, 29.31498], [-95.94681, 29.333433], [-95.937434, 29.358086], [-95.97343, 29.411445], [-96.060676, 29.476473], [-96.044596, 29.562238], [-96.088912, 29.601658], [-96.02485, 29.602877], [-96.032711, 29.727944], [-95.82622, 29.78828], [-95.688349, 29.710862]]]}, "properties": {"name": "Fort Bend", "fips": "157"}}, {"type": "Feature", "geometry": {"type": "MultiPolygon", "coordinates": [[[[-96.655528, 28.704167], [-96.664534, 28.696904], [-96.657918, 28.687744], [-96.635018, 28.668914], [-96.634, 28.654665], [-96.627893, 28.650085], [-96.623313, 28.649576], [-96.615679, 28.644487], [-96.61059, 28.638889], [-96.61059, 28.636344], [-96.61975, 28.627693], [-96.622804, 28.622095], [-96.611099, 28.585962], [-96.608045, 28.583418], [-96.573949, 28.584436], [-96.565297, 28.5824], [-96.564279, 28.576293], [-96.561226, 28.570695], [-96.536289, 28.559499], [-96.526111, 28.557972], [-96.52204, 28.55441], [-96.514406, 28.535071], [-96.505755, 28.525911], [-96.450284, 28.490796], [-96.419749, 28.467387], [-96.410589, 28.459244], [-96.402446, 28.449066], [-96.403973, 28.44245], [-96.46148, 28.421585], [-96.481836, 28.407844], [-96.504737, 28.397666], [-96.520513, 28.394104], [-96.542905, 28.385452], [-96.559699, 28.377819], [-96.570386, 28.368658], [-96.59176, 28.357462], [-96.600412, 28.354409], [-96.650794, 28.346775], [-96.672677, 28.335579], [-96.688453, 28.347284], [-96.69456, 28.347284], [-96.698122, 28.342704], [-96.705247, 28.348811], [-96.700158, 28.369676], [-96.705756, 28.400211], [-96.710336, 28.406827], [-96.72255, 28.408862], [-96.749013, 28.408862], [-96.762245, 28.411916], [-96.76696, 28.410737], [-96.890951, 28.507178], [-96.930367, 28.586728], [-96.853757, 28.635199], [-96.655528, 28.704167]]], [[[-96.323522, 28.675597], [-96.322921, 28.64186], [-96.328655, 28.640924], [-96.373439, 28.626675], [-96.376492, 28.620059], [-96.384635, 28.615988], [-96.473694, 28.57324], [-96.487943, 28.569677], [-96.482854, 28.580364], [-96.480309, 28.596649], [-96.485907, 28.607845], [-96.490488, 28.610899], [-96.510844, 28.61497], [-96.510335, 28.617515], [-96.497612, 28.625148], [-96.496595, 28.630746], [-96.499648, 28.635835], [-96.506264, 28.63838], [-96.54545, 28.645505], [-96.555119, 28.646013], [-96.563262, 28.644487], [-96.572931, 28.667897], [-96.570386, 28.674003], [-96.55919, 28.687235], [-96.559699, 28.691306], [-96.561226, 28.696395], [-96.566824, 28.697922], [-96.575141, 28.702837], [-96.428394, 28.703523], [-96.323522, 28.675597]]], [[[-96.83003, 28.111842], [-96.827049, 28.112417], [-96.816574, 28.119618], [-96.81042, 28.126034], [-96.810944, 28.136378], [-96.816836, 28.158048], [-96.820315, 28.163494], [-96.822859, 28.167476], [-96.818656, 28.17228], [-96.816443, 28.174808], [-96.791958, 28.188687], [-96.733037, 28.190913], [-96.703838, 28.198246], [-96.697422, 28.202959], [-96.702659, 28.211208], [-96.703314, 28.216446], [-96.686816, 28.21841], [-96.662462, 28.227314], [-96.660628, 28.228885], [-96.663116, 28.233206], [-96.651856, 28.251275], [-96.607992, 28.27707], [-96.608123, 28.280081], [-96.611527, 28.281391], [-96.61048, 28.283093], [-96.592934, 28.296972], [-96.581019, 28.30221], [-96.55326, 28.302341], [-96.546975, 28.305614], [-96.542131, 28.315958], [-96.528906, 28.322505], [-96.476269, 28.330754], [-96.450998, 28.337039], [-96.434108, 28.344764], [-96.418919, 28.354846], [-96.415253, 28.362833], [-96.417217, 28.367154], [-96.412896, 28.369511], [-96.403206, 28.371475], [-96.401242, 28.366892], [-96.397846, 28.343513], [-96.4137, 28.327343], [-96.439099, 28.319052], [-96.547774, 28.270798], [-96.621534, 28.2297], [-96.694666, 28.18212], [-96.758141, 28.136873], [-96.849624, 28.064939], [-96.853455, 28.061345], [-96.853912, 28.063699], [-96.847129, 28.070604], [-96.844083, 28.084351], [-96.837646, 28.094673], [-96.837736, 28.099491], [-96.830861, 28.108], [-96.83003, 28.111842]]]]}, "properties": {"name": "Calhoun", "fips": "057"}}, {"type": "Feature", "geometry": {"type": "Polygon", "coordinates": [[[-96.309178, 28.963291], [-96.323522, 28.675597], [-96.428394, 28.703523], [-96.575141, 28.702837], [-96.577727, 28.704365], [-96.57802, 28.704538], [-96.579639, 28.712312], [-96.579669, 28.712455], [-96.580564, 28.716752], [-96.584091, 28.722798], [-96.584127, 28.722859], [-96.584196, 28.722877], [-96.591647, 28.724838], [-96.593796, 28.725403], [-96.604921, 28.72221], [-96.634419, 28.713743], [-96.634912, 28.713601], [-96.645867, 28.710457], [-96.711514, 28.851411], [-96.792133, 28.918803], [-96.832103, 29.021299], [-96.938587, 29.063244], [-96.658466, 29.263876], [-96.643316, 29.25025], [-96.642303, 29.249576], [-96.640315, 29.247804], [-96.309178, 28.963291]]]}, "properties": {"name": "Jackson", "fips": "239"}}]}