{"type": "FeatureCollection", "features": [{"type": "Feature", "geometry": {"type": "Point", "coordinates": [-95.17607, 29.56822]}, "properties": {"kind": "oil", "district": "03", "lease_no": "10496", "lease_name": "WEBSTER FIELD UNIT", "field_name": "WEBSTER", "operator_no": "957310", "operator_name": "P.O.&G. OPERATING, LLC", "period": "202607", "flared_mcf": 310, "produced_mcf": 246070, "flared_mmcfd": 0.01, "wells": 391, "county": "Harris"}}, {"type": "Feature", "geometry": {"type": "Point", "coordinates": [-94.98391, 29.4583]}, "properties": {"kind": "oil", "district": "03", "lease_no": "01263", "lease_name": "SAN LEON FARMS ETAL UNIT", "field_name": "DICKINSON", "operator_no": "246740", "operator_name": "N OIL PROD ENTERPRISES,INC", "period": "202607", "flared_mcf": 10, "produced_mcf": 10, "flared_mmcfd": 0.0, "wells": 2, "county": "Galveston"}}, {"type": "Feature", "geometry": {"type": "Point", "coordinates": [-95.74875, 29.03822]}, "properties": {"kind": "gas", "district": "03", "lease_no": "293897", "lease_name": "OLD OCEAN UNIT", "field_name": "OLD OCEAN (LARSEN)", "operator_no": "386310", "operator_name": "BREEN, C", "period": "202607", "flared_mcf": 4, "produced_mcf": 1232, "flared_mmcfd": 0.0, "wells": 1, "county": "Brazoria"}}, {"type": "Feature", "geometry": {"type": "Point", "coordinates": [-95.68778, 29.03986]}, "properties": {"kind": "gas", "district": "03", "lease_no": "254804", "lease_name": "OLD OCEAN UNIT", "field_name": "OLD OCEAN (F-26)", "operator_no": "386310", "operator_name": "KEEP, I", "period": "202607", "flared_mcf": 1, "produced_mcf": 192, "flared_mmcfd": 0.0, "wells": 1, "county": "Brazoria"}}, {"type": "Feature", "geometry": {"type": "Point", "coordinates": [-95.70698, 29.03759]}, "properties": {"kind": "gas", "district": "03", "lease_no": "300330", "lease_name": "OLD OCEAN UNIT", "field_name": "OLD OCEAN (ARMSTRONG)", "operator_no": "386310", "operator_name": "KEEP, I", "period": "202607", "flared_mcf": 8, "produced_mcf": 2919, "flared_mmcfd": 0.0, "wells": 1, "county": "Brazoria"}}, {"type": "Feature", "geometry": {"type": "Point", "coordinates": [-95.75271, 29.03485]}, "properties": {"kind": "gas", "district": "03", "lease_no": "235088", "lease_name": "OLD OCEAN UNIT", "field_name": "OLD OCEAN (ARMSTRONG)", "operator_no": "386310", "operator_name": "BREEN, C", "period": "202607", "flared_mcf": 3, "produced_mcf": 1048, "flared_mmcfd": 0.0, "wells": 1, "county": "Brazoria"}}, {"type": "Feature", "geometry": {"type": "Point", "coordinates": [-95.71515, 29.04266]}, "properties": {"kind": "gas", "district": "03", "lease_no": "186137", "lease_name": "OLD OCEAN UNIT", "field_name": "OLD OCEAN (LARSEN)", "operator_no": "386310", "operator_name": "HILCORP ENERGY COMPANY", "period": "202607", "flared_mcf": 1, "produced_mcf": 517, "flared_mmcfd": 0.0, "wells": 1, "county": "Brazoria"}}, {"type": "Feature", "geometry": {"type": "Point", "coordinates": [-95.68801, 29.03971]}, "properties": {"kind": "gas", "district": "03", "lease_no": "249844", "lease_name": "OLD OCEAN UNIT", "field_name": "OLD OCEAN (F-26)", "operator_no": "386310", "operator_name": "KEEP, I", "period": "202607", "flared_mcf": 10, "produced_mcf": 3340, "flared_mmcfd": 0.0, "wells": 1, "county": "Brazoria"}}, {"type": "Feature", "geometry": {"type": "Point", "coordinates": [-95.72744, 29.05497]}, "properties": {"kind": "gas", "district": "03", "lease_no": "252298", "lease_name": "OLD OCEAN UNIT", "field_name": "OLD OCEAN (LARSEN)", "operator_no": "386310", "operator_name": "BREEN, C", "period": "202607", "flared_mcf": 5, "produced_mcf": 1875, "flared_mmcfd": 0.0, "wells": 1, "county": "Brazoria"}}, {"type": "Feature", "geometry": {"type": "Point", "coordinates": [-95.69886, 29.0543]}, "properties": {"kind": "gas", "district": "03", "lease_no": "249557", "lease_name": "OLD OCEAN UNIT", "field_name": "OLD OCEAN (LARSEN)", "operator_no": "386310", "operator_name": "KEEP, I", "period": "202607", "flared_mcf": 34, "produced_mcf": 11802, "flared_mmcfd": 0.001, "wells": 1, "county": "Brazoria"}}, {"type": "Feature", "geometry": {"type": "Point", "coordinates": [-95.73133, 29.03363]}, "properties": {"kind": "gas", "district": "03", "lease_no": "287283", "lease_name": "OLD OCEAN UNIT", "field_name": "OLD OCEAN (CAMPBELL)", "operator_no": "386310", "operator_name": "BREEN, C", "period": "202607", "flared_mcf": 4, "produced_mcf": 1393, "flared_mmcfd": 0.0, "wells": 1, "county": "Brazoria"}}, {"type": "Feature", "geometry": {"type": "Point", "coordinates": [-95.71844, 29.03903]}, "properties": {"kind": "oil", "district": "03", "lease_no": "23849", "lease_name": "OLD OCEAN UNIT", "field_name": "OLD OCEAN (F-24)", "operator_no": "670118", "operator_name": "BREEN, C", "period": "202607", "flared_mcf": 10, "produced_mcf": 2990, "flared_mmcfd": 0.0, "wells": 1, "county": "Brazoria"}}, {"type": "Feature", "geometry": {"type": "Point", "coordinates": [-95.72062, 29.03737]}, "properties": {"kind": "gas", "district": "03", "lease_no": "272241", "lease_name": "OLD OCEAN UNIT", "field_name": "OLD OCEAN (LARSEN)", "operator_no": "386310", "operator_name": "BREEN, C", "period": "202607", "flared_mcf": 3, "produced_mcf": 1017, "flared_mmcfd": 0.0, "wells": 1, "county": "Brazoria"}}, {"type": "Feature", "geometry": {"type": "Point", "coordinates": [-95.73062, 29.05756]}, "properties": {"kind": "gas", "district": "03", "lease_no": "212145", "lease_name": "OLD OCEAN UNIT", "field_name": "OLD OCEAN (F-10)", "operator_no": "386310", "operator_name": "BREEN, C", "period": "202607", "flared_mcf": 2, "produced_mcf": 812, "flared_mmcfd": 0.0, "wells": 1, "county": "Brazoria"}}, {"type": "Feature", "geometry": {"type": "Point", "coordinates": [-95.71113, 29.04877]}, "properties": {"kind": "gas", "district": "03", "lease_no": "249826", "lease_name": "OLD OCEAN UNIT", "field_name": "OLD OCEAN (LARSEN)", "operator_no": "386310", "operator_name": "BREEN, C", "period": "202607", "flared_mcf": 1, "produced_mcf": 428, "flared_mmcfd": 0.0, "wells": 1, "county": "Brazoria"}}, {"type": "Feature", "geometry": {"type": "Point", "coordinates": [-95.68461, 29.05716]}, "properties": {"kind": "gas", "district": "03", "lease_no": "031353", "lease_name": "OLD OCEAN UNIT", "field_name": "OLD OCEAN (LARSEN)", "operator_no": "386310", "operator_name": "IMLA KEEP", "period": "202607", "flared_mcf": 13, "produced_mcf": 4632, "flared_mmcfd": 0.0, "wells": 1, "county": "Brazoria"}}, {"type": "Feature", "geometry": {"type": "Point", "coordinates": [-95.74891, 29.05369]}, "properties": {"kind": "gas", "district": "03", "lease_no": "223381", "lease_name": "OLD OCEAN UNIT", "field_name": "OLD OCEAN (LARSEN)", "operator_no": "386310", "operator_name": "POLLEY, J H / CHANCE, S", "period": "202607", "flared_mcf": 46, "produced_mcf": 15917, "flared_mmcfd": 0.001, "wells": 1, "county": "Brazoria"}}, {"type": "Feature", "geometry": {"type": "Point", "coordinates": [-95.74617, 29.04452]}, "properties": {"kind": "gas", "district": "03", "lease_no": "175016", "lease_name": "OLD OCEAN UNIT", "field_name": "OLD OCEAN (LARSEN)", "operator_no": "386310", "operator_name": "HILCORP ENERGY COMPANY", "period": "202607", "flared_mcf": 49, "produced_mcf": 16973, "flared_mmcfd": 0.002, "wells": 1, "county": "Brazoria"}}, {"type": "Feature", "geometry": {"type": "Point", "coordinates": [-95.73307, 29.05547]}, "properties": {"kind": "gas", "district": "03", "lease_no": "042778", "lease_name": "OLD OCEAN UNIT", "field_name": "OLD OCEAN (LARSEN)", "operator_no": "386310", "operator_name": "HILCORP ENERGY COMPANY", "period": "202607", "flared_mcf": 5, "produced_mcf": 1895, "flared_mmcfd": 0.0, "wells": 1, "county": "Brazoria"}}, {"type": "Feature", "geometry": {"type": "Point", "coordinates": [-95.73723, 29.0431]}, "properties": {"kind": "gas", "district": "03", "lease_no": "049504", "lease_name": "OLD OCEAN UNIT", "field_name": "OLD OCEAN (LARSEN)", "operator_no": "386310", "operator_name": "P ENERGY COMPANY", "period": "202607", "flared_mcf": 7, "produced_mcf": 2331, "flared_mmcfd": 0.0, "wells": 1, "county": "Brazoria"}}, {"type": "Feature", "geometry": {"type": "Point", "coordinates": [-95.74981, 29.03829]}, "properties": {"kind": "gas", "district": "03", "lease_no": "048883", "lease_name": "OLD OCEAN UNIT", "field_name": "OLD OCEAN (LARSEN)", "operator_no": "386310", "operator_name": "HILCORP ENERGY COMPANY", "period": "202607", "flared_mcf": 157, "produced_mcf": 54172, "flared_mmcfd": 0.005, "wells": 1, "county": "Brazoria"}}, {"type": "Feature", "geometry": {"type": "Point", "coordinates": [-95.74146, 29.03894]}, "properties": {"kind": "gas", "district": "03", "lease_no": "204028", "lease_name": "OLD OCEAN UNIT", "field_name": "OLD OCEAN (LARSEN)", "operator_no": "386310", "operator_name": "HILCORP ENERGY COMPANY", "period": "202607", "flared_mcf": 27, "produced_mcf": 9310, "flared_mmcfd": 0.001, "wells": 1, "county": "Brazoria"}}, {"type": "Feature", "geometry": {"type": "Point", "coordinates": [-95.74086, 29.03033]}, "properties": {"kind": "gas", "district": "03", "lease_no": "042252", "lease_name": "OLD OCEAN UNIT", "field_name": "OLD OCEAN (LARSEN)", "operator_no": "386310", "operator_name": "P ENERGY COMPANY", "period": "202607", "flared_mcf": 1, "produced_mcf": 312, "flared_mmcfd": 0.0, "wells": 1, "county": "Brazoria"}}, {"type": "Feature", "geometry": {"type": "Point", "coordinates": [-95.73767, 29.03222]}, "properties": {"kind": "gas", "district": "03", "lease_no": "194351", "lease_name": "OLD OCEAN UNIT", "field_name": "OLD OCEAN (LARSEN)", "operator_no": "386310", "operator_name": "HILCORP ENERGY COMPANY", "period": "202607", "flared_mcf": 65, "produced_mcf": 22600, "flared_mmcfd": 0.002, "wells": 1, "county": "Brazoria"}}, {"type": "Feature", "geometry": {"type": "Point", "coordinates": [-95.78085, 29.03254]}, "properties": {"kind": "gas", "district": "03", "lease_no": "108766", "lease_name": "OLD OCEAN UNIT", "field_name": "OLD OCEAN (F- 8)", "operator_no": "386310", "operator_name": "HILCORP ENERGY COMPANY", "period": "202607", "flared_mcf": 5, "produced_mcf": 1614, "flared_mmcfd": 0.0, "wells": 1, "county": "Brazoria"}}, {"type": "Feature", "geometry": {"type": "Point", "coordinates": [-95.77636, 29.0445]}, "properties": {"kind": "gas", "district": "03", "lease_no": "211094", "lease_name": "OLD OCEAN UNIT", "field_name": "OLD OCEAN (F-10)", "operator_no": "386310", "operator_name": "POLLEY, J H / CHANCE, S", "period": "202607", "flared_mcf": 11, "produced_mcf": 3890, "flared_mmcfd": 0.0, "wells": 1, "county": "Brazoria"}}, {"type": "Feature", "geometry": {"type": "Point", "coordinates": [-95.77207, 29.04403]}, "properties": {"kind": "gas", "district": "03", "lease_no": "136880", "lease_name": "OLD OCEAN UNIT", "field_name": "OLD OCEAN (ARMSTRONG)", "operator_no": "386310", "operator_name": "HILCORP ENERGY COMPANY", "period": "202607", "flared_mcf": 8, "produced_mcf": 2602, "flared_mmcfd": 0.0, "wells": 1, "county": "Brazoria"}}, {"type": "Feature", "geometry": {"type": "Point", "coordinates": [-95.76747, 29.03019]}, "properties": {"kind": "gas", "district": "03", "lease_no": "126737", "lease_name": "OLD OCEAN UNIT", "field_name": "OLD OCEAN (ARMSTRONG)", "operator_no": "386310", "operator_name": "HILCORP ENERGY COMPANY", "period": "202607", "flared_mcf": 4, "produced_mcf": 1220, "flared_mmcfd": 0.0, "wells": 1, "county": "Brazoria"}}, {"type": "Feature", "geometry": {"type": "Point", "coordinates": [-95.76133, 29.04925]}, "properties": {"kind": "gas", "district": "03", "lease_no": "186140", "lease_name": "OLD OCEAN UNIT", "field_name": "OLD OCEAN (LARSEN)", "operator_no": "386310", "operator_name": "HILCORP ENERGY COMPANY", "period": "202607", "flared_mcf": 4, "produced_mcf": 1360, "flared_mmcfd": 0.0, "wells": 1, "county": "Brazoria"}}, {"type": "Feature", "geometry": {"type": "Point", "coordinates": [-95.75062, 29.05694]}, "properties": {"kind": "gas", "district": "03", "lease_no": "213379", "lease_name": "OLD OCEAN UNIT", "field_name": "OLD OCEAN (F-10)", "operator_no": "386310", "operator_name": "POLLEY, J H / CHANCE, S", "period": "202607", "flared_mcf": 19, "produced_mcf": 6493, "flared_mmcfd": 0.001, "wells": 1, "county": "Brazoria"}}, {"type": "Feature", "geometry": {"type": "Point", "coordinates": [-93.88577, 29.87636]}, "properties": {"kind": "gas", "district": "03", "lease_no": "269162", "lease_name": "STATE TRACT 29", "field_name": "PLEASURE ISLAND (HACKBERRY 2)", "operator_no": "048169", "operator_name": "D EXPLORATION COMPANY,INC.", "period": "202606", "flared_mcf": 27, "produced_mcf": 21660, "flared_mmcfd": 0.001, "wells": 1, "county": "Jefferson"}}, {"type": "Feature", "geometry": {"type": "Point", "coordinates": [-93.73006, 30.06182]}, "properties": {"kind": "oil", "district": "03", "lease_no": "03322", "lease_name": "BROWN, E. W.", "field_name": "PHOENIX LAKE", "operator_no": "712810", "operator_name": "HOUSTON OIL PROD ENTERPRISES,INC", "period": "202607", "flared_mcf": 10, "produced_mcf": 10, "flared_mmcfd": 0.0, "wells": 1, "county": "Orange"}}, {"type": "Feature", "geometry": {"type": "Point", "coordinates": [-93.97631, 30.15983]}, "properties": {"kind": "gas", "district": "03", "lease_no": "254819", "lease_name": "WILLIAMS", "field_name": "VIDOR AMES (YEGUA EY)", "operator_no": "386310", "operator_name": "T&NO RR CO", "period": "202607", "flared_mcf": 13, "produced_mcf": 1359, "flared_mmcfd": 0.0, "wells": 1, "county": "Orange"}}, {"type": "Feature", "geometry": {"type": "Point", "coordinates": [-93.96419, 30.15792]}, "properties": {"kind": "gas", "district": "03", "lease_no": "291414", "lease_name": "WILLIAMS", "field_name": "RED LINE (HARTBURG, UPPER)", "operator_no": "386310", "operator_name": "T&NO RR CO", "period": "202607", "flared_mcf": 53, "produced_mcf": 4673, "flared_mmcfd": 0.002, "wells": 1, "county": "Orange"}}, {"type": "Feature", "geometry": {"type": "Point", "coordinates": [-93.98239, 30.15877]}, "properties": {"kind": "gas", "district": "03", "lease_no": "261184", "lease_name": "WILLIAMS", "field_name": "VIDOR AMES (YEGUA EY)", "operator_no": "386310", "operator_name": "T&NO RR CO", "period": "202607", "flared_mcf": 5, "produced_mcf": 428, "flared_mmcfd": 0.0, "wells": 1, "county": "Orange"}}, {"type": "Feature", "geometry": {"type": "Point", "coordinates": [-93.96469, 30.15774]}, "properties": {"kind": "gas", "district": "03", "lease_no": "270207", "lease_name": "WILLIAMS", "field_name": "VIDOR AMES (YEGUA EY)", "operator_no": "386310", "operator_name": "T&NO RR CO", "period": "202607", "flared_mcf": 4, "produced_mcf": 526, "flared_mmcfd": 0.0, "wells": 1, "county": "Orange"}}, {"type": "Feature", "geometry": {"type": "Point", "coordinates": [-94.00412, 30.17733]}, "properties": {"kind": "gas", "district": "03", "lease_no": "231722", "lease_name": "MIL-VID", "field_name": "VIDOR AMES (YEGUA EY)", "operator_no": "386310", "operator_name": "HILCORP ENERGY COMPANY", "period": "202607", "flared_mcf": 2, "produced_mcf": 170, "flared_mmcfd": 0.0, "wells": 1, "county": "Orange"}}, {"type": "Feature", "geometry": {"type": "Point", "coordinates": [-94.9583, 30.10649]}, "properties": {"kind": "oil", "district": "03", "lease_no": "27877", "lease_name": "URBAN", "field_name": "DAYTON, EAST (YEGUA EY-1)", "operator_no": "236120", "operator_name": "HORIZON PROD. AND OPERATING, LLC", "period": "202607", "flared_mcf": 3300, "produced_mcf": 3300, "flared_mmcfd": 0.106, "wells": 1, "county": "Liberty"}}, {"type": "Feature", "geometry": {"type": "Point", "coordinates": [-94.33464, 30.2565]}, "properties": {"kind": "oil", "district": "03", "lease_no": "24805", "lease_name": "ISAAC", "field_name": "PEPPIATT (YEGUA 8500)", "operator_no": "705624", "operator_name": "COBRA OIL & GAS CORPORATION", "period": "202607", "flared_mcf": 60410, "produced_mcf": 60410, "flared_mmcfd": 1.949, "wells": 2, "county": "Hardin"}}, {"type": "Feature", "geometry": {"type": "Point", "coordinates": [-94.2503, 30.46321]}, "properties": {"kind": "gas", "district": "03", "lease_no": "292764", "lease_name": "BP VICKERS C", "field_name": "DRY CREEK (6640)", "operator_no": "601854", "operator_name": "NECHES TRANSPORT INC.", "period": "202607", "flared_mcf": 10, "produced_mcf": 10, "flared_mmcfd": 0.0, "wells": 1, "county": "Hardin"}}, {"type": "Feature", "geometry": {"type": "Point", "coordinates": [-93.58171, 30.969]}, "properties": {"kind": "gas", "district": "03", "lease_no": "300246", "lease_name": "ARTEMIS", "field_name": "MAGNOLIA SPRINGS (AUSTIN CHALK)", "operator_no": "102302", "operator_name": "THERON ENERGY OPERATING, LLC", "period": "202606", "flared_mcf": 39, "produced_mcf": 83716, "flared_mmcfd": 0.001, "wells": 1, "county": "Newton"}}, {"type": "Feature", "geometry": {"type": "Point", "coordinates": [-95.79528, 29.03173]}, "properties": {"kind": "gas", "district": "03", "lease_no": "092685", "lease_name": "OLD OCEAN UNIT", "field_name": "OLD OCEAN (F- 8)", "operator_no": "386310", "operator_name": "P ENERGY COMPANY", "period": "202607", "flared_mcf": 4, "produced_mcf": 1344, "flared_mmcfd": 0.0, "wells": 1, "county": "Matagorda"}}, {"type": "Feature", "geometry": {"type": "Point", "coordinates": [-96.24343, 29.2008]}, "properties": {"kind": "gas", "district": "03", "lease_no": "196721", "lease_name": "KUEHNLE", "field_name": "EL CAMPO (YEGUA)", "operator_no": "386310", "operator_name": "HILCORP ENERGY COMPANY", "period": "202607", "flared_mcf": 1734, "produced_mcf": 2021, "flared_mmcfd": 0.056, "wells": 1, "county": "Wharton"}}, {"type": "Feature", "geometry": {"type": "Point", "coordinates": [-95.56906, 29.44641]}, "properties": {"kind": "oil", "district": "03", "lease_no": "04110", "lease_name": "GEORGE, A. P. -A-", "field_name": "THOMPSON", "operator_no": "895250", "operator_name": "P.O.&G. OPERATING, LLC", "period": "202607", "flared_mcf": 70, "produced_mcf": 16310, "flared_mmcfd": 0.002, "wells": 18, "county": "Fort Bend"}}, {"type": "Feature", "geometry": {"type": "Point", "coordinates": [-95.57036, 29.45598]}, "properties": {"kind": "oil", "district": "03", "lease_no": "04116", "lease_name": "LOCKWOOD & SHARP -A-", "field_name": "THOMPSON", "operator_no": "895250", "operator_name": "P.O.&G. OPERATING, LLC", "period": "202607", "flared_mcf": 140, "produced_mcf": 34280, "flared_mmcfd": 0.005, "wells": 74, "county": "Fort Bend"}}, {"type": "Feature", "geometry": {"type": "Point", "coordinates": [-95.56786, 29.45969]}, "properties": {"kind": "oil", "district": "03", "lease_no": "04106", "lease_name": "MYERS, A. E.", "field_name": "THOMPSON", "operator_no": "895250", "operator_name": "P.O.&G. OPERATING, LLC", "period": "202607", "flared_mcf": 70, "produced_mcf": 16080, "flared_mmcfd": 0.002, "wells": 44, "county": "Fort Bend"}}, {"type": "Feature", "geometry": {"type": "Point", "coordinates": [-95.56462, 29.45138]}, "properties": {"kind": "oil", "district": "03", "lease_no": "04114", "lease_name": "LOCKWOOD, H. P.", "field_name": "THOMPSON", "operator_no": "895250", "operator_name": "P.O.&G. OPERATING, LLC", "period": "202607", "flared_mcf": 190, "produced_mcf": 46690, "flared_mmcfd": 0.006, "wells": 49, "county": "Fort Bend"}}, {"type": "Feature", "geometry": {"type": "Point", "coordinates": [-95.57428, 29.45284]}, "properties": {"kind": "oil", "district": "03", "lease_no": "04118", "lease_name": "LOCKWOOD & SHARP -B-", "field_name": "THOMPSON", "operator_no": "895250", "operator_name": "P.O.&G. OPERATING, LLC", "period": "202607", "flared_mcf": 170, "produced_mcf": 41160, "flared_mmcfd": 0.005, "wells": 59, "county": "Fort Bend"}}, {"type": "Feature", "geometry": {"type": "Point", "coordinates": [-95.57388, 29.46584]}, "properties": {"kind": "oil", "district": "03", "lease_no": "04099", "lease_name": "BOOTH, F. I., ETAL -A-", "field_name": "THOMPSON", "operator_no": "895250", "operator_name": "P.O.&G. OPERATING, LLC", "period": "202607", "flared_mcf": 30, "produced_mcf": 8230, "flared_mmcfd": 0.001, "wells": 67, "county": "Fort Bend"}}, {"type": "Feature", "geometry": {"type": "Point", "coordinates": [-95.56829, 29.46229]}, "properties": {"kind": "oil", "district": "03", "lease_no": "04100", "lease_name": "BOOTH, T. R.", "field_name": "THOMPSON", "operator_no": "895250", "operator_name": "P.O.&G. OPERATING, LLC", "period": "202607", "flared_mcf": 10, "produced_mcf": 2980, "flared_mmcfd": 0.0, "wells": 36, "county": "Fort Bend"}}, {"type": "Feature", "geometry": {"type": "Point", "coordinates": [-95.55405, 29.44129]}, "properties": {"kind": "oil", "district": "03", "lease_no": "04625", "lease_name": "DAVIS, J. H. P. ESTATE", "field_name": "THOMPSON, SE. (FRIO)", "operator_no": "895313", "operator_name": "P.O.&G. OPERATING, LLC", "period": "202607", "flared_mcf": 80, "produced_mcf": 18550, "flared_mmcfd": 0.003, "wells": 19, "county": "Fort Bend"}}, {"type": "Feature", "geometry": {"type": "Point", "coordinates": [-96.79417, 28.546]}, "properties": {"kind": "gas", "district": "02", "lease_no": "139303", "lease_name": "FRERICHS, F. L.", "field_name": "SHERIFF, WEST (FRIO 9000)", "operator_no": "846548", "operator_name": "TEXAS INDEPENDENT EXPLOR LTD.", "period": "202607", "flared_mcf": 930, "produced_mcf": 1049, "flared_mmcfd": 0.03, "wells": 1, "county": "Calhoun"}}]}