{"type": "FeatureCollection", "features": [{"type": "Feature", "geometry": {"type": "Point", "coordinates": [-93.77052, 30.02826]}, "properties": {"voltage_kv": 230.0, "owner": "ENTERGY LOUISIANA LLC", "pipeline_operator": "Sabine LLC", "distance_miles": 1.86}}, {"type": "Feature", "geometry": {"type": "Point", "coordinates": [-93.76778, 30.05145]}, "properties": {"voltage_kv": 230.0, "owner": "ENTERGY TEXAS, INC.", "pipeline_operator": "Centana Pipeline Co (TX)", "distance_miles": 1.53}}, {"type": "Feature", "geometry": {"type": "Point", "coordinates": [-93.87888, 29.94341]}, "properties": {"voltage_kv": 230.0, "owner": "ENTERGY TEXAS, INC.", "pipeline_operator": "Sabine LLC", "distance_miles": 0.73}}, {"type": "Feature", "geometry": {"type": "Point", "coordinates": [-94.15665, 30.15653]}, "properties": {"voltage_kv": 230.0, "owner": "ENTERGY TEXAS, INC.", "pipeline_operator": "Houston Pipeline Co", "distance_miles": 2.48}}, {"type": "Feature", "geometry": {"type": "Point", "coordinates": [-96.82434, 28.64358]}, "properties": {"voltage_kv": 345.0, "owner": "AEP TEXAS CENTRAL COMPANY", "pipeline_operator": "Crosstex Texas Systems", "distance_miles": 2.1}}, {"type": "Feature", "geometry": {"type": "Point", "coordinates": [-95.17399, 29.90198]}, "properties": {"voltage_kv": 345.0, "owner": "CENTERPOINT ENERGY", "pipeline_operator": "Houston Pipeline Co", "distance_miles": 1.43}}, {"type": "Feature", "geometry": {"type": "Point", "coordinates": [-95.59073, 29.59763]}, "properties": {"voltage_kv": 345.0, "owner": "CENTERPOINT ENERGY HOUSTON ELECTRIC, LLC", "pipeline_operator": "Amoco Pipeline Co", "distance_miles": 1.98}}, {"type": "Feature", "geometry": {"type": "Point", "coordinates": [-96.0498, 28.79682]}, "properties": {"voltage_kv": 345.0, "owner": "AEP TEXAS CENTRAL COMPANY", "pipeline_operator": "Florida Gas Trans Co", "distance_miles": 2.27}}, {"type": "Feature", "geometry": {"type": "Point", "coordinates": [-95.12347, 29.83665]}, "properties": {"voltage_kv": 345.0, "owner": "CENTERPOINT ENERGY HOUSTON ELECTRIC, LLC", "pipeline_operator": "Kinder Morgan Texas Pipeline Co", "distance_miles": 0.79}}, {"type": "Feature", "geometry": {"type": "Point", "coordinates": [-95.53094, 29.6123]}, "properties": {"voltage_kv": 345.0, "owner": "CENTERPOINT ENERGY HOUSTON ELECTRIC, LLC", "pipeline_operator": "Houston Pipeline Co", "distance_miles": 1.16}}, {"type": "Feature", "geometry": {"type": "Point", "coordinates": [-95.88457, 29.25289]}, "properties": {"voltage_kv": 345.0, "owner": "CENTERPOINT ENERGY", "pipeline_operator": "Natural Gas PL Co of Am", "distance_miles": 2.44}}, {"type": "Feature", "geometry": {"type": "Point", "coordinates": [-95.08717, 29.4901]}, "properties": {"voltage_kv": 345.0, "owner": "CENTERPOINT ENERGY", "pipeline_operator": "Kinder Morgan Texas Pipeline Co", "distance_miles": 1.27}}, {"type": "Feature", "geometry": {"type": "Point", "coordinates": [-93.73888, 30.26186]}, "properties": {"voltage_kv": 500.0, "owner": "DEEP EAST TEXAS ELEC COOP INC", "pipeline_operator": "Centana Pipeline Co (TX)", "distance_miles": 1.27}}, {"type": "Feature", "geometry": {"type": "Point", "coordinates": [-94.00826, 30.14769]}, "properties": {"voltage_kv": 230.0, "owner": "ENTERGY TEXAS, INC.", "pipeline_operator": "Houston Pipeline Co", "distance_miles": 0.62}}, {"type": "Feature", "geometry": {"type": "Point", "coordinates": [-95.63325, 29.47633]}, "properties": {"voltage_kv": 345.0, "owner": "CENTERPOINT ENERGY HOUSTON ELECTRIC, LLC", "pipeline_operator": "Kinder Morgan Texas Pipeline Co", "distance_miles": 0.69}}, {"type": "Feature", "geometry": {"type": "Point", "coordinates": [-95.36287, 29.46631]}, "properties": {"voltage_kv": 345.0, "owner": "CENTERPOINT ENERGY HOUSTON ELECTRIC, LLC", "pipeline_operator": "El Paso Texas Pipeline Co", "distance_miles": 2.85}}, {"type": "Feature", "geometry": {"type": "Point", "coordinates": [-95.57688, 29.89129]}, "properties": {"voltage_kv": 345.0, "owner": "CENTERPOINT ENERGY HOUSTON ELECTRIC, LLC", "pipeline_operator": "Kinder Morgan Texas Pipeline Co", "distance_miles": 1.16}}, {"type": "Feature", "geometry": {"type": "Point", "coordinates": [-95.57259, 30.11006]}, "properties": {"voltage_kv": 345.0, "owner": "ENTERGY TEXAS INC.", "pipeline_operator": "Natural Gas PL Co of Am", "distance_miles": 2.5}}, {"type": "Feature", "geometry": {"type": "Point", "coordinates": [-95.03215, 29.5966]}, "properties": {"voltage_kv": 345.0, "owner": "NOT AVAILABLE", "pipeline_operator": "Houston Pipeline Co", "distance_miles": 1.12}}, {"type": "Feature", "geometry": {"type": "Point", "coordinates": [-94.90444, 29.78935]}, "properties": {"voltage_kv": 345.0, "owner": "CENTERPOINT ENERGY HOUSTON ELECTRIC, LLC", "pipeline_operator": "Houston Pipeline Co", "distance_miles": 2.61}}, {"type": "Feature", "geometry": {"type": "Point", "coordinates": [-95.23069, 29.76812]}, "properties": {"voltage_kv": 345.0, "owner": "CENTERPOINT ENERGY HOUSTON ELECTRIC, LLC", "pipeline_operator": "Amoco Pipeline Co", "distance_miles": 1.54}}, {"type": "Feature", "geometry": {"type": "Point", "coordinates": [-94.26999, 30.00377]}, "properties": {"voltage_kv": 230.0, "owner": "ENTERGY TEXAS, INC.", "pipeline_operator": "Kinder Morgan Texas Pipeline Co", "distance_miles": 2.17}}, {"type": "Feature", "geometry": {"type": "Point", "coordinates": [-93.96134, 30.28882]}, "properties": {"voltage_kv": 500.0, "owner": "ENTERGY TEXAS INC.", "pipeline_operator": "Transcontinental Gas PL", "distance_miles": 0.87}}, {"type": "Feature", "geometry": {"type": "Point", "coordinates": [-95.69895, 29.91415]}, "properties": {"voltage_kv": 345.0, "owner": "CENTERPOINT ENERGY HOUSTON ELECTRIC, LLC", "pipeline_operator": "Houston Pipeline Co", "distance_miles": 2.02}}, {"type": "Feature", "geometry": {"type": "Point", "coordinates": [-96.51553, 29.09143]}, "properties": {"voltage_kv": 345.0, "owner": "NOT AVAILABLE", "pipeline_operator": "Houston Pipeline Co", "distance_miles": 1.6}}, {"type": "Feature", "geometry": {"type": "Point", "coordinates": [-95.3966, 29.21501]}, "properties": {"voltage_kv": 345.0, "owner": "CENTERPOINT ENERGY", "pipeline_operator": "El Paso Texas Pipeline Co", "distance_miles": 2.3}}]}