{"type": "FeatureCollection", "features": [{"type": "Feature", "geometry": {"type": "Polygon", "coordinates": [[[-102.798939, 31.651783], [-102.767246, 31.651714], [-102.767688, 31.640496], [-102.767365, 31.293803], [-102.827087, 31.267909], [-103.01104, 31.371306], [-103.459426, 31.428494], [-103.530927, 31.642284], [-103.57489, 31.632662], [-103.610887, 31.651802], [-103.327538, 31.65142], [-102.801793, 31.651306], [-102.798939, 31.651783]]]}, "properties": {"name": "Ward", "fips": "475"}}, {"type": "Feature", "geometry": {"type": "Polygon", "coordinates": [[[-102.767246, 31.651714], [-102.31805, 31.651327], [-102.301212, 31.086212], [-102.388804, 31.087156], [-102.429545, 31.193557], [-102.676497, 31.326823], [-102.767365, 31.293803], [-102.767688, 31.640496], [-102.767246, 31.651714]]]}, "properties": {"name": "Crane", "fips": "103"}}, {"type": "Feature", "geometry": {"type": "Polygon", "coordinates": [[[-102.20852, 32.958956], [-102.076214, 32.959702], [-101.691284, 32.961838], [-101.68874, 32.525222], [-102.202703, 32.523271], [-102.20852, 32.958956]]]}, "properties": {"name": "Dawson", "fips": "115"}}, {"type": "Feature", "geometry": {"type": "Polygon", "coordinates": [[[-101.03866, 32.970225], [-101.173378, 32.963597], [-101.557434, 32.961025], [-101.556884, 33.39476], [-101.038788, 33.397214], [-101.03866, 32.970225]]]}, "properties": {"name": "Garza", "fips": "169"}}, {"type": "Feature", "geometry": {"type": "Polygon", "coordinates": [[[-101.68874, 32.525222], [-101.174571, 32.524112], [-101.183997, 32.087208], [-101.264216, 32.087136], [-101.695011, 32.087532], [-101.68874, 32.525222]]]}, "properties": {"name": "Howard", "fips": "227"}}, {"type": "Feature", "geometry": {"type": "Polygon", "coordinates": [[[-101.775802, 31.651319], [-102.287345, 31.651276], [-102.287048, 32.086991], [-102.211249, 32.0868], [-101.776085, 32.086925], [-101.775802, 31.651319]]]}, "properties": {"name": "Midland", "fips": "329"}}, {"type": "Feature", "geometry": {"type": "Polygon", "coordinates": [[[-101.26763, 31.556462], [-101.267947, 31.528688], [-101.274799, 31.079379], [-101.776191, 31.079784], [-101.775802, 31.651319], [-101.267122, 31.650854], [-101.26763, 31.556462]]]}, "properties": {"name": "Reagan", "fips": "383"}}, {"type": "Feature", "geometry": {"type": "Polygon", "coordinates": [[[-101.03866, 32.970225], [-100.65587, 32.963469], [-100.660626, 32.525312], [-101.174562, 32.527703], [-101.173378, 32.963597], [-101.03866, 32.970225]]]}, "properties": {"name": "Scurry", "fips": "415"}}, {"type": "Feature", "geometry": {"type": "Polygon", "coordinates": [[[-100.821594, 32.08661], [-100.82537, 31.696155], [-100.861099, 31.705418], [-100.865256, 31.562294], [-101.26763, 31.556462], [-101.267122, 31.650854], [-101.264216, 32.087136], [-101.183997, 32.087208], [-100.821594, 32.08661]]]}, "properties": {"name": "Sterling", "fips": "431"}}, {"type": "Feature", "geometry": {"type": "Polygon", "coordinates": [[[-101.173378, 32.963597], [-101.174562, 32.527703], [-101.174571, 32.524112], [-101.68874, 32.525222], [-101.691284, 32.961838], [-101.557434, 32.961025], [-101.173378, 32.963597]]]}, "properties": {"name": "Borden", "fips": "033"}}, {"type": "Feature", "geometry": {"type": "Polygon", "coordinates": [[[-103.326501, 32.00037], [-103.327538, 31.65142], [-103.610887, 31.651802], [-103.625726, 31.705032], [-103.797232, 31.770187], [-103.829385, 31.887992], [-103.885584, 31.870373], [-103.980179, 32.000125], [-103.722853, 32.000221], [-103.326501, 32.00037]]]}, "properties": {"name": "Loving", "fips": "301"}}, {"type": "Feature", "geometry": {"type": "Polygon", "coordinates": [[[-102.211037, 32.523244], [-102.202703, 32.523271], [-101.68874, 32.525222], [-101.695011, 32.087532], [-101.776085, 32.086925], [-102.211249, 32.0868], [-102.211037, 32.523244]]]}, "properties": {"name": "Martin", "fips": "317"}}, {"type": "Feature", "geometry": {"type": "Polygon", "coordinates": [[[-103.980179, 32.000125], [-103.885584, 31.870373], [-103.829385, 31.887992], [-103.797232, 31.770187], [-103.625726, 31.705032], [-103.610887, 31.651802], [-103.57489, 31.632662], [-103.530927, 31.642284], [-103.459426, 31.428494], [-103.01104, 31.371306], [-103.585084, 30.76647], [-104.102351, 31.105203], [-104.024521, 32.00001], [-103.980179, 32.000125]]]}, "properties": {"name": "Reeves", "fips": "389"}}, {"type": "Feature", "geometry": {"type": "Polygon", "coordinates": [[[-102.287048, 32.086991], [-102.799086, 32.085795], [-103.064344, 32.087051], [-103.064348, 32.123041], [-103.064422, 32.145006], [-103.064696, 32.522193], [-102.211037, 32.523244], [-102.211249, 32.0868], [-102.287048, 32.086991]]]}, "properties": {"name": "Andrews", "fips": "003"}}, {"type": "Feature", "geometry": {"type": "Polygon", "coordinates": [[[-101.267122, 31.650854], [-101.775802, 31.651319], [-101.776085, 32.086925], [-101.695011, 32.087532], [-101.264216, 32.087136], [-101.267122, 31.650854]]]}, "properties": {"name": "Glasscock", "fips": "173"}}, {"type": "Feature", "geometry": {"type": "Polygon", "coordinates": [[[-100.660626, 32.525312], [-100.662215, 32.380297], [-100.665353, 32.085407], [-100.821594, 32.08661], [-101.183997, 32.087208], [-101.174571, 32.524112], [-101.174562, 32.527703], [-100.660626, 32.525312]]]}, "properties": {"name": "Mitchell", "fips": "335"}}, {"type": "Feature", "geometry": {"type": "Polygon", "coordinates": [[[-101.7584, 30.288044], [-101.65853, 30.357861], [-101.740429, 30.420897], [-101.646245, 30.560763], [-101.65263, 30.619374], [-101.76842, 30.653077], [-101.883436, 30.925647], [-101.98364, 30.98717], [-102.191731, 31.003788], [-102.388804, 31.087156], [-102.301212, 31.086212], [-101.776191, 31.079784], [-101.274799, 31.079379], [-100.962176, 31.08249], [-100.960587, 30.706071], [-100.960643, 30.287776], [-101.7584, 30.288044]]]}, "properties": {"name": "Crockett", "fips": "105"}}, {"type": "Feature", "geometry": {"type": "Polygon", "coordinates": [[[-104.024521, 32.00001], [-104.102351, 31.105203], [-104.917163, 30.663626], [-104.916396, 30.835979], [-104.907592, 30.835919], [-104.918637, 31.991805], [-104.918272, 32.000496], [-104.847757, 32.000482], [-104.643526, 32.000443], [-104.640918, 32.000396], [-104.531937, 32.000311], [-104.531756, 32.000117], [-104.024521, 32.00001]]]}, "properties": {"name": "Culberson", "fips": "109"}}, {"type": "Feature", "geometry": {"type": "Polygon", "coordinates": [[[-100.688764, 31.086576], [-100.962176, 31.08249], [-101.274799, 31.079379], [-101.267947, 31.528688], [-101.223944, 31.530035], [-101.223243, 31.528661], [-100.693065, 31.523954], [-100.688764, 31.086576]]]}, "properties": {"name": "Irion", "fips": "235"}}, {"type": "Feature", "geometry": {"type": "Polygon", "coordinates": [[[-103.01104, 31.371306], [-102.827087, 31.267909], [-102.767365, 31.293803], [-102.676497, 31.326823], [-102.429545, 31.193557], [-102.388804, 31.087156], [-102.191731, 31.003788], [-101.98364, 30.98717], [-101.883436, 30.925647], [-101.76842, 30.653077], [-101.768377, 30.652938], [-101.768806, 30.653133], [-101.769105, 30.653327], [-101.769353, 30.653369], [-101.997614, 30.654086], [-102.000408, 30.654933], [-102.02388, 30.655141], [-102.031813, 30.655503], [-102.032467, 30.655385], [-102.032927, 30.655489], [-102.033231, 30.655496], [-102.034002, 30.655433], [-102.034385, 30.655268], [-102.137778, 30.655982], [-102.138406, 30.597521], [-102.342986, 30.598759], [-102.343085, 30.284116], [-102.566937, 30.283269], [-102.567049, 30.052808], [-103.195667, 30.495574], [-103.439976, 30.665939], [-103.585084, 30.76647], [-103.01104, 31.371306]]]}, "properties": {"name": "Pecos", "fips": "371"}}, {"type": "Feature", "geometry": {"type": "Polygon", "coordinates": [[[-101.761839, 29.777187], [-101.786353, 29.782047], [-101.883655, 29.796193], [-101.944913, 29.801468], [-102.040539, 29.790061], [-102.050044, 29.78507], [-102.116076, 29.792527], [-102.262466, 29.853765], [-102.282247, 29.863598], [-102.297331, 29.875194], [-102.320819, 29.875193], [-102.320819, 29.878933], [-102.567049, 30.052808], [-102.566937, 30.283269], [-102.343085, 30.284116], [-102.342986, 30.598759], [-102.138406, 30.597521], [-102.137778, 30.655982], [-102.034385, 30.655268], [-102.034002, 30.655433], [-102.033231, 30.655496], [-102.032927, 30.655489], [-102.032467, 30.655385], [-102.031813, 30.655503], [-102.02388, 30.655141], [-102.000408, 30.654933], [-101.997614, 30.654086], [-101.769353, 30.653369], [-101.769105, 30.653327], [-101.768806, 30.653133], [-101.768377, 30.652938], [-101.76842, 30.653077], [-101.65263, 30.619374], [-101.646245, 30.560763], [-101.740429, 30.420897], [-101.65853, 30.357861], [-101.7584, 30.288044], [-101.760924, 29.781802], [-101.761839, 29.777187]]]}, "properties": {"name": "Terrell", "fips": "443"}}, {"type": "Feature", "geometry": {"type": "Polygon", "coordinates": [[[-102.31805, 31.651327], [-102.288782, 31.65137], [-102.287345, 31.651276], [-101.775802, 31.651319], [-101.776191, 31.079784], [-102.301212, 31.086212], [-102.31805, 31.651327]]]}, "properties": {"name": "Upton", "fips": "461"}}, {"type": "Feature", "geometry": {"type": "Polygon", "coordinates": [[[-102.799086, 32.085795], [-102.798939, 31.651783], [-102.801793, 31.651306], [-103.327538, 31.65142], [-103.326501, 32.00037], [-103.278521, 32.000419], [-103.270383, 32.000326], [-103.267708, 32.000324], [-103.267633, 32.000475], [-103.215641, 32.000513], [-103.088698, 32.000453], [-103.085876, 32.000465], [-103.064423, 32.000518], [-103.064344, 32.087051], [-102.799086, 32.085795]]]}, "properties": {"name": "Winkler", "fips": "495"}}, {"type": "Feature", "geometry": {"type": "Polygon", "coordinates": [[[-102.595023, 32.958831], [-103.064657, 32.959097], [-103.064679, 32.964373], [-103.064625, 32.999899], [-103.064452, 33.01029], [-103.06398, 33.038693], [-103.063905, 33.042055], [-103.060103, 33.219225], [-103.057856, 33.315234], [-103.057487, 33.329477], [-103.056655, 33.388416], [-102.594836, 33.388489], [-102.595023, 32.958831]]]}, "properties": {"name": "Yoakum", "fips": "501"}}, {"type": "Feature", "geometry": {"type": "Polygon", "coordinates": [[[-102.799086, 32.085795], [-102.287048, 32.086991], [-102.287345, 31.651276], [-102.288782, 31.65137], [-102.31805, 31.651327], [-102.767246, 31.651714], [-102.798939, 31.651783], [-102.799086, 32.085795]]]}, "properties": {"name": "Ector", "fips": "135"}}, {"type": "Feature", "geometry": {"type": "Polygon", "coordinates": [[[-102.20852, 32.958956], [-102.202703, 32.523271], [-102.211037, 32.523244], [-103.064696, 32.522193], [-103.064761, 32.587983], [-103.064788, 32.600397], [-103.064761, 32.601863], [-103.064815, 32.624537], [-103.064633, 32.64642], [-103.064864, 32.682647], [-103.064798, 32.690761], [-103.064799, 32.708694], [-103.064827, 32.726628], [-103.064807, 32.777303], [-103.064698, 32.783602], [-103.064711, 32.784593], [-103.064699, 32.827531], [-103.064672, 32.82847], [-103.064889, 32.849359], [-103.064916, 32.85726], [-103.064807, 32.857696], [-103.064862, 32.868346], [-103.064701, 32.879355], [-103.064569, 32.900014], [-103.064657, 32.959097], [-102.595023, 32.958831], [-102.20852, 32.958956]]]}, "properties": {"name": "Gaines", "fips": "165"}}]}