{"type": "FeatureCollection", "features": [{"type": "Feature", "geometry": {"type": "Point", "coordinates": [-102.3271, 31.83713]}, "properties": {"voltage_kv": 345.0, "owner": "ONCOR ELECTRIC DELIVERY CO.", "pipeline_operator": "El Paso Natural Gas Co", "distance_miles": 1.74}}, {"type": "Feature", "geometry": {"type": "Point", "coordinates": [-100.73925, 32.41196]}, "properties": {"voltage_kv": 345.0, "owner": "ONCOR ELECTRIC DELIVERY CO.", "pipeline_operator": "Atmos Pipeline - Texas", "distance_miles": 1.23}}, {"type": "Feature", "geometry": {"type": "Point", "coordinates": [-102.75149, 32.97867]}, "properties": {"voltage_kv": 230.0, "owner": "LEA COUNTY ELECTRIC COOP, INC", "pipeline_operator": "El Paso Natural Gas Co", "distance_miles": 1.96}}, {"type": "Feature", "geometry": {"type": "Point", "coordinates": [-102.78682, 32.18664]}, "properties": {"voltage_kv": 230.0, "owner": "NOT AVAILABLE", "pipeline_operator": "El Paso Natural Gas Co", "distance_miles": 2.02}}, {"type": "Feature", "geometry": {"type": "Point", "coordinates": [-104.13753, 32.45007]}, "properties": {"voltage_kv": 230.0, "owner": "NOT AVAILABLE", "pipeline_operator": "Public Service Co of NM", "distance_miles": 0.73}}, {"type": "Feature", "geometry": {"type": "Point", "coordinates": [-103.33064, 32.72387]}, "properties": {"voltage_kv": 230.0, "owner": "NOT AVAILABLE", "pipeline_operator": "Public Service Co of NM", "distance_miles": 1.08}}, {"type": "Feature", "geometry": {"type": "Point", "coordinates": [-101.42267, 32.27499]}, "properties": {"voltage_kv": 345.0, "owner": "ONCOR ELECTRIC DELIVERY CO.", "pipeline_operator": "ONEOK Westex Pipeline", "distance_miles": 1.38}}, {"type": "Feature", "geometry": {"type": "Point", "coordinates": [-102.9232, 33.04541]}, "properties": {"voltage_kv": 230.0, "owner": "NOT AVAILABLE", "pipeline_operator": "ONEOK Westex Pipeline", "distance_miles": 2.11}}, {"type": "Feature", "geometry": {"type": "Point", "coordinates": [-102.39385, 31.77986]}, "properties": {"voltage_kv": 345.0, "owner": "ONCOR ELECTRIC DELIVERY CO.", "pipeline_operator": "El Paso Natural Gas Co", "distance_miles": 0.19}}, {"type": "Feature", "geometry": {"type": "Point", "coordinates": [-100.70079, 32.55623]}, "properties": {"voltage_kv": 345.0, "owner": "ONCOR ELECTRIC DELIVERY CO.", "pipeline_operator": "Atmos Pipeline - Texas", "distance_miles": 2.75}}, {"type": "Feature", "geometry": {"type": "Point", "coordinates": [-102.29128, 30.97569]}, "properties": {"voltage_kv": 345.0, "owner": "AEP TEXAS NORTH CO.", "pipeline_operator": "Southern Union Gas Services (TX)", "distance_miles": 2.01}}, {"type": "Feature", "geometry": {"type": "Point", "coordinates": [-102.09947, 30.98929]}, "properties": {"voltage_kv": 345.0, "owner": "AEP TEXAS NORTH COMPANY", "pipeline_operator": "Northern Natural Gas Co", "distance_miles": 2.14}}, {"type": "Feature", "geometry": {"type": "Point", "coordinates": [-101.67012, 32.12901]}, "properties": {"voltage_kv": 345.0, "owner": "ONCOR ELECTRIC DELIVERY CO.", "pipeline_operator": "ONEOK Westex Pipeline", "distance_miles": 1.63}}, {"type": "Feature", "geometry": {"type": "Point", "coordinates": [-100.64423, 32.50539]}, "properties": {"voltage_kv": 345.0, "owner": "ONCOR ELECTRIC DELIVERY CO.", "pipeline_operator": "Atmos Pipeline - Texas", "distance_miles": 2.07}}, {"type": "Feature", "geometry": {"type": "Point", "coordinates": [-104.31263, 32.50839]}, "properties": {"voltage_kv": 230.0, "owner": "NOT AVAILABLE", "pipeline_operator": "Natural Gas PL Co of Am", "distance_miles": 2.22}}, {"type": "Feature", "geometry": {"type": "Point", "coordinates": [-103.83968, 32.76964]}, "properties": {"voltage_kv": 230.0, "owner": "NOT AVAILABLE", "pipeline_operator": "Northern Natural Gas Co", "distance_miles": 1.11}}, {"type": "Feature", "geometry": {"type": "Point", "coordinates": [-101.4249, 32.11226]}, "properties": {"voltage_kv": 345.0, "owner": "ONCOR ELECTRIC DELIVERY CO.", "pipeline_operator": "ONEOK Westex Pipeline", "distance_miles": 1.45}}]}