{"type": "FeatureCollection", "features": [{"type": "Feature", "geometry": {"type": "Polygon", "coordinates": [[[-97.544181, 32.994177], [-97.550368, 32.580323], [-97.550582, 32.555391], [-97.617066, 32.555484], [-98.066836, 32.558822], [-98.056094, 33.003332], [-97.921642, 33.001284], [-97.545383, 32.994662], [-97.544181, 32.994177]]]}, "properties": {"name": "Parker", "fips": "367"}}, {"type": "Feature", "geometry": {"type": "Polygon", "coordinates": [[[-97.864864, 32.087328], [-97.940474, 32.221738], [-97.945625, 32.233468], [-97.78276, 32.316493], [-97.615286, 32.318618], [-97.615055, 32.203581], [-97.864864, 32.087328]]]}, "properties": {"name": "Somervell", "fips": "425"}}, {"type": "Feature", "geometry": {"type": "Polygon", "coordinates": [[[-98.575616, 32.954349], [-98.576256, 32.515163], [-99.09605, 32.514768], [-99.096016, 32.957037], [-98.950875, 32.956918], [-98.575616, 32.954349]]]}, "properties": {"name": "Stephens", "fips": "429"}}, {"type": "Feature", "geometry": {"type": "Polygon", "coordinates": [[[-97.487065, 33.433681], [-97.383015, 33.43289], [-97.383095, 33.43045], [-97.39848, 32.990839], [-97.414843, 32.992029], [-97.544181, 32.994177], [-97.545383, 32.994662], [-97.921642, 33.001284], [-97.918189, 33.433873], [-97.500154, 33.434057], [-97.487065, 33.433681]]]}, "properties": {"name": "Wise", "fips": "497"}}, {"type": "Feature", "geometry": {"type": "Polygon", "coordinates": [[[-98.953088, 33.834], [-98.742358, 33.834552], [-98.423577, 33.836047], [-98.423145, 33.610163], [-98.421419, 33.466797], [-98.420666, 33.396195], [-98.953938, 33.397534], [-98.953088, 33.834]]]}, "properties": {"name": "Archer", "fips": "009"}}, {"type": "Feature", "geometry": {"type": "Polygon", "coordinates": [[[-97.766431, 31.672461], [-97.689834, 31.711019], [-97.60523, 31.587762], [-97.418606, 31.320202], [-97.9071, 31.069374], [-98.180006, 31.463717], [-97.766431, 31.672461]]]}, "properties": {"name": "Coryell", "fips": "099"}}, {"type": "Feature", "geometry": {"type": "Polygon", "coordinates": [[[-96.719114, 31.814887], [-96.735543, 31.806667], [-96.932215, 31.708887], [-97.037266, 31.863079], [-97.277265, 31.745492], [-97.32653, 31.78836], [-97.28206, 31.843152], [-97.382848, 31.870788], [-97.438765, 31.933506], [-97.379992, 31.97274], [-97.485968, 32.017611], [-97.476086, 32.17346], [-97.086191, 32.265451], [-96.940656, 32.052087], [-96.896209, 32.073977], [-96.719114, 31.814887]]]}, "properties": {"name": "Hill", "fips": "217"}}, {"type": "Feature", "geometry": {"type": "Polygon", "coordinates": [[[-97.476086, 32.17346], [-97.516121, 32.133612], [-97.615055, 32.203581], [-97.615286, 32.318618], [-97.617066, 32.555484], [-97.550582, 32.555391], [-97.086834, 32.549428], [-97.086191, 32.265451], [-97.476086, 32.17346]]]}, "properties": {"name": "Johnson", "fips": "251"}}, {"type": "Feature", "geometry": {"type": "Polygon", "coordinates": [[[-98.421419, 33.466797], [-98.423145, 33.610163], [-98.423577, 33.836047], [-98.433769, 34.096116], [-98.400494, 34.121778], [-98.398441, 34.128456], [-98.383222, 34.147806], [-98.364023, 34.157109], [-98.325445, 34.151025], [-98.300209, 34.134579], [-98.293901, 34.13302], [-98.200075, 34.116783], [-98.16912, 34.114171], [-98.106261, 34.033696], [-98.088203, 34.005481], [-98.08526, 34.003259], [-98.041117, 33.993456], [-98.019485, 33.993804], [-97.983521, 34.001559], [-97.94573, 33.989839], [-97.953395, 33.936445], [-97.977859, 33.889929], [-97.97781, 33.889894], [-97.978919, 33.467129], [-98.421419, 33.466797]]]}, "properties": {"name": "Clay", "fips": "077"}}, {"type": "Feature", "geometry": {"type": "Polygon", "coordinates": [[[-99.09605, 32.514768], [-99.114293, 32.514811], [-99.612026, 32.514654], [-99.612001, 32.956962], [-99.471258, 32.957025], [-99.096016, 32.957037], [-99.09605, 32.514768]]]}, "properties": {"name": "Shackelford", "fips": "417"}}, {"type": "Feature", "geometry": {"type": "Polygon", "coordinates": [[[-97.864864, 32.087328], [-97.615055, 32.203581], [-97.516121, 32.133612], [-97.476086, 32.17346], [-97.485968, 32.017611], [-97.379992, 31.97274], [-97.438765, 31.933506], [-97.382848, 31.870788], [-97.28206, 31.843152], [-97.32653, 31.78836], [-97.277265, 31.745492], [-97.580232, 31.598796], [-97.60523, 31.587762], [-97.689834, 31.711019], [-97.766431, 31.672461], [-98.005462, 32.017897], [-97.864864, 32.087328]]]}, "properties": {"name": "Bosque", "fips": "035"}}, {"type": "Feature", "geometry": {"type": "Polygon", "coordinates": [[[-98.576256, 32.515163], [-98.575616, 32.954349], [-98.427211, 32.9523], [-98.426553, 33.007913], [-98.056094, 33.003332], [-98.066836, 32.558822], [-98.068545, 32.511626], [-98.475177, 32.513039], [-98.495775, 32.513026], [-98.573016, 32.515261], [-98.576256, 32.515163]]]}, "properties": {"name": "Palo Pinto", "fips": "363"}}, {"type": "Feature", "geometry": {"type": "Polygon", "coordinates": [[[-97.550582, 32.555391], [-97.550368, 32.580323], [-97.544181, 32.994177], [-97.414843, 32.992029], [-97.39848, 32.990839], [-97.397205, 32.990747], [-97.37994, 32.990144], [-97.29423, 32.99026], [-97.167261, 32.989802], [-97.032287, 32.989324], [-97.032687, 32.920614], [-97.038385, 32.548662], [-97.05262, 32.548907], [-97.086834, 32.549428], [-97.550582, 32.555391]]]}, "properties": {"name": "Tarrant", "fips": "439"}}, {"type": "Feature", "geometry": {"type": "Polygon", "coordinates": [[[-98.950875, 32.956918], [-98.953938, 33.397534], [-98.420666, 33.396195], [-98.426553, 33.007913], [-98.427211, 32.9523], [-98.575616, 32.954349], [-98.950875, 32.956918]]]}, "properties": {"name": "Young", "fips": "503"}}, {"type": "Feature", "geometry": {"type": "Polygon", "coordinates": [[[-97.945625, 32.233468], [-97.940474, 32.221738], [-97.864864, 32.087328], [-98.005462, 32.017897], [-98.208386, 31.917511], [-98.251211, 31.980127], [-98.327499, 31.941261], [-98.551158, 32.261436], [-98.475133, 32.298916], [-98.475177, 32.513039], [-98.068545, 32.511626], [-97.945625, 32.233468]]]}, "properties": {"name": "Erath", "fips": "143"}}, {"type": "Feature", "geometry": {"type": "Polygon", "coordinates": [[[-96.838963, 32.987521], [-96.687954, 32.985259], [-96.682467, 32.985325], [-96.660185, 32.985127], [-96.613377, 32.984021], [-96.516866, 32.982308], [-96.518273, 32.891534], [-96.518314, 32.877153], [-96.518586, 32.873389], [-96.51897, 32.813616], [-96.523118, 32.545214], [-96.529987, 32.545282], [-96.908135, 32.547838], [-97.038385, 32.548662], [-97.032687, 32.920614], [-97.032287, 32.989324], [-97.016602, 32.98932], [-97.016332, 32.989324], [-96.843979, 32.987554], [-96.839552, 32.987508], [-96.838963, 32.987521]]]}, "properties": {"name": "Dallas", "fips": "113"}}, {"type": "Feature", "geometry": {"type": "Polygon", "coordinates": [[[-96.834004, 33.405504], [-96.840426, 33.152585], [-96.841854, 33.086264], [-96.843979, 32.987554], [-97.016332, 32.989324], [-97.016602, 32.98932], [-97.032287, 32.989324], [-97.167261, 32.989802], [-97.29423, 32.99026], [-97.37994, 32.990144], [-97.397205, 32.990747], [-97.39848, 32.990839], [-97.383095, 33.43045], [-97.051253, 33.41995], [-96.94386, 33.41641], [-96.834004, 33.405504]]]}, "properties": {"name": "Denton", "fips": "121"}}, {"type": "Feature", "geometry": {"type": "Polygon", "coordinates": [[[-98.924401, 32.078018], [-99.118665, 32.079585], [-99.114293, 32.514811], [-99.09605, 32.514768], [-98.576256, 32.515163], [-98.573016, 32.515261], [-98.495775, 32.513026], [-98.475177, 32.513039], [-98.475133, 32.298916], [-98.551158, 32.261436], [-98.660316, 32.204408], [-98.924401, 32.078018]]]}, "properties": {"name": "Eastland", "fips": "133"}}, {"type": "Feature", "geometry": {"type": "Polygon", "coordinates": [[[-97.086834, 32.549428], [-97.05262, 32.548907], [-97.038385, 32.548662], [-96.908135, 32.547838], [-96.529987, 32.545282], [-96.452138, 32.358631], [-96.383082, 32.328851], [-96.896209, 32.073977], [-96.940656, 32.052087], [-97.086191, 32.265451], [-97.086834, 32.549428]]]}, "properties": {"name": "Ellis", "fips": "139"}}, {"type": "Feature", "geometry": {"type": "Polygon", "coordinates": [[[-98.180006, 31.463717], [-98.27107, 31.416398], [-98.463736, 31.683989], [-98.156568, 31.841713], [-98.208386, 31.917511], [-98.005462, 32.017897], [-97.766431, 31.672461], [-98.180006, 31.463717]]]}, "properties": {"name": "Hamilton", "fips": "193"}}, {"type": "Feature", "geometry": {"type": "Polygon", "coordinates": [[[-97.978919, 33.467129], [-97.978967, 33.433748], [-97.918189, 33.433873], [-97.921642, 33.001284], [-98.056094, 33.003332], [-98.426553, 33.007913], [-98.420666, 33.396195], [-98.421419, 33.466797], [-97.978919, 33.467129]]]}, "properties": {"name": "Jack", "fips": "237"}}, {"type": "Feature", "geometry": {"type": "Polygon", "coordinates": [[[-98.463736, 31.683989], [-98.492802, 31.723608], [-98.668441, 31.700514], [-98.924401, 32.078018], [-98.660316, 32.204408], [-98.551158, 32.261436], [-98.327499, 31.941261], [-98.251211, 31.980127], [-98.208386, 31.917511], [-98.156568, 31.841713], [-98.463736, 31.683989]]]}, "properties": {"name": "Comanche", "fips": "093"}}, {"type": "Feature", "geometry": {"type": "Polygon", "coordinates": [[[-97.051253, 33.41995], [-97.383095, 33.43045], [-97.383015, 33.43289], [-97.487065, 33.433681], [-97.484071, 33.91568], [-97.458069, 33.901635], [-97.450954, 33.891398], [-97.451469, 33.87093], [-97.457617, 33.855126], [-97.461486, 33.84956], [-97.462857, 33.841772], [-97.459068, 33.834581], [-97.453057, 33.828536], [-97.444193, 33.823773], [-97.426493, 33.819398], [-97.372941, 33.819454], [-97.310843, 33.872461], [-97.226522, 33.914642], [-97.210921, 33.916064], [-97.185458, 33.9007], [-97.180845, 33.895204], [-97.166629, 33.847311], [-97.166824, 33.840395], [-97.171627, 33.835335], [-97.18137, 33.831375], [-97.194678, 33.831192], [-97.1997, 33.827322], [-97.204995, 33.81887], [-97.204827, 33.799908], [-97.172192, 33.737545], [-97.163149, 33.729322], [-97.162803, 33.729127], [-97.151257, 33.722608], [-97.13753, 33.718664], [-97.121102, 33.717174], [-97.107183, 33.721119], [-97.097154, 33.727809], [-97.092414, 33.733214], [-97.047972, 33.817931], [-97.00613, 33.861884], [-96.985567, 33.886522], [-96.97287, 33.935698], [-96.944611, 33.948994], [-96.94386, 33.41641], [-97.051253, 33.41995]]]}, "properties": {"name": "Cooke", "fips": "097"}}, {"type": "Feature", "geometry": {"type": "Polygon", "coordinates": [[[-97.484071, 33.91568], [-97.487065, 33.433681], [-97.500154, 33.434057], [-97.918189, 33.433873], [-97.978967, 33.433748], [-97.978919, 33.467129], [-97.97781, 33.889894], [-97.966706, 33.881949], [-97.877387, 33.850236], [-97.865765, 33.849393], [-97.834333, 33.857671], [-97.785317, 33.890701], [-97.733723, 33.936392], [-97.700477, 33.972246], [-97.69311, 33.983699], [-97.688023, 33.986607], [-97.671772, 33.99137], [-97.65621, 33.989488], [-97.609091, 33.968093], [-97.589598, 33.953554], [-97.588828, 33.951882], [-97.597115, 33.917868], [-97.596289, 33.913769], [-97.587441, 33.902479], [-97.581041, 33.900396], [-97.561054, 33.898006], [-97.555002, 33.897282], [-97.545526, 33.900396], [-97.519171, 33.913638], [-97.50096, 33.919643], [-97.486505, 33.916994], [-97.484071, 33.91568]]]}, "properties": {"name": "Montague", "fips": "337"}}, {"type": "Feature", "geometry": {"type": "Polygon", "coordinates": [[[-97.945625, 32.233468], [-98.068545, 32.511626], [-98.066836, 32.558822], [-97.617066, 32.555484], [-97.615286, 32.318618], [-97.78276, 32.316493], [-97.945625, 32.233468]]]}, "properties": {"name": "Hood", "fips": "221"}}]}