{"type": "FeatureCollection", "features": [{"type": "Feature", "geometry": {"type": "Polygon", "coordinates": [[[-95.665389, 32.960434], [-95.635017, 32.72038], [-95.829581, 32.766967], [-95.934433, 32.837217], [-95.987259, 32.876415], [-95.9453, 32.979877], [-95.862521, 32.979571], [-95.665389, 32.960434]]]}, "properties": {"name": "Rains", "fips": "379"}}, {"type": "Feature", "geometry": {"type": "Polygon", "coordinates": [[[-95.15341, 32.570115], [-95.15211, 32.902641], [-94.719942, 32.904502], [-94.720065, 32.90045], [-94.705177, 32.892062], [-94.705878, 32.879177], [-94.70214, 32.793088], [-94.70179, 32.652209], [-94.986935, 32.537246], [-95.15341, 32.570115]]]}, "properties": {"name": "Upshur", "fips": "459"}}, {"type": "Feature", "geometry": {"type": "Polygon", "coordinates": [[[-95.15211, 32.902641], [-95.152206, 33.01345], [-95.147452, 33.020871], [-95.138714, 33.026226], [-95.137213, 33.030938], [-95.131884, 33.029809], [-95.12613, 33.034581], [-94.926546, 33.069287], [-94.819828, 32.982886], [-94.719942, 32.904502], [-95.15211, 32.902641]]]}, "properties": {"name": "Camp", "fips": "063"}}, {"type": "Feature", "geometry": {"type": "Polygon", "coordinates": [[[-95.125451, 33.389454], [-95.12613, 33.034581], [-95.131884, 33.029809], [-95.137213, 33.030938], [-95.138714, 33.026226], [-95.147452, 33.020871], [-95.152206, 33.01345], [-95.172947, 32.961829], [-95.308957, 32.962572], [-95.308593, 33.37719], [-95.30777, 33.377769], [-95.30664, 33.378027], [-95.125451, 33.389454]]]}, "properties": {"name": "Franklin", "fips": "159"}}, {"type": "Feature", "geometry": {"type": "Polygon", "coordinates": [[[-96.896209, 32.073977], [-96.383082, 32.328851], [-96.115693, 32.160915], [-96.05478, 32.012526], [-96.496713, 31.796191], [-96.719114, 31.814887], [-96.896209, 32.073977]]]}, "properties": {"name": "Navarro", "fips": "349"}}, {"type": "Feature", "geometry": {"type": "Polygon", "coordinates": [[[-94.865857, 31.526916], [-95.000212, 31.428196], [-95.003345, 31.42571], [-95.101382, 31.469887], [-95.176359, 31.584826], [-95.273203, 31.592886], [-95.258859, 31.609959], [-95.412908, 31.835157], [-95.446747, 31.843116], [-95.428512, 32.084475], [-95.447088, 32.107291], [-95.456843, 32.112307], [-95.459908, 32.135559], [-94.985272, 32.137989], [-94.985037, 31.846193], [-94.937532, 31.845555], [-94.967167, 31.753767], [-94.951969, 31.641351], [-94.865857, 31.526916]]]}, "properties": {"name": "Cherokee", "fips": "073"}}, {"type": "Feature", "geometry": {"type": "Polygon", "coordinates": [[[-96.349364, 30.911423], [-96.45763, 30.744474], [-96.566983, 30.69567], [-96.568795, 30.701387], [-96.595776, 30.715072], [-96.599467, 30.728634], [-96.621281, 30.730819], [-96.661054, 30.829686], [-96.68497, 30.906191], [-96.75633, 30.927206], [-96.829121, 31.105871], [-96.596862, 31.2209], [-96.319165, 31.357129], [-96.33109, 31.25223], [-96.24102, 30.973737], [-96.263223, 30.964123], [-96.336193, 30.9217], [-96.349364, 30.911423]]]}, "properties": {"name": "Robertson", "fips": "395"}}, {"type": "Feature", "geometry": {"type": "Polygon", "coordinates": [[[-94.985272, 32.137989], [-95.459908, 32.135559], [-95.488733, 32.232486], [-95.449165, 32.355233], [-95.5943, 32.479858], [-95.594541, 32.687026], [-95.47297, 32.606426], [-95.332164, 32.604252], [-95.167523, 32.543957], [-95.15341, 32.570115], [-94.986935, 32.537246], [-94.986406, 32.371322], [-94.985411, 32.37082], [-94.985272, 32.137989]]]}, "properties": {"name": "Smith", "fips": "423"}}, {"type": "Feature", "geometry": {"type": "Polygon", "coordinates": [[[-96.075899, 32.357505], [-96.076685, 32.836799], [-96.076801, 32.838489], [-95.934433, 32.837217], [-95.829581, 32.766967], [-95.635017, 32.72038], [-95.626279, 32.708703], [-95.615764, 32.708095], [-95.60546, 32.702416], [-95.604027, 32.696294], [-95.59323, 32.693011], [-95.594541, 32.687026], [-95.5943, 32.479858], [-95.449165, 32.355233], [-96.075899, 32.357505]]]}, "properties": {"name": "Van Zandt", "fips": "467"}}, {"type": "Feature", "geometry": {"type": "Polygon", "coordinates": [[[-95.15341, 32.570115], [-95.167523, 32.543957], [-95.332164, 32.604252], [-95.47297, 32.606426], [-95.594541, 32.687026], [-95.59323, 32.693011], [-95.604027, 32.696294], [-95.60546, 32.702416], [-95.615764, 32.708095], [-95.626279, 32.708703], [-95.635017, 32.72038], [-95.665389, 32.960434], [-95.308957, 32.962572], [-95.172947, 32.961829], [-95.152206, 33.01345], [-95.15211, 32.902641], [-95.15341, 32.570115]]]}, "properties": {"name": "Wood", "fips": "499"}}, {"type": "Feature", "geometry": {"type": "Polygon", "coordinates": [[[-95.428512, 32.084475], [-95.446747, 31.843116], [-95.412908, 31.835157], [-95.258859, 31.609959], [-95.273203, 31.592886], [-95.651764, 31.541791], [-95.739279, 31.504056], [-95.710112, 31.615587], [-95.7873, 31.618385], [-95.794081, 31.66031], [-95.861262, 31.687451], [-95.875937, 31.755503], [-95.980568, 31.784561], [-95.994127, 31.866258], [-96.027788, 31.878242], [-96.022955, 31.957581], [-96.062172, 31.95634], [-96.052786, 32.005895], [-95.428512, 32.084475]]]}, "properties": {"name": "Anderson", "fips": "001"}}, {"type": "Feature", "geometry": {"type": "Polygon", "coordinates": [[[-96.236629, 31.413392], [-96.304907, 31.382132], [-96.322853, 31.374067], [-96.319165, 31.357129], [-96.596862, 31.2209], [-96.801123, 31.522269], [-96.932215, 31.708887], [-96.735543, 31.806667], [-96.719114, 31.814887], [-96.496713, 31.796191], [-96.236629, 31.413392]]]}, "properties": {"name": "Limestone", "fips": "293"}}, {"type": "Feature", "geometry": {"type": "Polygon", "coordinates": [[[-96.319165, 31.357129], [-96.322853, 31.374067], [-96.304907, 31.382132], [-96.236629, 31.413392], [-95.7873, 31.618385], [-95.710112, 31.615587], [-95.739279, 31.504056], [-95.657202, 31.317999], [-95.725226, 31.271084], [-95.76441, 31.094211], [-95.973841, 31.09215], [-96.24102, 30.973737], [-96.33109, 31.25223], [-96.319165, 31.357129]]]}, "properties": {"name": "Leon", "fips": "289"}}, {"type": "Feature", "geometry": {"type": "Polygon", "coordinates": [[[-95.617872, 30.930418], [-95.863059, 30.864125], [-96.16837, 30.822997], [-96.24102, 30.973737], [-95.973841, 31.09215], [-95.76441, 31.094211], [-95.663546, 31.083884], [-95.681158, 30.986958], [-95.617872, 30.930418]]]}, "properties": {"name": "Madison", "fips": "313"}}, {"type": "Feature", "geometry": {"type": "Polygon", "coordinates": [[[-94.746925, 33.328938], [-94.65226, 33.268861], [-94.653994, 32.879506], [-94.705878, 32.879177], [-94.705177, 32.892062], [-94.720065, 32.90045], [-94.719942, 32.904502], [-94.819828, 32.982886], [-94.808783, 33.363636], [-94.746925, 33.328938]]]}, "properties": {"name": "Morris", "fips": "343"}}, {"type": "Feature", "geometry": {"type": "Polygon", "coordinates": [[[-95.449165, 32.355233], [-95.488733, 32.232486], [-95.459908, 32.135559], [-95.456843, 32.112307], [-95.447088, 32.107291], [-95.428512, 32.084475], [-96.052786, 32.005895], [-96.05288, 32.008198], [-96.05478, 32.012526], [-96.115693, 32.160915], [-96.383082, 32.328851], [-96.452138, 32.358631], [-96.075899, 32.357505], [-95.449165, 32.355233]]]}, "properties": {"name": "Henderson", "fips": "213"}}, {"type": "Feature", "geometry": {"type": "Polygon", "coordinates": [[[-95.862521, 32.979571], [-95.863296, 33.000117], [-95.861778, 33.21933], [-95.730784, 33.305405], [-95.584353, 33.359405], [-95.314165, 33.367232], [-95.308593, 33.37719], [-95.308957, 32.962572], [-95.665389, 32.960434], [-95.862521, 32.979571]]]}, "properties": {"name": "Hopkins", "fips": "223"}}, {"type": "Feature", "geometry": {"type": "Polygon", "coordinates": [[[-94.326616, 31.224754], [-94.129632, 31.09928], [-94.45782, 31.033326], [-94.561943, 31.058952], [-94.842947, 31.146578], [-94.909502, 31.337059], [-94.95811, 31.38693], [-94.959415, 31.388884], [-94.966254, 31.391205], [-94.964521, 31.395558], [-94.967634, 31.397412], [-94.969369, 31.396948], [-94.973581, 31.399759], [-94.97778, 31.399381], [-94.976068, 31.402], [-94.976291, 31.40525], [-94.979364, 31.405975], [-94.976033, 31.407744], [-94.983053, 31.411593], [-94.984753, 31.41385], [-94.988061, 31.414417], [-94.990043, 31.413356], [-94.993832, 31.41422], [-94.994108, 31.417835], [-94.997132, 31.41678], [-94.998247, 31.42004], [-95.001258, 31.417949], [-95.005566, 31.421349], [-95.003345, 31.42571], [-95.000212, 31.428196], [-94.865857, 31.526916], [-94.728679, 31.457226], [-94.544888, 31.431715], [-94.530634, 31.398654], [-94.495874, 31.405728], [-94.326616, 31.224754]]]}, "properties": {"name": "Angelina", "fips": "005"}}, {"type": "Feature", "geometry": {"type": "Polygon", "coordinates": [[[-96.496713, 31.796191], [-96.05478, 32.012526], [-96.05288, 32.008198], [-96.052786, 32.005895], [-96.062172, 31.95634], [-96.022955, 31.957581], [-96.027788, 31.878242], [-95.994127, 31.866258], [-95.980568, 31.784561], [-95.875937, 31.755503], [-95.861262, 31.687451], [-95.794081, 31.66031], [-95.7873, 31.618385], [-96.236629, 31.413392], [-96.496713, 31.796191]]]}, "properties": {"name": "Freestone", "fips": "161"}}, {"type": "Feature", "geometry": {"type": "Polygon", "coordinates": [[[-95.273203, 31.592886], [-95.176359, 31.584826], [-95.101382, 31.469887], [-95.003345, 31.42571], [-95.005566, 31.421349], [-95.001258, 31.417949], [-94.998247, 31.42004], [-94.997132, 31.41678], [-94.994108, 31.417835], [-94.993832, 31.41422], [-94.990043, 31.413356], [-94.988061, 31.414417], [-94.984753, 31.41385], [-94.983053, 31.411593], [-94.976033, 31.407744], [-94.979364, 31.405975], [-94.976291, 31.40525], [-94.976068, 31.402], [-94.97778, 31.399381], [-94.973581, 31.399759], [-94.969369, 31.396948], [-94.967634, 31.397412], [-94.964521, 31.395558], [-94.966254, 31.391205], [-94.959415, 31.388884], [-94.95811, 31.38693], [-95.434781, 31.058098], [-95.617872, 30.930418], [-95.681158, 30.986958], [-95.663546, 31.083884], [-95.76441, 31.094211], [-95.725226, 31.271084], [-95.657202, 31.317999], [-95.739279, 31.504056], [-95.651764, 31.541791], [-95.273203, 31.592886]]]}, "properties": {"name": "Houston", "fips": "225"}}]}