{"type": "FeatureCollection", "features": [{"type": "Feature", "geometry": {"type": "Point", "coordinates": [-95.4112, 32.0181]}, "properties": {"kind": "oil", "district": "06", "lease_no": "16194", "lease_name": "FRANKSTON", "field_name": "GIRLIE CALDWELL (GOODLAND LM)", "operator_no": "350605", "operator_name": "JAMEX, INC.", "period": "202607", "flared_mcf": 47090, "produced_mcf": 47090, "flared_mmcfd": 1.519, "wells": 1, "county": "Cherokee"}}, {"type": "Feature", "geometry": {"type": "Point", "coordinates": [-96.63886, 30.82596]}, "properties": {"kind": "oil", "district": "03", "lease_no": "27979", "lease_name": "BEVERLY GALE", "field_name": "GIDDINGS (AUSTIN CHALK-3)", "operator_no": "347335", "operator_name": "MAGNOLIA OIL & GAS OPERATING LLC", "period": "202607", "flared_mcf": 13740, "produced_mcf": 49220, "flared_mmcfd": 0.443, "wells": 1, "county": "Robertson"}}, {"type": "Feature", "geometry": {"type": "Point", "coordinates": [-94.69081, 32.96123]}, "properties": {"kind": "oil", "district": "06", "lease_no": "15713", "lease_name": "QUARLES", "field_name": "HIDDEN ROCK (COTTON VALLEY LIME)", "operator_no": "410901", "operator_name": "BARROW-SHAVER RESOURCES CO.", "period": "202607", "flared_mcf": 12430, "produced_mcf": 12430, "flared_mmcfd": 0.401, "wells": 1, "county": "Morris"}}, {"type": "Feature", "geometry": {"type": "Point", "coordinates": [-95.40812, 32.09617]}, "properties": {"kind": "oil", "district": "06", "lease_no": "16075", "lease_name": "LIONHEAD", "field_name": "GIRLIE CALDWELL (GOODLAND LM)", "operator_no": "350605", "operator_name": "VALENCE OPERATING COMPANY", "period": "202607", "flared_mcf": 10410, "produced_mcf": 10410, "flared_mmcfd": 0.336, "wells": 1, "county": "Cherokee"}}, {"type": "Feature", "geometry": {"type": "Point", "coordinates": [-96.19955, 30.99599]}, "properties": {"kind": "oil", "district": "05", "lease_no": "04079", "lease_name": "THE GROVE UNIT", "field_name": "AGUILA VADO (EAGLEFORD)", "operator_no": "008705", "operator_name": "VESS OIL CORPORATION", "period": "202607", "flared_mcf": 10320, "produced_mcf": 10320, "flared_mmcfd": 0.333, "wells": 3, "county": "Leon"}}, {"type": "Feature", "geometry": {"type": "Point", "coordinates": [-96.132, 30.90989]}, "properties": {"kind": "oil", "district": "03", "lease_no": "24961", "lease_name": "SHEPHERD CREEK WB", "field_name": "MADISONVILLE, W. (WOODBINE)", "operator_no": "565992", "operator_name": "TRAILBLAZER ENERGY RESOURCES,LLC", "period": "202607", "flared_mcf": 9290, "produced_mcf": 13010, "flared_mmcfd": 0.3, "wells": 1, "county": "Madison"}}, {"type": "Feature", "geometry": {"type": "Point", "coordinates": [-95.49751, 32.95794]}, "properties": {"kind": "oil", "district": "05", "lease_no": "04411", "lease_name": "MALLOY UNIT", "field_name": "COMO (RODESSA HILL, LO.)", "operator_no": "199474", "operator_name": "VALENCE OPERATING COMPANY", "period": "202607", "flared_mcf": 6380, "produced_mcf": 188110, "flared_mmcfd": 0.206, "wells": 2, "county": "Hopkins"}}, {"type": "Feature", "geometry": {"type": "Point", "coordinates": [-96.63881, 30.82589]}, "properties": {"kind": "oil", "district": "03", "lease_no": "27955", "lease_name": "ELLIE GRACE", "field_name": "GIDDINGS (AUSTIN CHALK-3)", "operator_no": "347335", "operator_name": "MAGNOLIA OIL & GAS OPERATING LLC", "period": "202607", "flared_mcf": 5570, "produced_mcf": 19950, "flared_mmcfd": 0.18, "wells": 1, "county": "Robertson"}}, {"type": "Feature", "geometry": {"type": "Point", "coordinates": [-95.38322, 32.29439]}, "properties": {"kind": "oil", "district": "06", "lease_no": "15981", "lease_name": "CLEO", "field_name": "GIRLIE CALDWELL (GOODLAND LM)", "operator_no": "350605", "operator_name": "VALENCE OPERATING COMPANY", "period": "202607", "flared_mcf": 4870, "produced_mcf": 4870, "flared_mmcfd": 0.157, "wells": 1, "county": "Smith"}}, {"type": "Feature", "geometry": {"type": "Point", "coordinates": [-95.6218, 32.78069]}, "properties": {"kind": "oil", "district": "06", "lease_no": "11697", "lease_name": "MCDANIEL", "field_name": "ALBA (SMACKOVER)", "operator_no": "011112", "operator_name": "VALENCE OPERATING COMPANY", "period": "202607", "flared_mcf": 4160, "produced_mcf": 4160, "flared_mmcfd": 0.134, "wells": 1, "county": "Wood"}}, {"type": "Feature", "geometry": {"type": "Point", "coordinates": [-96.1741, 30.9925]}, "properties": {"kind": "oil", "district": "05", "lease_no": "04019", "lease_name": "ELLISON UNIT", "field_name": "AGUILA VADO (EAGLEFORD)", "operator_no": "008705", "operator_name": "VESS OIL CORPORATION", "period": "202607", "flared_mcf": 3970, "produced_mcf": 3970, "flared_mmcfd": 0.128, "wells": 1, "county": "Madison"}}, {"type": "Feature", "geometry": {"type": "Point", "coordinates": [-95.48315, 32.92476]}, "properties": {"kind": "oil", "district": "05", "lease_no": "04027", "lease_name": "ALEXANDER, J.D.", "field_name": "COMO (RODESSA HILL, LO.)", "operator_no": "199474", "operator_name": "VALENCE OPERATING COMPANY", "period": "202607", "flared_mcf": 3880, "produced_mcf": 3880, "flared_mmcfd": 0.125, "wells": 1, "county": "Wood"}}, {"type": "Feature", "geometry": {"type": "Point", "coordinates": [-95.38323, 32.29442]}, "properties": {"kind": "oil", "district": "06", "lease_no": "15993", "lease_name": "ANTONY", "field_name": "GIRLIE CALDWELL (GOODLAND LM)", "operator_no": "350605", "operator_name": "VALENCE OPERATING COMPANY", "period": "202607", "flared_mcf": 3840, "produced_mcf": 3840, "flared_mmcfd": 0.124, "wells": 1, "county": "Smith"}}, {"type": "Feature", "geometry": {"type": "Point", "coordinates": [-95.79597, 32.04332]}, "properties": {"kind": "oil", "district": "05", "lease_no": "02684", "lease_name": "STEVENS \"G\"", "field_name": "CARROLL SPRINGS (RODESSA)", "operator_no": "159546", "operator_name": "VALENCE OPERATING COMPANY", "period": "202607", "flared_mcf": 3250, "produced_mcf": 3250, "flared_mmcfd": 0.105, "wells": 1, "county": "Henderson"}}, {"type": "Feature", "geometry": {"type": "Point", "coordinates": [-96.0865, 30.96362]}, "properties": {"kind": "oil", "district": "05", "lease_no": "04490", "lease_name": "TARPON", "field_name": "AGUILA VADO (EAGLEFORD)", "operator_no": "008705", "operator_name": "WILDFIRE ENERGY OPERATING LLC", "period": "202606", "flared_mcf": 2850, "produced_mcf": 48830, "flared_mmcfd": 0.095, "wells": 1, "county": "Madison"}}, {"type": "Feature", "geometry": {"type": "Point", "coordinates": [-96.07666, 30.96468]}, "properties": {"kind": "oil", "district": "05", "lease_no": "04494", "lease_name": "WAHOO", "field_name": "AGUILA VADO (EAGLEFORD)", "operator_no": "008705", "operator_name": "WILDFIRE ENERGY OPERATING LLC", "period": "202606", "flared_mcf": 2420, "produced_mcf": 41340, "flared_mmcfd": 0.081, "wells": 1, "county": "Madison"}}, {"type": "Feature", "geometry": {"type": "Point", "coordinates": [-96.07656, 30.96468]}, "properties": {"kind": "oil", "district": "05", "lease_no": "04492", "lease_name": "COBIA", "field_name": "AGUILA VADO (EAGLEFORD)", "operator_no": "008705", "operator_name": "WILDFIRE ENERGY OPERATING LLC", "period": "202606", "flared_mcf": 2320, "produced_mcf": 39700, "flared_mmcfd": 0.077, "wells": 1, "county": "Madison"}}, {"type": "Feature", "geometry": {"type": "Point", "coordinates": [-94.7502, 32.94064]}, "properties": {"kind": "oil", "district": "06", "lease_no": "15715", "lease_name": "POLLAN", "field_name": "HIDDEN ROCK (COTTON VALLEY LIME)", "operator_no": "410901", "operator_name": "BARROW-SHAVER RESOURCES CO.", "period": "202607", "flared_mcf": 2340, "produced_mcf": 2340, "flared_mmcfd": 0.075, "wells": 1, "county": "Morris"}}, {"type": "Feature", "geometry": {"type": "Point", "coordinates": [-96.07675, 30.96468]}, "properties": {"kind": "oil", "district": "05", "lease_no": "04493", "lease_name": "BONEFISH", "field_name": "AGUILA VADO (EAGLEFORD)", "operator_no": "008705", "operator_name": "WILDFIRE ENERGY OPERATING LLC", "period": "202606", "flared_mcf": 2260, "produced_mcf": 38590, "flared_mmcfd": 0.075, "wells": 1, "county": "Madison"}}, {"type": "Feature", "geometry": {"type": "Point", "coordinates": [-96.1987, 30.99619]}, "properties": {"kind": "oil", "district": "03", "lease_no": "26595", "lease_name": "THE GOLDEN WAVE UNIT", "field_name": "FORT TRINIDAD, EAST (BUDA)", "operator_no": "321570", "operator_name": "VESS OIL CORPORATION", "period": "202607", "flared_mcf": 2320, "produced_mcf": 2320, "flared_mmcfd": 0.075, "wells": 1, "county": "Leon"}}, {"type": "Feature", "geometry": {"type": "Point", "coordinates": [-96.08645, 30.96378]}, "properties": {"kind": "oil", "district": "05", "lease_no": "04491", "lease_name": "COHO", "field_name": "AGUILA VADO (EAGLEFORD)", "operator_no": "008705", "operator_name": "WILDFIRE ENERGY OPERATING LLC", "period": "202606", "flared_mcf": 2090, "produced_mcf": 35690, "flared_mmcfd": 0.07, "wells": 1, "county": "Madison"}}, {"type": "Feature", "geometry": {"type": "Point", "coordinates": [-96.13224, 31.01442]}, "properties": {"kind": "oil", "district": "05", "lease_no": "04014", "lease_name": "REA UNIT", "field_name": "AGUILA VADO (EAGLEFORD)", "operator_no": "008705", "operator_name": "VESS OIL CORPORATION", "period": "202607", "flared_mcf": 1980, "produced_mcf": 1980, "flared_mmcfd": 0.064, "wells": 1, "county": "Madison"}}, {"type": "Feature", "geometry": {"type": "Point", "coordinates": [-96.08646, 30.9637]}, "properties": {"kind": "oil", "district": "05", "lease_no": "04489", "lease_name": "WHITING", "field_name": "AGUILA VADO (EAGLEFORD)", "operator_no": "008705", "operator_name": "WILDFIRE ENERGY OPERATING LLC", "period": "202606", "flared_mcf": 1900, "produced_mcf": 32550, "flared_mmcfd": 0.063, "wells": 1, "county": "Madison"}}, {"type": "Feature", "geometry": {"type": "Point", "coordinates": [-96.19041, 30.99961]}, "properties": {"kind": "oil", "district": "05", "lease_no": "04037", "lease_name": "SULLY UNIT", "field_name": "AGUILA VADO (EAGLEFORD)", "operator_no": "008705", "operator_name": "VESS OIL CORPORATION", "period": "202607", "flared_mcf": 1910, "produced_mcf": 1910, "flared_mmcfd": 0.062, "wells": 1, "county": "Leon"}}, {"type": "Feature", "geometry": {"type": "Point", "coordinates": [-96.53325, 30.72602]}, "properties": {"kind": "oil", "district": "03", "lease_no": "28071", "lease_name": "PRONGHORN A HCX2", "field_name": "GIDDINGS (EAGLEFORD)", "operator_no": "347336", "operator_name": "WILDFIRE ENERGY OPERATING LLC", "period": "202606", "flared_mcf": 1840, "produced_mcf": 8990, "flared_mmcfd": 0.061, "wells": 1, "county": "Robertson"}}, {"type": "Feature", "geometry": {"type": "Point", "coordinates": [-95.33014, 32.60763]}, "properties": {"kind": "oil", "district": "06", "lease_no": "15141", "lease_name": "RICHARD MATTHEWS ET AL", "field_name": "CROW (PALUXY, LOWER)", "operator_no": "219714", "operator_name": "MAXIMUS OPERATING, LTD.", "period": "202607", "flared_mcf": 1640, "produced_mcf": 1640, "flared_mmcfd": 0.053, "wells": 1, "county": "Wood"}}, {"type": "Feature", "geometry": {"type": "Point", "coordinates": [-95.18643, 33.03216]}, "properties": {"kind": "oil", "district": "06", "lease_no": "13833", "lease_name": "NEW HOPE DEEP UNIT", "field_name": "NEW HOPE (TRAVIS PEAK)", "operator_no": "651578", "operator_name": "", "period": "202606", "flared_mcf": 1560, "produced_mcf": 14320, "flared_mmcfd": 0.052, "wells": 5, "county": "Franklin"}}, {"type": "Feature", "geometry": {"type": "Point", "coordinates": [-96.09504, 30.96334]}, "properties": {"kind": "oil", "district": "05", "lease_no": "04473", "lease_name": "PATRIOT", "field_name": "AGUILA VADO (EAGLEFORD)", "operator_no": "008705", "operator_name": "WILDFIRE ENERGY OPERATING LLC", "period": "202606", "flared_mcf": 1430, "produced_mcf": 24490, "flared_mmcfd": 0.048, "wells": 1, "county": "Madison"}}, {"type": "Feature", "geometry": {"type": "Point", "coordinates": [-95.82174, 30.921]}, "properties": {"kind": "oil", "district": "03", "lease_no": "26452", "lease_name": "LAURA UNIT", "field_name": "FORT TRINIDAD, EAST (BUDA)", "operator_no": "321570", "operator_name": "EOG RESOURCES, INC.", "period": "202607", "flared_mcf": 1380, "produced_mcf": 21230, "flared_mmcfd": 0.045, "wells": 2, "county": "Madison"}}, {"type": "Feature", "geometry": {"type": "Point", "coordinates": [-95.50613, 32.94735]}, "properties": {"kind": "oil", "district": "05", "lease_no": "04434", "lease_name": "CATFISH", "field_name": "COMO (RODESSA HILL, LO.)", "operator_no": "199474", "operator_name": "VALENCE OPERATING COMPANY", "period": "202607", "flared_mcf": 1330, "produced_mcf": 135910, "flared_mmcfd": 0.043, "wells": 2, "county": "Wood"}}, {"type": "Feature", "geometry": {"type": "Point", "coordinates": [-96.09505, 30.96326]}, "properties": {"kind": "oil", "district": "05", "lease_no": "04470", "lease_name": "MERICA", "field_name": "AGUILA VADO (EAGLEFORD)", "operator_no": "008705", "operator_name": "WILDFIRE ENERGY OPERATING LLC", "period": "202606", "flared_mcf": 1260, "produced_mcf": 21620, "flared_mmcfd": 0.042, "wells": 1, "county": "Madison"}}, {"type": "Feature", "geometry": {"type": "Point", "coordinates": [-95.89112, 31.15865]}, "properties": {"kind": "oil", "district": "03", "lease_no": "27174", "lease_name": "CARR-WARD", "field_name": "HALLIDAY (WOODBINE)", "operator_no": "382746", "operator_name": "TRAILBLAZER ENERGY RESOURCES,LLC", "period": "202607", "flared_mcf": 1160, "produced_mcf": 25960, "flared_mmcfd": 0.037, "wells": 1, "county": "Leon"}}, {"type": "Feature", "geometry": {"type": "Point", "coordinates": [-95.51251, 32.94644]}, "properties": {"kind": "oil", "district": "05", "lease_no": "04435", "lease_name": "BASS", "field_name": "COMO (RODESSA HILL, LO.)", "operator_no": "199474", "operator_name": "VALENCE OPERATING COMPANY", "period": "202607", "flared_mcf": 900, "produced_mcf": 44420, "flared_mmcfd": 0.029, "wells": 1, "county": "Wood"}}, {"type": "Feature", "geometry": {"type": "Point", "coordinates": [-95.49548, 32.94567]}, "properties": {"kind": "oil", "district": "05", "lease_no": "04365", "lease_name": "WHEELER UNIT", "field_name": "COMO (RODESSA HILL, LO.)", "operator_no": "199474", "operator_name": "VALENCE OPERATING COMPANY", "period": "202607", "flared_mcf": 860, "produced_mcf": 88250, "flared_mmcfd": 0.028, "wells": 3, "county": "Wood"}}, {"type": "Feature", "geometry": {"type": "Point", "coordinates": [-95.79911, 30.93788]}, "properties": {"kind": "oil", "district": "03", "lease_no": "26441", "lease_name": "GRISHAM", "field_name": "FORT TRINIDAD, EAST (BUDA)", "operator_no": "321570", "operator_name": "EOG RESOURCES, INC.", "period": "202607", "flared_mcf": 840, "produced_mcf": 16820, "flared_mmcfd": 0.027, "wells": 3, "county": "Madison"}}, {"type": "Feature", "geometry": {"type": "Point", "coordinates": [-95.1917, 33.03542]}, "properties": {"kind": "oil", "district": "06", "lease_no": "14497", "lease_name": "NEW HOPE DEEP UNIT", "field_name": "NEW HOPE (COTTON VALLEY)", "operator_no": "651572", "operator_name": "", "period": "202606", "flared_mcf": 780, "produced_mcf": 7160, "flared_mmcfd": 0.026, "wells": 1, "county": "Franklin"}}, {"type": "Feature", "geometry": {"type": "Point", "coordinates": [-95.7245, 30.91941]}, "properties": {"kind": "oil", "district": "03", "lease_no": "26845", "lease_name": "DIANA VICK UNIT", "field_name": "FT. TRINIDAD, E. (EDWARDS)", "operator_no": "321574", "operator_name": "EOG RESOURCES, INC.", "period": "202607", "flared_mcf": 770, "produced_mcf": 4120, "flared_mmcfd": 0.025, "wells": 1, "county": "Madison"}}, {"type": "Feature", "geometry": {"type": "Point", "coordinates": [-96.08008, 30.95392]}, "properties": {"kind": "oil", "district": "03", "lease_no": "26305", "lease_name": "LLOYD TRUST", "field_name": "KURTEN (BUDA)", "operator_no": "504245", "operator_name": "WILDFIRE ENERGY OPERATING LLC", "period": "202606", "flared_mcf": 640, "produced_mcf": 640, "flared_mmcfd": 0.021, "wells": 1, "county": "Madison"}}, {"type": "Feature", "geometry": {"type": "Point", "coordinates": [-95.33013, 32.60759]}, "properties": {"kind": "oil", "district": "06", "lease_no": "15111", "lease_name": "RICHARD MATTHEWS ET AL UNIT", "field_name": "CROW (PALUXY, LOWER)", "operator_no": "219714", "operator_name": "MAXIMUS OPERATING, LTD.", "period": "202607", "flared_mcf": 640, "produced_mcf": 640, "flared_mmcfd": 0.021, "wells": 1, "county": "Wood"}}, {"type": "Feature", "geometry": {"type": "Point", "coordinates": [-95.81806, 30.93739]}, "properties": {"kind": "oil", "district": "03", "lease_no": "26155", "lease_name": "MANNING GAS UNIT", "field_name": "FORT TRINIDAD, EAST (BUDA)", "operator_no": "321570", "operator_name": "EOG RESOURCES, INC.", "period": "202607", "flared_mcf": 520, "produced_mcf": 6850, "flared_mmcfd": 0.017, "wells": 1, "county": "Madison"}}, {"type": "Feature", "geometry": {"type": "Point", "coordinates": [-95.49221, 32.94958]}, "properties": {"kind": "oil", "district": "05", "lease_no": "04407", "lease_name": "HUDIE MORGAN-ALEXANDER", "field_name": "COMO (RODESSA HILL, LO.)", "operator_no": "199474", "operator_name": "VALENCE OPERATING COMPANY", "period": "202607", "flared_mcf": 460, "produced_mcf": 47900, "flared_mmcfd": 0.015, "wells": 1, "county": "Wood"}}, {"type": "Feature", "geometry": {"type": "Point", "coordinates": [-95.48612, 32.99]}, "properties": {"kind": "gas", "district": "05", "lease_no": "274976", "lease_name": "HODNETT", "field_name": "COMO (GLOYD)", "operator_no": "881167", "operator_name": "VALENCE OPERATING COMPANY", "period": "202607", "flared_mcf": 450, "produced_mcf": 519, "flared_mmcfd": 0.015, "wells": 1, "county": "Hopkins"}}, {"type": "Feature", "geometry": {"type": "Point", "coordinates": [-95.98096, 31.20993]}, "properties": {"kind": "oil", "district": "03", "lease_no": "25901", "lease_name": "JOHN GRESHAM UNIT", "field_name": "HALLIDAY (WOODBINE)", "operator_no": "382746", "operator_name": "COMSTOCK OIL & GAS, LLC", "period": "202607", "flared_mcf": 400, "produced_mcf": 400, "flared_mmcfd": 0.013, "wells": 2, "county": "Leon"}}, {"type": "Feature", "geometry": {"type": "Point", "coordinates": [-95.72699, 30.91791]}, "properties": {"kind": "oil", "district": "03", "lease_no": "26495", "lease_name": "VICK 'B' UNIT", "field_name": "FORT TRINIDAD, EAST (BUDA)", "operator_no": "321570", "operator_name": "EOG RESOURCES, INC.", "period": "202607", "flared_mcf": 390, "produced_mcf": 48140, "flared_mmcfd": 0.013, "wells": 1, "county": "Madison"}}, {"type": "Feature", "geometry": {"type": "Point", "coordinates": [-96.40554, 30.8759]}, "properties": {"kind": "oil", "district": "05", "lease_no": "04035", "lease_name": "KILLOUGH", "field_name": "AGUILA VADO (EAGLEFORD)", "operator_no": "008705", "operator_name": "WILDFIRE ENERGY OPERATING LLC", "period": "202606", "flared_mcf": 330, "produced_mcf": 330, "flared_mmcfd": 0.011, "wells": 1, "county": "Robertson"}}, {"type": "Feature", "geometry": {"type": "Point", "coordinates": [-95.31269, 32.60618]}, "properties": {"kind": "oil", "district": "06", "lease_no": "15860", "lease_name": "RAY", "field_name": "CROW (PALUXY, LOWER)", "operator_no": "219714", "operator_name": "STRAND ENERGY, L.C.", "period": "202607", "flared_mcf": 310, "produced_mcf": 1740, "flared_mmcfd": 0.01, "wells": 1, "county": "Wood"}}, {"type": "Feature", "geometry": {"type": "Point", "coordinates": [-96.03394, 31.18702]}, "properties": {"kind": "oil", "district": "03", "lease_no": "25729", "lease_name": "GRESHAM TRUST", "field_name": "HALLIDAY (WOODBINE)", "operator_no": "382746", "operator_name": "COMSTOCK OIL & GAS, LLC", "period": "202607", "flared_mcf": 300, "produced_mcf": 300, "flared_mmcfd": 0.01, "wells": 1, "county": "Leon"}}, {"type": "Feature", "geometry": {"type": "Point", "coordinates": [-95.16615, 32.36783]}, "properties": {"kind": "oil", "district": "06", "lease_no": "16109", "lease_name": "EAST LANE CHAPEL PALUXY A UNIT", "field_name": "LANE CHAPEL (PALUXY A SAND)", "operator_no": "518506", "operator_name": "3-T EXPLORATION, INC.", "period": "202607", "flared_mcf": 300, "produced_mcf": 300, "flared_mmcfd": 0.01, "wells": 8, "county": "Smith"}}, {"type": "Feature", "geometry": {"type": "Point", "coordinates": [-95.70425, 30.92285]}, "properties": {"kind": "oil", "district": "03", "lease_no": "27105", "lease_name": "THREE AMIGOS (ALLOC)", "field_name": "FORT TRINIDAD, EAST (BUDA)", "operator_no": "321570", "operator_name": "EOG RESOURCES, INC.", "period": "202607", "flared_mcf": 260, "produced_mcf": 33890, "flared_mmcfd": 0.008, "wells": 1, "county": "Madison"}}, {"type": "Feature", "geometry": {"type": "Point", "coordinates": [-95.84185, 30.89927]}, "properties": {"kind": "oil", "district": "03", "lease_no": "26566", "lease_name": "EVANS", "field_name": "FORT TRINIDAD, EAST (BUDA)", "operator_no": "321570", "operator_name": "EOG RESOURCES, INC.", "period": "202607", "flared_mcf": 260, "produced_mcf": 29290, "flared_mmcfd": 0.008, "wells": 1, "county": "Madison"}}, {"type": "Feature", "geometry": {"type": "Point", "coordinates": [-95.26408, 32.47058]}, "properties": {"kind": "oil", "district": "06", "lease_no": "04884", "lease_name": "SAND FLAT UNIT", "field_name": "SAND FLAT", "operator_no": "804590", "operator_name": "VESS OIL CORPORATION", "period": "202607", "flared_mcf": 260, "produced_mcf": 2600, "flared_mmcfd": 0.008, "wells": 61, "county": "Smith"}}, {"type": "Feature", "geometry": {"type": "Point", "coordinates": [-95.72376, 30.93398]}, "properties": {"kind": "oil", "district": "03", "lease_no": "26952", "lease_name": "TURNER", "field_name": "FORT TRINIDAD, EAST (BUDA)", "operator_no": "321570", "operator_name": "EOG RESOURCES, INC.", "period": "202607", "flared_mcf": 250, "produced_mcf": 18490, "flared_mmcfd": 0.008, "wells": 1, "county": "Madison"}}, {"type": "Feature", "geometry": {"type": "Point", "coordinates": [-95.20492, 32.35974]}, "properties": {"kind": "oil", "district": "06", "lease_no": "15873", "lease_name": "WEST LANE CHAPEL PALUXY A UNIT", "field_name": "LANE CHAPEL (PALUXY A SAND)", "operator_no": "518506", "operator_name": "3-T EXPLORATION, INC.", "period": "202607", "flared_mcf": 250, "produced_mcf": 250, "flared_mmcfd": 0.008, "wells": 9, "county": "Smith"}}, {"type": "Feature", "geometry": {"type": "Point", "coordinates": [-95.41208, 32.17004]}, "properties": {"kind": "oil", "district": "06", "lease_no": "15266", "lease_name": "COWAN UNIT", "field_name": "GIRLIE CALDWELL (GOODLAND LM)", "operator_no": "350605", "operator_name": "VALENCE OPERATING COMPANY", "period": "202607", "flared_mcf": 250, "produced_mcf": 250, "flared_mmcfd": 0.008, "wells": 1, "county": "Smith"}}, {"type": "Feature", "geometry": {"type": "Point", "coordinates": [-95.71448, 30.92616]}, "properties": {"kind": "oil", "district": "03", "lease_no": "27224", "lease_name": "EDMUNDS", "field_name": "FORT TRINIDAD, EAST (BUDA)", "operator_no": "321570", "operator_name": "EOG RESOURCES, INC.", "period": "202607", "flared_mcf": 240, "produced_mcf": 64250, "flared_mmcfd": 0.008, "wells": 1, "county": "Madison"}}, {"type": "Feature", "geometry": {"type": "Point", "coordinates": [-95.4776, 32.95263]}, "properties": {"kind": "oil", "district": "05", "lease_no": "04176", "lease_name": "SCOTTISH RITE UNIT", "field_name": "COMO (RODESSA HILL, LO.)", "operator_no": "199474", "operator_name": "VALENCE OPERATING COMPANY", "period": "202607", "flared_mcf": 210, "produced_mcf": 6640, "flared_mmcfd": 0.007, "wells": 2, "county": "Wood"}}, {"type": "Feature", "geometry": {"type": "Point", "coordinates": [-95.48493, 32.94686]}, "properties": {"kind": "oil", "district": "05", "lease_no": "04263", "lease_name": "HUDIE MORGAN UNIT", "field_name": "COMO (RODESSA HILL, LO.)", "operator_no": "199474", "operator_name": "VALENCE OPERATING COMPANY", "period": "202607", "flared_mcf": 190, "produced_mcf": 326340, "flared_mmcfd": 0.006, "wells": 2, "county": "Wood"}}, {"type": "Feature", "geometry": {"type": "Point", "coordinates": [-95.73455, 30.92247]}, "properties": {"kind": "oil", "district": "03", "lease_no": "27213", "lease_name": "BARRETT", "field_name": "FORT TRINIDAD, EAST (BUDA)", "operator_no": "321570", "operator_name": "EOG RESOURCES, INC.", "period": "202607", "flared_mcf": 180, "produced_mcf": 54720, "flared_mmcfd": 0.006, "wells": 1, "county": "Madison"}}, {"type": "Feature", "geometry": {"type": "Point", "coordinates": [-96.1265, 30.99934]}, "properties": {"kind": "oil", "district": "05", "lease_no": "04006", "lease_name": "BLAZEK-PETERS", "field_name": "AGUILA VADO (EAGLEFORD)", "operator_no": "008705", "operator_name": "VESS OIL CORPORATION", "period": "202607", "flared_mcf": 130, "produced_mcf": 130, "flared_mmcfd": 0.004, "wells": 2, "county": "Madison"}}, {"type": "Feature", "geometry": {"type": "Point", "coordinates": [-95.89624, 31.23822]}, "properties": {"kind": "oil", "district": "03", "lease_no": "26522", "lease_name": "MAMIE WAKEFIELD 3A", "field_name": "HALLIDAY (WOODBINE)", "operator_no": "382746", "operator_name": "TRAILBLAZER ENERGY RESOURCES,LLC", "period": "202607", "flared_mcf": 110, "produced_mcf": 180, "flared_mmcfd": 0.004, "wells": 2, "county": "Leon"}}, {"type": "Feature", "geometry": {"type": "Point", "coordinates": [-95.90859, 31.19517]}, "properties": {"kind": "oil", "district": "03", "lease_no": "19879", "lease_name": "PIERCE", "field_name": "HALLIDAY (WOODBINE)", "operator_no": "382746", "operator_name": "GOLDSMITH OPERATING, LLC", "period": "202606", "flared_mcf": 80, "produced_mcf": 80, "flared_mmcfd": 0.003, "wells": 1, "county": "Leon"}}, {"type": "Feature", "geometry": {"type": "Point", "coordinates": [-95.19735, 33.03424]}, "properties": {"kind": "gas", "district": "06", "lease_no": "216165", "lease_name": "NEW HOPE DEEP UNIT", "field_name": "NEW HOPE (COTTON VALLEY)", "operator_no": "427858", "operator_name": "J.P. OIL COMPANY, INC.", "period": "202606", "flared_mcf": 78, "produced_mcf": 728, "flared_mmcfd": 0.003, "wells": 1, "county": "Franklin"}}, {"type": "Feature", "geometry": {"type": "Point", "coordinates": [-95.20174, 33.03268]}, "properties": {"kind": "gas", "district": "06", "lease_no": "246848", "lease_name": "NEW HOPE DEEP UNIT", "field_name": "NEW HOPE (COTTON VALLEY)", "operator_no": "427858", "operator_name": "J.P. OIL COMPANY, INC.", "period": "202606", "flared_mcf": 77, "produced_mcf": 780, "flared_mmcfd": 0.003, "wells": 1, "county": "Franklin"}}, {"type": "Feature", "geometry": {"type": "Point", "coordinates": [-95.19776, 33.03089]}, "properties": {"kind": "gas", "district": "06", "lease_no": "247232", "lease_name": "NEW HOPE DEEP UNIT", "field_name": "NEW HOPE (COTTON VALLEY)", "operator_no": "427858", "operator_name": "", "period": "202606", "flared_mcf": 77, "produced_mcf": 792, "flared_mmcfd": 0.003, "wells": 1, "county": "Franklin"}}, {"type": "Feature", "geometry": {"type": "Point", "coordinates": [-95.70645, 30.91177]}, "properties": {"kind": "oil", "district": "03", "lease_no": "27215", "lease_name": "DOUBLE GIBBS", "field_name": "FORT TRINIDAD, EAST (BUDA)", "operator_no": "321570", "operator_name": "EOG RESOURCES, INC.", "period": "202607", "flared_mcf": 60, "produced_mcf": 14180, "flared_mmcfd": 0.002, "wells": 1, "county": "Madison"}}, {"type": "Feature", "geometry": {"type": "Point", "coordinates": [-96.14814, 30.83954]}, "properties": {"kind": "oil", "district": "03", "lease_no": "15528", "lease_name": "GOLDSMITH-BENGE, A.Y.", "field_name": "MADISONVILLE, W. (WOODBINE -A-)", "operator_no": "565995", "operator_name": "GOLDSMITH OPERATING, LLC", "period": "202606", "flared_mcf": 50, "produced_mcf": 50, "flared_mmcfd": 0.002, "wells": 3, "county": "Madison"}}, {"type": "Feature", "geometry": {"type": "Point", "coordinates": [-95.18324, 33.03286]}, "properties": {"kind": "oil", "district": "06", "lease_no": "05897", "lease_name": "NEW HOPE UNIT", "field_name": "NEW HOPE (ELLEDGE)", "operator_no": "651573", "operator_name": "J.P. OIL COMPANY, INC.", "period": "202606", "flared_mcf": 30, "produced_mcf": 49330, "flared_mmcfd": 0.001, "wells": 13, "county": "Franklin"}}, {"type": "Feature", "geometry": {"type": "Point", "coordinates": [-96.15644, 31.002]}, "properties": {"kind": "oil", "district": "05", "lease_no": "04063", "lease_name": "BAYOU BENGALS UNIT", "field_name": "AGUILA VADO (EAGLEFORD)", "operator_no": "008705", "operator_name": "VESS OIL CORPORATION", "period": "202607", "flared_mcf": 30, "produced_mcf": 30, "flared_mmcfd": 0.001, "wells": 1, "county": "Madison"}}, {"type": "Feature", "geometry": {"type": "Point", "coordinates": [-95.18967, 33.03353]}, "properties": {"kind": "oil", "district": "06", "lease_no": "01120", "lease_name": "NEW HOPE UNIT", "field_name": "NEW HOPE", "operator_no": "651570", "operator_name": "J.P. OIL COMPANY, INC.", "period": "202606", "flared_mcf": 20, "produced_mcf": 6400, "flared_mmcfd": 0.001, "wells": 45, "county": "Franklin"}}, {"type": "Feature", "geometry": {"type": "Point", "coordinates": [-96.13111, 30.83426]}, "properties": {"kind": "oil", "district": "03", "lease_no": "14261", "lease_name": "BOSWELL, J.A.", "field_name": "MADISONVILLE, W. (WOODBINE -A-)", "operator_no": "565995", "operator_name": "GOLDSMITH OPERATING, LLC", "period": "202606", "flared_mcf": 20, "produced_mcf": 20, "flared_mmcfd": 0.001, "wells": 1, "county": "Madison"}}, {"type": "Feature", "geometry": {"type": "Point", "coordinates": [-95.99294, 31.98406]}, "properties": {"kind": "oil", "district": "06", "lease_no": "00173", "lease_name": "WARE, G. W.", "field_name": "CAYUGA", "operator_no": "164810", "operator_name": "MCGOWAN WORKING PARTNERS, INC.", "period": "202607", "flared_mcf": 20, "produced_mcf": 7520, "flared_mmcfd": 0.001, "wells": 8, "county": "Anderson"}}, {"type": "Feature", "geometry": {"type": "Point", "coordinates": [-95.99485, 31.97097]}, "properties": {"kind": "oil", "district": "06", "lease_no": "14231", "lease_name": "WILLS, N. N. \"A\" SOUTH", "field_name": "CAYUGA (WOODBINE)", "operator_no": "164817", "operator_name": "MCGOWAN WORKING PARTNERS, INC.", "period": "202607", "flared_mcf": 20, "produced_mcf": 8080, "flared_mmcfd": 0.001, "wells": 1, "county": "Anderson"}}, {"type": "Feature", "geometry": {"type": "Point", "coordinates": [-95.82752, 30.91796]}, "properties": {"kind": "oil", "district": "03", "lease_no": "26777", "lease_name": "LAURA-MANNING (ALLOC) UNIT", "field_name": "FORT TRINIDAD, EAST (BUDA)", "operator_no": "321570", "operator_name": "EOG RESOURCES, INC.", "period": "202607", "flared_mcf": 20, "produced_mcf": 320, "flared_mmcfd": 0.001, "wells": 1, "county": "Madison"}}, {"type": "Feature", "geometry": {"type": "Point", "coordinates": [-95.78935, 30.9053]}, "properties": {"kind": "gas", "district": "03", "lease_no": "189848", "lease_name": "WORSHAM UNIT", "field_name": "MOSSY GROVE (GLEN ROSE)", "operator_no": "253162", "operator_name": "EOG RESOURCES, INC.", "period": "202607", "flared_mcf": 20, "produced_mcf": 2578, "flared_mmcfd": 0.001, "wells": 1, "county": "Madison"}}, {"type": "Feature", "geometry": {"type": "Point", "coordinates": [-95.99207, 31.94147]}, "properties": {"kind": "oil", "district": "06", "lease_no": "00160", "lease_name": "CAMPBELL, J. A.", "field_name": "CAYUGA", "operator_no": "164810", "operator_name": "MCGOWAN WORKING PARTNERS, INC.", "period": "202607", "flared_mcf": 10, "produced_mcf": 6300, "flared_mmcfd": 0.0, "wells": 12, "county": "Anderson"}}, {"type": "Feature", "geometry": {"type": "Point", "coordinates": [-95.98503, 31.94799]}, "properties": {"kind": "oil", "district": "06", "lease_no": "00161", "lease_name": "CLAY, OLLIE", "field_name": "CAYUGA", "operator_no": "164810", "operator_name": "MCGOWAN WORKING PARTNERS, INC.", "period": "202607", "flared_mcf": 10, "produced_mcf": 5210, "flared_mmcfd": 0.0, "wells": 3, "county": "Anderson"}}, {"type": "Feature", "geometry": {"type": "Point", "coordinates": [-95.9903, 31.95007]}, "properties": {"kind": "oil", "district": "06", "lease_no": "00170", "lease_name": "RAMPY, H. R.", "field_name": "CAYUGA", "operator_no": "164810", "operator_name": "CHEVRON U. S. A. INC.", "period": "202607", "flared_mcf": 10, "produced_mcf": 4420, "flared_mmcfd": 0.0, "wells": 1, "county": "Anderson"}}, {"type": "Feature", "geometry": {"type": "Point", "coordinates": [-95.98915, 31.98283]}, "properties": {"kind": "oil", "district": "06", "lease_no": "14266", "lease_name": "WARE, G. W.", "field_name": "CAYUGA (WOODBINE)", "operator_no": "164817", "operator_name": "MCGOWAN WORKING PARTNERS, INC.", "period": "202607", "flared_mcf": 10, "produced_mcf": 4620, "flared_mmcfd": 0.0, "wells": 2, "county": "Anderson"}}, {"type": "Feature", "geometry": {"type": "Point", "coordinates": [-95.99998, 31.95264]}, "properties": {"kind": "oil", "district": "06", "lease_no": "14256", "lease_name": "RAMPY, L. A.", "field_name": "CAYUGA (WOODBINE)", "operator_no": "164817", "operator_name": "MCGOWAN WORKING PARTNERS, INC.", "period": "202607", "flared_mcf": 10, "produced_mcf": 3770, "flared_mmcfd": 0.0, "wells": 1, "county": "Anderson"}}, {"type": "Feature", "geometry": {"type": "Point", "coordinates": [-95.99903, 31.96244]}, "properties": {"kind": "oil", "district": "06", "lease_no": "14208", "lease_name": "WORTHAM, V. C.", "field_name": "CAYUGA (WOODBINE)", "operator_no": "164817", "operator_name": "MCGOWAN WORKING PARTNERS, INC.", "period": "202607", "flared_mcf": 10, "produced_mcf": 5820, "flared_mmcfd": 0.0, "wells": 1, "county": "Anderson"}}, {"type": "Feature", "geometry": {"type": "Point", "coordinates": [-95.99583, 31.92178]}, "properties": {"kind": "oil", "district": "06", "lease_no": "00164", "lease_name": "GOODE, W.H.C.", "field_name": "CAYUGA", "operator_no": "164810", "operator_name": "MCGOWAN WORKING PARTNERS, INC.", "period": "202607", "flared_mcf": 10, "produced_mcf": 6300, "flared_mmcfd": 0.0, "wells": 2, "county": "Anderson"}}, {"type": "Feature", "geometry": {"type": "Point", "coordinates": [-95.56819, 32.30601]}, "properties": {"kind": "oil", "district": "06", "lease_no": "15525", "lease_name": "NED", "field_name": "GIRLIE CALDWELL (GOODLAND LM)", "operator_no": "350605", "operator_name": "VALENCE OPERATING COMPANY", "period": "202607", "flared_mcf": 10, "produced_mcf": 10, "flared_mmcfd": 0.0, "wells": 1, "county": "Henderson"}}, {"type": "Feature", "geometry": {"type": "Point", "coordinates": [-96.43837, 32.08373]}, "properties": {"kind": "oil", "district": "05", "lease_no": "02465", "lease_name": "CORSICANA INDUSTRIAL \"A\"", "field_name": "CORSICANA (SHALLOW)", "operator_no": "208235", "operator_name": "MEANS OIL COMPANY, LLC", "period": "202607", "flared_mcf": 10, "produced_mcf": 10, "flared_mmcfd": 0.0, "wells": 7, "county": "Navarro"}}, {"type": "Feature", "geometry": {"type": "Point", "coordinates": [-96.43862, 31.99788]}, "properties": {"kind": "oil", "district": "05", "lease_no": "00194", "lease_name": "JACKSON, J. L.", "field_name": "CORSICANA (SHALLOW)", "operator_no": "208235", "operator_name": "MEANS OIL COMPANY, LLC", "period": "202607", "flared_mcf": 10, "produced_mcf": 10, "flared_mmcfd": 0.0, "wells": 25, "county": "Navarro"}}, {"type": "Feature", "geometry": {"type": "Point", "coordinates": [-96.00458, 31.92527]}, "properties": {"kind": "gas", "district": "06", "lease_no": "015910", "lease_name": "SULLENBERGER, M. H. UNIT", "field_name": "CAYUGA (TRINITY)", "operator_no": "549836", "operator_name": "", "period": "202607", "flared_mcf": 7, "produced_mcf": 3202, "flared_mmcfd": 0.0, "wells": 1, "county": "Anderson"}}, {"type": "Feature", "geometry": {"type": "Point", "coordinates": [-95.99507, 31.97404]}, "properties": {"kind": "gas", "district": "06", "lease_no": "191585", "lease_name": "WILLS, N. N. \"A\"", "field_name": "CAYUGA (TRINITY)", "operator_no": "549836", "operator_name": "MCGOWAN WORKING PARTNERS, INC.", "period": "202607", "flared_mcf": 6, "produced_mcf": 3111, "flared_mmcfd": 0.0, "wells": 1, "county": "Anderson"}}, {"type": "Feature", "geometry": {"type": "Point", "coordinates": [-95.99319, 31.94146]}, "properties": {"kind": "gas", "district": "06", "lease_no": "170598", "lease_name": "EDENS G.U. 2", "field_name": "CAYUGA (PETTIT)", "operator_no": "549836", "operator_name": "", "period": "202607", "flared_mcf": 5, "produced_mcf": 2417, "flared_mmcfd": 0.0, "wells": 1, "county": "Anderson"}}, {"type": "Feature", "geometry": {"type": "Point", "coordinates": [-95.99865, 31.94798]}, "properties": {"kind": "gas", "district": "06", "lease_no": "190216", "lease_name": "RAMPY, H. R.", "field_name": "CAYUGA (TRINITY)", "operator_no": "549836", "operator_name": "", "period": "202607", "flared_mcf": 5, "produced_mcf": 2321, "flared_mmcfd": 0.0, "wells": 1, "county": "Anderson"}}, {"type": "Feature", "geometry": {"type": "Point", "coordinates": [-96.00699, 31.94755]}, "properties": {"kind": "gas", "district": "06", "lease_no": "191529", "lease_name": "EDENS, J.N.", "field_name": "CAYUGA (TRINITY)", "operator_no": "549836", "operator_name": "", "period": "202607", "flared_mcf": 5, "produced_mcf": 2518, "flared_mmcfd": 0.0, "wells": 1, "county": "Anderson"}}, {"type": "Feature", "geometry": {"type": "Point", "coordinates": [-95.98277, 31.96671]}, "properties": {"kind": "gas", "district": "06", "lease_no": "174513", "lease_name": "WORTHAM, V.C. ET AL GAS UNIT", "field_name": "CAYUGA (PETTIT)", "operator_no": "549836", "operator_name": "", "period": "202607", "flared_mcf": 4, "produced_mcf": 1872, "flared_mmcfd": 0.0, "wells": 1, "county": "Anderson"}}, {"type": "Feature", "geometry": {"type": "Point", "coordinates": [-95.99441, 31.96938]}, "properties": {"kind": "gas", "district": "06", "lease_no": "037096", "lease_name": "WORTHAM, V.C. ET AL GAS UNIT", "field_name": "CAYUGA (PETTIT)", "operator_no": "549836", "operator_name": "", "period": "202607", "flared_mcf": 3, "produced_mcf": 1232, "flared_mmcfd": 0.0, "wells": 1, "county": "Anderson"}}, {"type": "Feature", "geometry": {"type": "Point", "coordinates": [-96.00051, 31.94207]}, "properties": {"kind": "gas", "district": "06", "lease_no": "189942", "lease_name": "EDENS GAS UNIT NO. 2", "field_name": "CAYUGA (TRINITY)", "operator_no": "549836", "operator_name": "MCGOWAN WORKING PARTNERS, INC.", "period": "202607", "flared_mcf": 3, "produced_mcf": 1660, "flared_mmcfd": 0.0, "wells": 1, "county": "Anderson"}}, {"type": "Feature", "geometry": {"type": "Point", "coordinates": [-96.00553, 31.96522]}, "properties": {"kind": "gas", "district": "06", "lease_no": "148129", "lease_name": "BOWYER-WILLS UNIT", "field_name": "CAYUGA (PETTIT)", "operator_no": "549836", "operator_name": "MCGOWAN WORKING PARTNERS, INC.", "period": "202607", "flared_mcf": 2, "produced_mcf": 1178, "flared_mmcfd": 0.0, "wells": 1, "county": "Anderson"}}, {"type": "Feature", "geometry": {"type": "Point", "coordinates": [-95.99274, 31.95627]}, "properties": {"kind": "gas", "district": "06", "lease_no": "181376", "lease_name": "RAMPY, H.R. UNIT", "field_name": "CAYUGA (CV-TP CONS.)", "operator_no": "549836", "operator_name": "MCGOWAN WORKING PARTNERS, INC.", "period": "202607", "flared_mcf": 2, "produced_mcf": 970, "flared_mmcfd": 0.0, "wells": 1, "county": "Anderson"}}, {"type": "Feature", "geometry": {"type": "Point", "coordinates": [-95.99024, 31.97405]}, "properties": {"kind": "gas", "district": "06", "lease_no": "180371", "lease_name": "WILLS, N. N. \"A\"", "field_name": "CAYUGA (CV-TP CONS.)", "operator_no": "549836", "operator_name": "MCGOWAN WORKING PARTNERS, INC.", "period": "202607", "flared_mcf": 2, "produced_mcf": 1120, "flared_mmcfd": 0.0, "wells": 1, "county": "Anderson"}}, {"type": "Feature", "geometry": {"type": "Point", "coordinates": [-95.99865, 31.96751]}, "properties": {"kind": "gas", "district": "06", "lease_no": "192302", "lease_name": "WILLS, N.N.", "field_name": "CAYUGA (TRINITY)", "operator_no": "549836", "operator_name": "", "period": "202607", "flared_mcf": 2, "produced_mcf": 1168, "flared_mmcfd": 0.0, "wells": 1, "county": "Anderson"}}, {"type": "Feature", "geometry": {"type": "Point", "coordinates": [-95.99551, 31.95967]}, "properties": {"kind": "gas", "district": "06", "lease_no": "198928", "lease_name": "WILLS, N.N.", "field_name": "CAYUGA (TRINITY)", "operator_no": "549836", "operator_name": "MCGOWAN WORKING PARTNERS, INC.", "period": "202607", "flared_mcf": 2, "produced_mcf": 828, "flared_mmcfd": 0.0, "wells": 1, "county": "Anderson"}}, {"type": "Feature", "geometry": {"type": "Point", "coordinates": [-96.00365, 31.95503]}, "properties": {"kind": "gas", "district": "06", "lease_no": "144366", "lease_name": "EDENS, J. N.", "field_name": "CAYUGA (CV-TP CONS.)", "operator_no": "549836", "operator_name": "", "period": "202607", "flared_mcf": 1, "produced_mcf": 322, "flared_mmcfd": 0.0, "wells": 1, "county": "Anderson"}}, {"type": "Feature", "geometry": {"type": "Point", "coordinates": [-95.99057, 31.96533]}, "properties": {"kind": "gas", "district": "06", "lease_no": "176222", "lease_name": "WORTHAM, V.C. ET AL GAS UNIT", "field_name": "CAYUGA (PETTIT)", "operator_no": "549836", "operator_name": "", "period": "202607", "flared_mcf": 1, "produced_mcf": 532, "flared_mmcfd": 0.0, "wells": 1, "county": "Anderson"}}, {"type": "Feature", "geometry": {"type": "Point", "coordinates": [-95.99068, 31.94816]}, "properties": {"kind": "gas", "district": "06", "lease_no": "198198", "lease_name": "RAMPY, H. R.", "field_name": "CAYUGA (TRINITY)", "operator_no": "549836", "operator_name": "", "period": "202607", "flared_mcf": 1, "produced_mcf": 423, "flared_mmcfd": 0.0, "wells": 1, "county": "Anderson"}}, {"type": "Feature", "geometry": {"type": "Point", "coordinates": [-95.98938, 31.95444]}, "properties": {"kind": "gas", "district": "06", "lease_no": "161754", "lease_name": "RAMPY, H.R. UNIT", "field_name": "CAYUGA (CV-TP CONS.)", "operator_no": "549836", "operator_name": "", "period": "202607", "flared_mcf": 1, "produced_mcf": 666, "flared_mmcfd": 0.0, "wells": 1, "county": "Anderson"}}, {"type": "Feature", "geometry": {"type": "Point", "coordinates": [-95.9997, 31.97056]}, "properties": {"kind": "gas", "district": "06", "lease_no": "202357", "lease_name": "WILLS, N.N.", "field_name": "CAYUGA (TRINITY)", "operator_no": "549836", "operator_name": "", "period": "202607", "flared_mcf": 1, "produced_mcf": 594, "flared_mmcfd": 0.0, "wells": 1, "county": "Anderson"}}]}