{"type": "FeatureCollection", "features": [{"type": "Feature", "geometry": {"type": "Point", "coordinates": [-94.71563, 32.91429]}, "properties": {"voltage_kv": 345.0, "owner": "UPSHUR RURAL ELEC COOP CORP", "pipeline_operator": "Enable Gas Transmission", "distance_miles": 0.37}}, {"type": "Feature", "geometry": {"type": "Point", "coordinates": [-95.256, 32.27929]}, "properties": {"voltage_kv": 345.0, "owner": "ONCOR ELECTRIC DELIVERY CO.", "pipeline_operator": "Atmos Pipeline - Texas", "distance_miles": 1.41}}, {"type": "Feature", "geometry": {"type": "Point", "coordinates": [-96.12693, 31.81484]}, "properties": {"voltage_kv": 345.0, "owner": "ONCOR ELECTRIC DELIVERY CO.", "pipeline_operator": "Enbridge Pipelines (East Texas)", "distance_miles": 2.18}}, {"type": "Feature", "geometry": {"type": "Point", "coordinates": [-96.34044, 31.70401]}, "properties": {"voltage_kv": 345.0, "owner": "ONCOR ELECTRIC DELIVERY CO.", "pipeline_operator": "Coral Energy Pipeline Co", "distance_miles": 2.98}}, {"type": "Feature", "geometry": {"type": "Point", "coordinates": [-96.41518, 31.39902]}, "properties": {"voltage_kv": 345.0, "owner": "NAVASOTA VALLEY ELEC COOP, INC", "pipeline_operator": "Energy Transfer", "distance_miles": 2.07}}, {"type": "Feature", "geometry": {"type": "Point", "coordinates": [-96.0198, 32.18541]}, "properties": {"voltage_kv": 345.0, "owner": "ONCOR ELECTRIC DELIVERY CO.", "pipeline_operator": "Atmos Pipeline - Texas", "distance_miles": 2.59}}, {"type": "Feature", "geometry": {"type": "Point", "coordinates": [-95.29287, 33.37534]}, "properties": {"voltage_kv": 345.0, "owner": "TEXAS-NEW MEXICO POWER CO", "pipeline_operator": "Natural Gas PL Co of Am", "distance_miles": 0.68}}, {"type": "Feature", "geometry": {"type": "Point", "coordinates": [-95.50216, 32.03324]}, "properties": {"voltage_kv": 345.0, "owner": "ONCOR ELECTRIC DELIVERY COMPANY LLC", "pipeline_operator": "El Paso Texas Pipeline Co", "distance_miles": 2.91}}, {"type": "Feature", "geometry": {"type": "Point", "coordinates": [-95.21585, 32.18621]}, "properties": {"voltage_kv": 345.0, "owner": "ONCOR ELECTRIC DELIVERY CO.", "pipeline_operator": "Enbridge Pipelines (East Texas)", "distance_miles": 1.36}}, {"type": "Feature", "geometry": {"type": "Point", "coordinates": [-96.12058, 31.69298]}, "properties": {"voltage_kv": 345.0, "owner": "ONCOR ELECTRIC DELIVERY CO.", "pipeline_operator": "Enbridge Pipelines (East Texas)", "distance_miles": 1.17}}, {"type": "Feature", "geometry": {"type": "Point", "coordinates": [-94.8024, 32.88527]}, "properties": {"voltage_kv": 345.0, "owner": "SOUTHWESTERN ELECTRIC POWER CO", "pipeline_operator": "Enbridge Pipelines (East Texas)", "distance_miles": 1.49}}, {"type": "Feature", "geometry": {"type": "Point", "coordinates": [-95.33639, 32.505]}, "properties": {"voltage_kv": 345.0, "owner": "ONCOR ELECTRIC DELIVERY CO.", "pipeline_operator": "Gulf South Pipeline Co", "distance_miles": 1.88}}, {"type": "Feature", "geometry": {"type": "Point", "coordinates": [-96.33889, 31.29149]}, "properties": {"voltage_kv": 345.0, "owner": "NAVASOTA VALLEY ELEC COOP, INC", "pipeline_operator": "Enbridge Pipelines (East Texas)", "distance_miles": 1.71}}, {"type": "Feature", "geometry": {"type": "Point", "coordinates": [-95.04655, 31.7156]}, "properties": {"voltage_kv": 345.0, "owner": "NOT AVAILABLE", "pipeline_operator": "Enbridge Pipelines (East Texas)", "distance_miles": 1.54}}, {"type": "Feature", "geometry": {"type": "Point", "coordinates": [-94.69736, 33.20495]}, "properties": {"voltage_kv": 345.0, "owner": "BOWIE-CASS ELECTRIC COOP, INC", "pipeline_operator": "Enable Gas Transmission", "distance_miles": 1.21}}]}