{"type": "FeatureCollection", "features": [{"type": "Feature", "geometry": {"type": "LineString", "coordinates": [[-101.60332, 48.99571], [-100.59604, 48.38852], [-100.49606, 48.3232], [-100.47143, 48.30711], [-100.45066, 48.25283], [-100.39873, 48.19856], [-100.30008, 48.19517], [-98.55096, 47.27074], [-98.42896, 47.18837], [-98.10913, 46.97242], [-98.04148, 46.87222], [-97.98956, 46.80438], [-97.84937, 46.73993], [-97.66245, 46.63477], [-97.53265, 46.52962], [-97.41323, 46.43803], [-97.41842, 46.38036], [-96.81093, 46.17157], [-96.66737, 46.02077], [-96.56291, 45.9355]]}, "properties": {"operator": "Alliance Pipeline System", "pipe_type": "Interstate"}}, {"type": "Feature", "geometry": {"type": "LineString", "coordinates": [[-96.56291, 45.9355], [-94.80685, 44.85534], [-94.00236, 44.36446], [-94.00236, 44.26716], [-93.88808, 44.22391], [-93.33307, 43.70351], [-93.22481, 43.63596], [-93.00612, 43.4995]]}, "properties": {"operator": "Alliance Pipeline System", "pipe_type": "Interstate"}}, {"type": "Feature", "geometry": {"type": "LineString", "coordinates": [[-99.51639, 45.9184], [-99.50947, 45.91806], [-99.45071, 45.89025], [-99.3814, 45.86088], [-99.35315, 45.85443], [-99.32972, 45.8435], [-99.28455, 45.83447], [-99.24751, 45.82655], [-99.1945, 45.80923], [-99.18018, 45.79969], [-99.16554, 45.79724], [-99.15201, 45.79082], [-99.1453, 45.78305], [-99.09889, 45.75874], [-99.04882, 45.72593], [-99.05046, 45.7169], [-99.03875, 45.71184]]}, "properties": {"operator": "Northern Border PL Co", "pipe_type": "Interstate"}}, {"type": "Feature", "geometry": {"type": "LineString", "coordinates": [[-99.03875, 45.71184], [-99.0023, 45.68316], [-98.95879, 45.65147], [-98.91636, 45.62153]]}, "properties": {"operator": "Northern Border PL Co", "pipe_type": "Interstate"}}, {"type": "Feature", "geometry": {"type": "LineString", "coordinates": [[-98.91636, 45.62153], [-98.90733, 45.62186], [-98.84357, 45.57637], [-98.82198, 45.55879], [-98.78517, 45.53347], [-98.72177, 45.50079]]}, "properties": {"operator": "Northern Border PL Co", "pipe_type": "Interstate"}}, {"type": "Feature", "geometry": {"type": "LineString", "coordinates": [[-98.72177, 45.50079], [-98.70057, 45.49062], [-98.68972, 45.48541], [-98.66927, 45.47393], [-98.65737, 45.47405], [-98.63447, 45.46262], [-98.63498, 45.45857], [-98.60609, 45.44837], [-98.60617, 45.44387], [-98.5944, 45.44152], [-98.57872, 45.42942], [-98.56588, 45.42436], [-98.51826, 45.39434], [-98.50944, 45.3942], [-98.4232, 45.35333], [-98.40555, 45.35047], [-98.36265, 45.32547], [-98.34469, 45.3171], [-98.32692, 45.31129]]}, "properties": {"operator": "Northern Border PL Co", "pipe_type": "Interstate"}}, {"type": "Feature", "geometry": {"type": "LineString", "coordinates": [[-98.12998, 45.21919], [-98.10112, 45.20897], [-98.04512, 45.17748], [-98.02248, 45.16804], [-98.0105, 45.15937], [-97.98194, 45.15104]]}, "properties": {"operator": "Northern Border PL Co", "pipe_type": "Interstate"}}, {"type": "Feature", "geometry": {"type": "LineString", "coordinates": [[-97.98194, 45.15104], [-97.93889, 45.13075], [-97.928, 45.13065], [-97.91559, 45.12012], [-97.88485, 45.11012], [-97.88393, 45.10506], [-97.86089, 45.09293], [-97.8359, 45.08426], [-97.80223, 45.06954], [-97.78114, 45.06558], [-97.76712, 45.05253], [-97.72683, 45.04133], [-97.70513, 45.03017], [-97.69621, 45.0302]]}, "properties": {"operator": "Northern Border PL Co", "pipe_type": "Interstate"}}, {"type": "Feature", "geometry": {"type": "LineString", "coordinates": [[-97.69621, 45.0302], [-97.66252, 45.01481], [-97.6536, 45.01494], [-97.63826, 45.00365], [-97.59272, 44.98977], [-97.57433, 44.97772], [-97.54952, 44.97288], [-97.52514, 44.96081], [-97.48644, 44.95051], [-97.47917, 44.94539]]}, "properties": {"operator": "Northern Border PL Co", "pipe_type": "Interstate"}}, {"type": "Feature", "geometry": {"type": "LineString", "coordinates": [[-97.47917, 44.94539], [-97.43443, 44.93059], [-97.43064, 44.92578], [-97.41342, 44.92173], [-97.37894, 44.90896], [-97.35315, 44.89664], [-97.34469, 44.88573], [-97.31647, 44.87858], [-97.31481, 44.87269], [-97.28872, 44.86841], [-97.25705, 44.85697], [-97.24863, 44.84897], [-97.23113, 44.83984], [-97.21309, 44.8394], [-97.21455, 44.83373], [-97.19948, 44.83319], [-97.17292, 44.82336], [-97.16047, 44.81838]]}, "properties": {"operator": "Northern Border PL Co", "pipe_type": "Interstate"}}, {"type": "Feature", "geometry": {"type": "LineString", "coordinates": [[-97.16047, 44.81838], [-97.10857, 44.79018], [-97.10375, 44.7907], [-97.08316, 44.77762], [-97.05356, 44.76615], [-97.04754, 44.76588]]}, "properties": {"operator": "Northern Border PL Co", "pipe_type": "Interstate"}}, {"type": "Feature", "geometry": {"type": "LineString", "coordinates": [[-97.04754, 44.76588], [-97.04151, 44.7642], [-97.03467, 44.76203], [-97.03507, 44.75945], [-97.01094, 44.75101], [-97.00185, 44.74784], [-97.00165, 44.74399], [-96.9942, 44.7413], [-96.98696, 44.73855], [-96.964, 44.73338], [-96.96408, 44.72984], [-96.93545, 44.71861], [-96.93162, 44.715], [-96.92045, 44.71085], [-96.9018, 44.70376]]}, "properties": {"operator": "Northern Border PL Co", "pipe_type": "Interstate"}}, {"type": "Feature", "geometry": {"type": "LineString", "coordinates": [[-96.9018, 44.70376], [-96.90024, 44.70088], [-96.8787, 44.69481], [-96.87021, 44.69246], [-96.86467, 44.68636], [-96.85832, 44.68299], [-96.83086, 44.66882], [-96.8186, 44.67234], [-96.81441, 44.66933], [-96.78071, 44.66102], [-96.78035, 44.65728], [-96.73558, 44.64621], [-96.73493, 44.64278], [-96.68367, 44.62863], [-96.67782, 44.62877], [-96.6696, 44.62595], [-96.66161, 44.62128], [-96.63903, 44.6106], [-96.61255, 44.59948], [-96.58244, 44.58683], [-96.54745, 44.57148], [-96.53655, 44.57152], [-96.50924, 44.56001], [-96.50325, 44.56243], [-96.45156, 44.5441]]}, "properties": {"operator": "Northern Border PL Co", "pipe_type": "Interstate"}}, {"type": "Feature", "geometry": {"type": "LineString", "coordinates": [[-96.45156, 44.5441], [-96.4383, 44.5378], [-96.43391, 44.53237], [-96.42082, 44.52699], [-96.40224, 44.51543], [-96.37279, 44.50389], [-96.36549, 44.50325], [-96.36516, 44.50081], [-96.31497, 44.47149], [-96.29984, 44.47211], [-96.27684, 44.45686], [-96.25804, 44.45227]]}, "properties": {"operator": "Northern Border PL Co", "pipe_type": "Interstate"}}, {"type": "Feature", "geometry": {"type": "LineString", "coordinates": [[-98.32692, 45.31129], [-98.12998, 45.21919]]}, "properties": {"operator": "Northern Border PL Co", "pipe_type": "Interstate"}}, {"type": "Feature", "geometry": {"type": "LineString", "coordinates": [[-99.71816, 46.02535], [-99.6258, 45.98217], [-99.61293, 45.97668], [-99.6053, 45.97731], [-99.5477, 45.94035]]}, "properties": {"operator": "Northern Border PL Co", "pipe_type": "Interstate"}}, {"type": "Feature", "geometry": {"type": "LineString", "coordinates": [[-99.54671, 45.94099], [-99.51639, 45.9184]]}, "properties": {"operator": "Northern Border PL Co", "pipe_type": "Interstate"}}, {"type": "Feature", "geometry": {"type": "LineString", "coordinates": [[-97.28768, 44.192], [-97.33965, 44.27162]]}, "properties": {"operator": "Northern Natural Gas Co", "pipe_type": "Interstate"}}, {"type": "Feature", "geometry": {"type": "LineString", "coordinates": [[-97.23622, 44.13133], [-97.28768, 44.192]]}, "properties": {"operator": "Northern Natural Gas Co", "pipe_type": "Interstate"}}, {"type": "Feature", "geometry": {"type": "LineString", "coordinates": [[-97.36832, 44.07066], [-97.59258, 44.0425]]}, "properties": {"operator": "Northern Natural Gas Co", "pipe_type": "Interstate"}}, {"type": "Feature", "geometry": {"type": "LineString", "coordinates": [[-97.23622, 44.13133], [-97.36832, 44.07066]]}, "properties": {"operator": "Northern Natural Gas Co", "pipe_type": "Interstate"}}, {"type": "Feature", "geometry": {"type": "LineString", "coordinates": [[-97.05216, 43.84614], [-97.23622, 44.13133]]}, "properties": {"operator": "Northern Natural Gas Co", "pipe_type": "Interstate"}}, {"type": "Feature", "geometry": {"type": "LineString", "coordinates": [[-96.95974, 43.7527], [-97.05216, 43.84614]]}, "properties": {"operator": "Northern Natural Gas Co", "pipe_type": "Interstate"}}, {"type": "Feature", "geometry": {"type": "LineString", "coordinates": [[-97.99782, 43.49542], [-97.99782, 43.42554]]}, "properties": {"operator": "Northern Natural Gas Co", "pipe_type": "Interstate"}}, {"type": "Feature", "geometry": {"type": "LineString", "coordinates": [[-97.99782, 43.70125], [-97.99782, 43.49542]]}, "properties": {"operator": "Northern Natural Gas Co", "pipe_type": "Interstate"}}, {"type": "Feature", "geometry": {"type": "LineString", "coordinates": [[-97.96992, 43.70125], [-97.99782, 43.70125]]}, "properties": {"operator": "Northern Natural Gas Co", "pipe_type": "Interstate"}}, {"type": "Feature", "geometry": {"type": "LineString", "coordinates": [[-97.6128, 43.69664], [-97.96992, 43.70125]]}, "properties": {"operator": "Northern Natural Gas Co", "pipe_type": "Interstate"}}, {"type": "Feature", "geometry": {"type": "LineString", "coordinates": [[-97.51245, 43.69664], [-97.6128, 43.69664]]}, "properties": {"operator": "Northern Natural Gas Co", "pipe_type": "Interstate"}}, {"type": "Feature", "geometry": {"type": "LineString", "coordinates": [[-97.51245, 43.69664], [-97.51245, 43.7527]]}, "properties": {"operator": "Northern Natural Gas Co", "pipe_type": "Interstate"}}, {"type": "Feature", "geometry": {"type": "LineString", "coordinates": [[-97.12742, 43.69664], [-97.51245, 43.69664]]}, "properties": {"operator": "Northern Natural Gas Co", "pipe_type": "Interstate"}}, {"type": "Feature", "geometry": {"type": "LineString", "coordinates": [[-96.95974, 43.7527], [-97.12742, 43.69664]]}, "properties": {"operator": "Northern Natural Gas Co", "pipe_type": "Interstate"}}, {"type": "Feature", "geometry": {"type": "LineString", "coordinates": [[-96.78669, 43.80416], [-96.78669, 43.74323]]}, "properties": {"operator": "Northern Natural Gas Co", "pipe_type": "Interstate"}}, {"type": "Feature", "geometry": {"type": "LineString", "coordinates": [[-96.95974, 43.7527], [-96.78669, 43.80416]]}, "properties": {"operator": "Northern Natural Gas Co", "pipe_type": "Interstate"}}, {"type": "Feature", "geometry": {"type": "LineString", "coordinates": [[-96.81459, 43.50029], [-96.95974, 43.7527]]}, "properties": {"operator": "Northern Natural Gas Co", "pipe_type": "Interstate"}}, {"type": "Feature", "geometry": {"type": "LineString", "coordinates": [[-96.75341, 43.50029], [-96.81459, 43.50029]]}, "properties": {"operator": "Northern Natural Gas Co", "pipe_type": "Interstate"}}, {"type": "Feature", "geometry": {"type": "LineString", "coordinates": [[-96.75341, 43.38816], [-96.75341, 43.50029]]}, "properties": {"operator": "Northern Natural Gas Co", "pipe_type": "Interstate"}}, {"type": "Feature", "geometry": {"type": "LineString", "coordinates": [[-96.75341, 43.38816], [-96.88166, 43.38816]]}, "properties": {"operator": "Northern Natural Gas Co", "pipe_type": "Interstate"}}, {"type": "Feature", "geometry": {"type": "LineString", "coordinates": [[-96.74778, 43.0889], [-96.75341, 43.38816]]}, "properties": {"operator": "Northern Natural Gas Co", "pipe_type": "Interstate"}}, {"type": "Feature", "geometry": {"type": "LineString", "coordinates": [[-96.74778, 43.0889], [-96.89293, 43.0935]]}, "properties": {"operator": "Northern Natural Gas Co", "pipe_type": "Interstate"}}, {"type": "Feature", "geometry": {"type": "LineString", "coordinates": [[-96.74778, 43.04691], [-96.74778, 43.0889]]}, "properties": {"operator": "Northern Natural Gas Co", "pipe_type": "Interstate"}}, {"type": "Feature", "geometry": {"type": "LineString", "coordinates": [[-96.74778, 42.8224], [-96.74778, 43.04691]]}, "properties": {"operator": "Northern Natural Gas Co", "pipe_type": "Interstate"}}, {"type": "Feature", "geometry": {"type": "LineString", "coordinates": [[-97.15533, 42.86438], [-97.38394, 42.86925]]}, "properties": {"operator": "Northern Natural Gas Co", "pipe_type": "Interstate"}}, {"type": "Feature", "geometry": {"type": "LineString", "coordinates": [[-96.80358, 42.82701], [-97.15533, 42.86438]]}, "properties": {"operator": "Northern Natural Gas Co", "pipe_type": "Interstate"}}, {"type": "Feature", "geometry": {"type": "LineString", "coordinates": [[-96.74778, 42.8224], [-96.80358, 42.82701]]}, "properties": {"operator": "Northern Natural Gas Co", "pipe_type": "Interstate"}}, {"type": "Feature", "geometry": {"type": "LineString", "coordinates": [[-96.75341, 42.71027], [-96.74778, 42.8224]]}, "properties": {"operator": "Northern Natural Gas Co", "pipe_type": "Interstate"}}, {"type": "Feature", "geometry": {"type": "LineString", "coordinates": [[-96.4631, 42.44838], [-96.60765, 42.51734]]}, "properties": {"operator": "Northern Natural Gas Co", "pipe_type": "Interstate"}}, {"type": "Feature", "geometry": {"type": "LineString", "coordinates": [[-96.60765, 42.51734], [-96.65843, 42.59328]]}, "properties": {"operator": "Northern Natural Gas Co", "pipe_type": "Interstate"}}, {"type": "Feature", "geometry": {"type": "LineString", "coordinates": [[-96.44877, 43.97235], [-96.36224, 44.00973]]}, "properties": {"operator": "Northern Natural Gas Co", "pipe_type": "Interstate"}}, {"type": "Feature", "geometry": {"type": "LineString", "coordinates": [[-96.44877, 43.97235], [-96.66125, 44.12672]]}, "properties": {"operator": "Northern Natural Gas Co", "pipe_type": "Interstate"}}, {"type": "Feature", "geometry": {"type": "LineString", "coordinates": [[-96.64384, 43.84128], [-96.44877, 43.97235]]}, "properties": {"operator": "Northern Natural Gas Co", "pipe_type": "Interstate"}}, {"type": "Feature", "geometry": {"type": "LineString", "coordinates": [[-96.78669, 43.80416], [-96.64384, 43.84128]]}, "properties": {"operator": "Northern Natural Gas Co", "pipe_type": "Interstate"}}, {"type": "Feature", "geometry": {"type": "LineString", "coordinates": [[-96.75341, 43.38816], [-96.6249, 43.38816]]}, "properties": {"operator": "Northern Natural Gas Co", "pipe_type": "Interstate"}}, {"type": "Feature", "geometry": {"type": "LineString", "coordinates": [[-96.74778, 43.04691], [-96.49664, 43.03283]]}, "properties": {"operator": "Northern Natural Gas Co", "pipe_type": "Interstate"}}, {"type": "Feature", "geometry": {"type": "LineString", "coordinates": [[-96.59699, 42.81754], [-96.46874, 42.80371]]}, "properties": {"operator": "Northern Natural Gas Co", "pipe_type": "Interstate"}}, {"type": "Feature", "geometry": {"type": "LineString", "coordinates": [[-96.74778, 42.8224], [-96.59699, 42.81754]]}, "properties": {"operator": "Northern Natural Gas Co", "pipe_type": "Interstate"}}, {"type": "Feature", "geometry": {"type": "LineString", "coordinates": [[-96.65843, 42.59328], [-96.75341, 42.71027]]}, "properties": {"operator": "Northern Natural Gas Co", "pipe_type": "Interstate"}}, {"type": "Feature", "geometry": {"type": "LineString", "coordinates": [[-96.65664, 43.49978], [-96.75341, 43.50029]]}, "properties": {"operator": "Northern Natural Gas Co", "pipe_type": "Interstate"}}, {"type": "Feature", "geometry": {"type": "LineString", "coordinates": [[-96.3991, 43.25939], [-96.52266, 43.36584]]}, "properties": {"operator": "Northern Natural Gas Co", "pipe_type": "Interstate"}}, {"type": "Feature", "geometry": {"type": "LineString", "coordinates": [[-96.52266, 43.36584], [-96.65664, 43.49978]]}, "properties": {"operator": "Northern Natural Gas Co", "pipe_type": "Interstate"}}, {"type": "Feature", "geometry": {"type": "LineString", "coordinates": [[-98.18317, 45.2439], [-98.28224, 45.35027]]}, "properties": {"operator": "Northern Natural Gas Co", "pipe_type": "Interstate"}}, {"type": "Feature", "geometry": {"type": "LineString", "coordinates": [[-98.03008, 45.43078], [-98.03008, 45.51014]]}, "properties": {"operator": "Northern Natural Gas Co", "pipe_type": "Interstate"}}, {"type": "Feature", "geometry": {"type": "LineString", "coordinates": [[-97.97734, 45.43078], [-97.7065, 45.43078]]}, "properties": {"operator": "Northern Natural Gas Co", "pipe_type": "Interstate"}}, {"type": "Feature", "geometry": {"type": "LineString", "coordinates": [[-98.03008, 45.43078], [-97.97734, 45.43078]]}, "properties": {"operator": "Northern Natural Gas Co", "pipe_type": "Interstate"}}, {"type": "Feature", "geometry": {"type": "LineString", "coordinates": [[-98.03008, 45.2439], [-98.03008, 45.43078]]}, "properties": {"operator": "Northern Natural Gas Co", "pipe_type": "Interstate"}}, {"type": "Feature", "geometry": {"type": "LineString", "coordinates": [[-98.18317, 45.2439], [-98.03008, 45.2439]]}, "properties": {"operator": "Northern Natural Gas Co", "pipe_type": "Interstate"}}, {"type": "Feature", "geometry": {"type": "LineString", "coordinates": [[-98.04646, 45.07571], [-98.18317, 45.2439]]}, "properties": {"operator": "Northern Natural Gas Co", "pipe_type": "Interstate"}}, {"type": "Feature", "geometry": {"type": "LineString", "coordinates": [[-98.32806, 44.96819], [-98.45478, 44.94029]]}, "properties": {"operator": "Northern Natural Gas Co", "pipe_type": "Interstate"}}, {"type": "Feature", "geometry": {"type": "LineString", "coordinates": [[-98.30528, 45.01504], [-98.32806, 44.96819]]}, "properties": {"operator": "Northern Natural Gas Co", "pipe_type": "Interstate"}}, {"type": "Feature", "geometry": {"type": "LineString", "coordinates": [[-98.14989, 45.02912], [-98.30528, 45.01504]]}, "properties": {"operator": "Northern Natural Gas Co", "pipe_type": "Interstate"}}, {"type": "Feature", "geometry": {"type": "LineString", "coordinates": [[-98.14989, 45.02912], [-98.1271, 44.96819]]}, "properties": {"operator": "Northern Natural Gas Co", "pipe_type": "Interstate"}}, {"type": "Feature", "geometry": {"type": "LineString", "coordinates": [[-98.04646, 45.07571], [-98.14989, 45.02912]]}, "properties": {"operator": "Northern Natural Gas Co", "pipe_type": "Interstate"}}, {"type": "Feature", "geometry": {"type": "LineString", "coordinates": [[-97.9776, 44.98227], [-98.04646, 45.07571]]}, "properties": {"operator": "Northern Natural Gas Co", "pipe_type": "Interstate"}}, {"type": "Feature", "geometry": {"type": "LineString", "coordinates": [[-97.9776, 44.98227], [-97.90285, 45.03834]]}, "properties": {"operator": "Northern Natural Gas Co", "pipe_type": "Interstate"}}, {"type": "Feature", "geometry": {"type": "LineString", "coordinates": [[-97.92026, 44.90291], [-97.9776, 44.98227]]}, "properties": {"operator": "Northern Natural Gas Co", "pipe_type": "Interstate"}}, {"type": "Feature", "geometry": {"type": "LineString", "coordinates": [[-97.92026, 44.90291], [-97.74746, 44.94029]]}, "properties": {"operator": "Northern Natural Gas Co", "pipe_type": "Interstate"}}, {"type": "Feature", "geometry": {"type": "LineString", "coordinates": [[-97.66144, 44.60365], [-97.92026, 44.90291]]}, "properties": {"operator": "Northern Natural Gas Co", "pipe_type": "Interstate"}}, {"type": "Feature", "geometry": {"type": "LineString", "coordinates": [[-97.30509, 44.80461], [-97.08083, 44.87936]]}, "properties": {"operator": "Northern Natural Gas Co", "pipe_type": "Interstate"}}, {"type": "Feature", "geometry": {"type": "LineString", "coordinates": [[-97.4313, 44.72499], [-97.30509, 44.80461]]}, "properties": {"operator": "Northern Natural Gas Co", "pipe_type": "Interstate"}}, {"type": "Feature", "geometry": {"type": "LineString", "coordinates": [[-97.4313, 44.72499], [-97.4313, 44.62234]]}, "properties": {"operator": "Northern Natural Gas Co", "pipe_type": "Interstate"}}, {"type": "Feature", "geometry": {"type": "LineString", "coordinates": [[-97.48915, 44.68301], [-97.4313, 44.72499]]}, "properties": {"operator": "Northern Natural Gas Co", "pipe_type": "Interstate"}}, {"type": "Feature", "geometry": {"type": "LineString", "coordinates": [[-97.66144, 44.60365], [-97.48915, 44.68301]]}, "properties": {"operator": "Northern Natural Gas Co", "pipe_type": "Interstate"}}, {"type": "Feature", "geometry": {"type": "LineString", "coordinates": [[-98.03494, 44.4073], [-98.27661, 44.30899]]}, "properties": {"operator": "Northern Natural Gas Co", "pipe_type": "Interstate"}}, {"type": "Feature", "geometry": {"type": "LineString", "coordinates": [[-98.03494, 44.4073], [-97.99475, 44.33715]]}, "properties": {"operator": "Northern Natural Gas Co", "pipe_type": "Interstate"}}, {"type": "Feature", "geometry": {"type": "LineString", "coordinates": [[-97.85677, 44.48666], [-98.03494, 44.4073]]}, "properties": {"operator": "Northern Natural Gas Co", "pipe_type": "Interstate"}}, {"type": "Feature", "geometry": {"type": "LineString", "coordinates": [[-97.75898, 44.53811], [-97.85677, 44.48666]]}, "properties": {"operator": "Northern Natural Gas Co", "pipe_type": "Interstate"}}, {"type": "Feature", "geometry": {"type": "LineString", "coordinates": [[-97.66144, 44.60365], [-97.75898, 44.53811]]}, "properties": {"operator": "Northern Natural Gas Co", "pipe_type": "Interstate"}}, {"type": "Feature", "geometry": {"type": "LineString", "coordinates": [[-97.60947, 44.53811], [-97.66144, 44.60365]]}, "properties": {"operator": "Northern Natural Gas Co", "pipe_type": "Interstate"}}, {"type": "Feature", "geometry": {"type": "LineString", "coordinates": [[-97.45459, 44.39322], [-97.60947, 44.53811]]}, "properties": {"operator": "Northern Natural Gas Co", "pipe_type": "Interstate"}}, {"type": "Feature", "geometry": {"type": "LineString", "coordinates": [[-97.45459, 44.39322], [-97.34528, 44.45389]]}, "properties": {"operator": "Northern Natural Gas Co", "pipe_type": "Interstate"}}, {"type": "Feature", "geometry": {"type": "LineString", "coordinates": [[-97.33965, 44.27162], [-97.45459, 44.39322]]}, "properties": {"operator": "Northern Natural Gas Co", "pipe_type": "Interstate"}}, {"type": "Feature", "geometry": {"type": "LineString", "coordinates": [[-96.8681, 44.32768], [-96.70707, 44.27622]]}, "properties": {"operator": "Northern Natural Gas Co", "pipe_type": "Interstate"}}, {"type": "Feature", "geometry": {"type": "LineString", "coordinates": [[-96.8681, 44.32768], [-96.8681, 44.28109]]}, "properties": {"operator": "Northern Natural Gas Co", "pipe_type": "Interstate"}}, {"type": "Feature", "geometry": {"type": "LineString", "coordinates": [[-97.1328, 44.32768], [-96.8681, 44.32768]]}, "properties": {"operator": "Northern Natural Gas Co", "pipe_type": "Interstate"}}, {"type": "Feature", "geometry": {"type": "LineString", "coordinates": [[-97.1328, 44.32768], [-97.1497, 44.4073]]}, "properties": {"operator": "Northern Natural Gas Co", "pipe_type": "Interstate"}}, {"type": "Feature", "geometry": {"type": "LineString", "coordinates": [[-97.33965, 44.27162], [-97.1328, 44.32768]]}, "properties": {"operator": "Northern Natural Gas Co", "pipe_type": "Interstate"}}, {"type": "Feature", "geometry": {"type": "LineString", "coordinates": [[-98.28224, 45.35027], [-98.37158, 45.44486]]}, "properties": {"operator": "Northern Natural Gas Co", "pipe_type": "Interstate"}}, {"type": "Feature", "geometry": {"type": "LineString", "coordinates": [[-103.97184, 45.21421], [-103.97184, 44.99661]]}, "properties": {"operator": "WBI Energy Transmission", "pipe_type": "Interstate"}}, {"type": "Feature", "geometry": {"type": "LineString", "coordinates": [[-103.8551, 44.71142], [-103.78752, 44.59878]]}, "properties": {"operator": "WBI Energy Transmission", "pipe_type": "Interstate"}}, {"type": "Feature", "geometry": {"type": "LineString", "coordinates": [[-103.78752, 44.59878], [-103.68102, 44.4713]]}, "properties": {"operator": "WBI Energy Transmission", "pipe_type": "Interstate"}}, {"type": "Feature", "geometry": {"type": "LineString", "coordinates": [[-103.68102, 44.4713], [-103.77779, 44.36634]]}, "properties": {"operator": "WBI Energy Transmission", "pipe_type": "Interstate"}}, {"type": "Feature", "geometry": {"type": "LineString", "coordinates": [[-103.68102, 44.4713], [-103.57402, 44.39654]]}, "properties": {"operator": "WBI Energy Transmission", "pipe_type": "Interstate"}}, {"type": "Feature", "geometry": {"type": "LineString", "coordinates": [[-103.57402, 44.39654], [-103.29293, 44.14106]]}, "properties": {"operator": "WBI Energy Transmission", "pipe_type": "Interstate"}}, {"type": "Feature", "geometry": {"type": "LineString", "coordinates": [[-103.29293, 44.14106], [-103.25402, 44.10368]]}, "properties": {"operator": "WBI Energy Transmission", "pipe_type": "Interstate"}}, {"type": "Feature", "geometry": {"type": "LineString", "coordinates": [[-103.25402, 44.10368], [-103.08915, 44.08883]]}, "properties": {"operator": "WBI Energy Transmission", "pipe_type": "Interstate"}}, {"type": "Feature", "geometry": {"type": "LineString", "coordinates": [[-103.97184, 44.99661], [-103.94154, 44.9226]]}, "properties": {"operator": "WBI Energy Transmission", "pipe_type": "Interstate"}}, {"type": "Feature", "geometry": {"type": "LineString", "coordinates": [[-103.94154, 44.9226], [-103.8551, 44.71142]]}, "properties": {"operator": "WBI Energy Transmission", "pipe_type": "Interstate"}}, {"type": "Feature", "geometry": {"type": "LineString", "coordinates": [[-103.94154, 44.9226], [-104.04915, 44.8768]]}, "properties": {"operator": "WBI Energy Transmission", "pipe_type": "Interstate"}}, {"type": "Feature", "geometry": {"type": "LineString", "coordinates": [[-104.04915, 44.8768], [-104.21453, 44.81638]]}, "properties": {"operator": "WBI Energy Transmission", "pipe_type": "Interstate"}}, {"type": "Feature", "geometry": {"type": "LineString", "coordinates": [[-103.97184, 44.99661], [-104.04915, 44.97408]]}, "properties": {"operator": "WBI Energy Transmission", "pipe_type": "Interstate"}}, {"type": "Feature", "geometry": {"type": "LineString", "coordinates": [[-104.04915, 44.97408], [-104.27238, 44.97408]]}, "properties": {"operator": "WBI Energy Transmission", "pipe_type": "Interstate"}}, {"type": "Feature", "geometry": {"type": "LineString", "coordinates": [[-104.04494, 46.05229], [-104.03701, 46.03965], [-104.021, 46.01153], [-103.98157, 45.94227]]}, "properties": {"operator": "WBI Energy Transmission", "pipe_type": "Interstate"}}, {"type": "Feature", "geometry": {"type": "LineString", "coordinates": [[-103.97699, 45.54822], [-103.97184, 45.21421]]}, "properties": {"operator": "WBI Energy Transmission", "pipe_type": "Interstate"}}, {"type": "Feature", "geometry": {"type": "LineString", "coordinates": [[-103.98157, 45.94227], [-103.97611, 45.6191]]}, "properties": {"operator": "WBI Energy Transmission", "pipe_type": "Interstate"}}, {"type": "Feature", "geometry": {"type": "LineString", "coordinates": [[-103.97699, 45.54822], [-103.97611, 45.6191]]}, "properties": {"operator": "WBI Energy Transmission", "pipe_type": "Interstate"}}, {"type": "Feature", "geometry": {"type": "MultiLineString", "coordinates": [[[-101.1863, 37.91642], [-101.1863, 37.74029], [-101.1863, 37.63446], [-101.1863, 37.43539]], [[-97.79372, 38.04349], [-97.7905, 37.89697]], [[-101.14268, 38.12811], [-101.17375, 37.97716], [-101.1863, 37.91642]], [[-101.14268, 38.12811], [-101.0345, 38.27405]], [[-101.0345, 38.27405], [-101.0345, 38.12762], [-101.08723, 37.98682], [-101.08723, 37.91642], [-101.1863, 37.91642]], [[-99.069, 38.30093], [-99.06714, 38.34982], [-99.06714, 38.39245], [-99.06714, 38.44941], [-99.06714, 38.51981]], [[-101.0409, 38.47347], [-101.12666, 38.40307], [-101.54982, 38.26227], [-101.73491, 38.16858], [-101.80762, 38.12762]], [[-101.0409, 38.47347], [-101.1136, 38.26816], [-101.14268, 38.12811]], [[-101.0409, 38.47347], [-101.0345, 38.27405]], [[-101.0409, 38.47347], [-100.79642, 38.47347], [-100.68403, 38.47347], [-100.47898, 38.47347]], [[-101.0409, 38.47347], [-100.68403, 38.61402], [-100.59802, 38.64934]], [[-101.0409, 38.47347], [-101.13357, 38.47347], [-101.56314, 38.45581], [-101.78125, 38.45581], [-101.78125, 38.69645], [-101.77434, 38.91328]], [[-101.0409, 38.47347], [-101.0409, 38.62605], [-100.9879, 38.70208], [-100.9879, 38.79014], [-100.94182, 38.84877], [-100.94182, 39.01312]], [[-99.92699, 38.4912], [-99.81423, 38.49685], [-99.58502, 38.51981]], [[-99.58502, 38.51981], [-99.56582, 38.62528]], [[-99.06714, 38.51981], [-99.22947, 38.51981], [-99.58502, 38.51981]], [[-99.06714, 38.51981], [-99.1255, 38.70157], [-99.23942, 38.87181], [-99.23942, 39.05357], [-99.30349, 39.12299], [-99.30712, 39.2191], [-99.30676, 39.26477], [-99.30443, 39.40026], [-99.3059, 39.42074], [-99.30624, 39.43475], [-99.30663, 39.44304]], [[-100.59802, 38.59072], [-100.59802, 38.64934]], [[-94.61162, 38.60488], [-94.53947, 38.58551]], [[-95.05832, 38.71146], [-94.89308, 38.63668], [-94.68055, 38.60634], [-94.6117, 38.6049]], [[-95.94467, 38.7427], [-95.7336, 38.73032], [-95.56475, 38.73179], [-95.50095, 38.73032], [-95.29833, 38.71862], [-95.12947, 38.71002], [-95.05818, 38.71148]], [[-96.38968, 38.77783], [-96.18755, 38.75433], [-96.01728, 38.74572], [-95.94431, 38.7428]], [[-94.60755, 38.8321], [-94.58641, 38.83337], [-94.58655, 38.84948], [-94.56369, 38.8477], [-94.56135, 38.85824], [-94.50199, 38.86177], [-94.50428, 38.88176], [-94.4861, 38.89549], [-94.48632, 38.89685], [-94.4787, 38.90685]], [[-94.60741, 38.83213], [-94.61661, 38.83193], [-94.61595, 38.83148], [-94.61595, 38.75173], [-94.64114, 38.75173], [-94.63995, 38.67934], [-94.63876, 38.611], [-94.63836, 38.60561]], [[-100.08909, 38.88998], [-100.15514, 38.86054], [-100.48563, 38.70797], [-100.59802, 38.64934]], [[-100.08909, 38.88998], [-99.78035, 39.12986], [-99.59987, 39.2471], [-99.51974, 39.29984]], [[-100.94182, 39.01312], [-101.01453, 39.01312]], [[-100.94182, 39.01312], [-100.93952, 39.07763]], [[-100.93952, 39.07763], [-100.82355, 39.07763], [-100.33869, 39.07763], [-100.14746, 39.03078], [-100.09293, 39.01312], [-100.08909, 38.88998]], [[-100.93952, 39.07763], [-100.93952, 39.14214], [-100.93286, 39.30624]], [[-98.29801, 39.08402], [-98.05188, 39.00229], [-97.74383, 38.97177], [-97.60523, 38.96533], [-97.37194, 38.96392], [-97.17735, 38.93813], [-97.03328, 38.87398], [-96.89295, 38.85211], [-96.69087, 38.82733], [-96.52247, 38.78952], [-96.38963, 38.77784]], [[-99.30624, 39.26477], [-99.1127, 39.26477], [-99.05254, 39.23533]], [[-99.51974, 39.29984], [-99.30663, 39.44304]], [[-99.51974, 39.29984], [-99.44627, 39.45242], [-99.38637, 39.57555], [-99.33467, 39.70137]], [[-100.93286, 39.30624], [-100.72781, 39.30624], [-100.37274, 39.33568]], [[-100.93286, 39.30624], [-100.93286, 39.35898]], [[-99.59987, 39.3408], [-99.51974, 39.29984]], [[-99.59987, 39.3408], [-99.68026, 39.4112]], [[-100.93286, 39.35898], [-100.93286, 39.42963]], [[-100.93286, 39.35898], [-101.07622, 39.35898], [-101.07622, 39.31802], [-101.31079, 39.31802], [-101.39699, 39.31802], [-101.5756, 39.32168], [-101.68397, 39.3239], [-101.82042, 39.56429], [-101.88877, 39.70509]], [[-99.8336, 39.3879], [-99.59987, 39.3408]], [[-100.93286, 39.42963], [-100.83021, 39.42963], [-100.72115, 39.45882], [-100.60493, 39.50566], [-100.50944, 39.50566]], [[-99.30663, 39.44304], [-99.30784, 39.46869], [-99.3129, 39.57555], [-99.30501, 39.70063]], [[-99.30501, 39.70063], [-99.06041, 39.66644], [-98.83542, 39.67596]], [[-99.30501, 39.70063], [-99.29958, 39.78675]], [[-99.33467, 39.70137], [-99.30501, 39.70063]], [[-99.33467, 39.70137], [-99.29958, 39.78675]], [[-101.99782, 39.70509], [-101.88877, 39.70509]], [[-101.88877, 39.78138], [-101.88878, 39.74072], [-101.88877, 39.70509]], [[-101.88877, 39.78138], [-101.7954, 39.78306], [-101.59348, 39.78306], [-101.4039, 39.78726], [-101.26594, 39.78551], [-101.14027, 39.78392], [-100.93952, 39.78138]], [[-100.93952, 39.78138], [-100.93286, 39.56429], [-100.93286, 39.48957], [-100.93286, 39.42963]], [[-100.93952, 39.78138], [-100.74163, 39.88685], [-100.64589, 39.92218]], [[-99.29958, 39.78675], [-99.06992, 39.76679]], [[-99.29958, 39.78675], [-99.29293, 39.86867], [-99.30624, 40.00384], [-99.25939, 40.01536], [-99.2663, 40.0681]], [[-99.7486, 39.79449], [-99.55347, 39.70685], [-99.33467, 39.70137]], [[-99.7486, 39.79449], [-99.72388, 39.88779], [-99.58454, 39.93907]], [[-99.80714, 39.81173], [-99.7486, 39.79449]], [[-99.85962, 39.8263], [-100.19682, 39.79949]], [[-100.64589, 39.92218], [-100.53683, 39.83411]], [[-100.64589, 39.92218], [-100.56422, 39.96902]], [[-102.11405, 39.92806], [-102.05206, 39.85327], [-101.88877, 39.84], [-101.88877, 39.78138]], [[-102.44864, 39.95136], [-102.44173, 40.0041]], [[-100.56422, 39.96902], [-100.53153, 40.00199], [-100.20224, 40.2153], [-100.14746, 40.25037]], [[-97.65552, 40.00207], [-97.65279, 39.999], [-97.75974, 39.99744]], [[-102.44173, 40.0041], [-102.30528, 39.9337], [-102.19597, 39.9337], [-102.11405, 39.92806]], [[-100.57779, 40.0041], [-100.56422, 39.96902]], [[-102.29171, 40.02176], [-102.29171, 40.06272]], [[-102.29171, 40.06272], [-102.12096, 40.06272], [-102.11777, 40.00061], [-102.11405, 39.92806]], [[-102.29171, 40.06272], [-102.48294, 40.09216]], [[-99.2663, 40.0681], [-99.41965, 40.12083], [-99.60653, 40.23834]], [[-102.56205, 40.09216], [-102.48294, 40.09216]], [[-102.48294, 40.09216], [-102.48294, 40.0512], [-102.44173, 40.0041]], [[-101.6361, 40.13312], [-101.51987, 40.13312], [-101.51987, 40.04531]], [[-103.26938, 40.15104], [-103.19309, 40.14515], [-102.79066, 40.14515], [-102.73536, 40.15104], [-102.73536, 40.09216], [-102.56205, 40.09216]], [[-103.35943, 40.1584], [-103.26938, 40.15104]], [[-98.87232, 40.18534], [-98.8055, 40.18534]], [[-98.8055, 40.18534], [-98.89229, 40.07987], [-99.05172, 40.00137], [-99.29958, 39.78675]], [[-98.8055, 40.18534], [-98.73229, 40.29082], [-98.66394, 40.34944], [-98.58176, 40.4608], [-98.55728, 40.49222], [-98.43098, 40.65434]], [[-102.55672, 40.19257], [-102.56205, 40.09216]], [[-102.58978, 40.19729], [-102.55672, 40.19257]], [[-100.14746, 40.25037], [-100.19507, 40.27392]], [[-100.14746, 40.25037], [-100.02322, 40.28174]], [[-100.14746, 40.25037], [-100.14746, 40.29747]], [[-100.02322, 40.28174], [-100.01936, 40.28125]], [[-100.02322, 40.28174], [-99.94061, 40.30259], [-99.78035, 40.34944], [-99.63315, 40.39654], [-99.34618, 40.46106]], [[-100.14746, 40.29747], [-100.02322, 40.28174]], [[-103.99472, 40.35515], [-104.05116, 40.33662], [-103.99755, 40.32134], [-103.94135, 40.31767], [-103.94416, 40.25492], [-103.9532, 40.25562], [-103.96128, 40.24623], [-103.96149, 40.22132]], [[-104.80239, 40.37141], [-104.80694, 40.94508], [-104.74965, 40.96079], [-104.2806, 40.98829], [-104.08579, 40.99178], [-103.03245, 41.19256]], [[-97.4377, 40.45491], [-97.61587, 40.50765], [-97.80836, 40.52269]], [[-99.34618, 40.46106], [-99.27962, 40.34944], [-99.2663, 40.0681]], [[-99.34618, 40.46106], [-99.17747, 40.48435], [-99.15699, 40.49024], [-99.0336, 40.51354], [-98.72538, 40.58419], [-98.6432, 40.61338], [-98.43098, 40.65434]], [[-97.95149, 40.49613], [-97.92371, 40.43968], [-97.9164, 40.42756], [-97.86931, 40.34944], [-97.82144, 40.23219], [-97.72544, 40.10906], [-97.6555, 40.00206]], [[-97.95149, 40.49613], [-97.82144, 40.51968], [-97.80836, 40.52269]], [[-97.80836, 40.52269], [-97.84192, 40.52531], [-97.97507, 40.53047]], [[-97.80836, 40.52269], [-97.46534, 40.6016]], [[-97.97507, 40.53047], [-97.95149, 40.49613]], [[-97.97507, 40.53047], [-98.08845, 40.69555], [-98.12301, 40.71296], [-98.27354, 40.69555], [-98.43098, 40.65434]], [[-103.29885, 40.59599], [-103.29728, 40.55578], [-103.27629, 40.43827], [-103.26938, 40.15104]], [[-103.29885, 40.59599], [-103.30117, 40.67408]], [[-98.43098, 40.65434], [-98.38976, 40.69555], [-98.34614, 40.77029]], [[-103.34262, 40.67378], [-103.32403, 40.62488], [-103.31403, 40.61874], [-103.29885, 40.59599]], [[-103.30117, 40.67408], [-103.34262, 40.67378]], [[-99.68435, 40.71885], [-99.68435, 40.78925], [-99.68435, 40.85965]], [[-103.30394, 40.72576], [-103.39405, 40.69043], [-103.34262, 40.67378]], [[-103.30394, 40.72576], [-103.30117, 40.67408]], [[-98.34614, 40.77029], [-98.29402, 40.77184], [-98.12966, 40.77184], [-98.04058, 40.81869], [-97.94483, 40.85965], [-97.8281, 40.85965], [-97.78714, 40.85965]], [[-98.34614, 40.77029], [-98.2871, 40.87142], [-98.32141, 40.92416], [-98.2871, 40.9536], [-98.23232, 40.98867]], [[-103.01952, 40.77286], [-103.15162, 40.72576], [-103.30394, 40.72576]], [[-103.01952, 40.77286], [-103.01952, 40.62029], [-102.6729, 40.6144], [-102.30528, 40.57907], [-102.30564, 40.55954], [-102.30528, 40.50278], [-102.4233, 40.43264], [-102.4233, 40.3095], [-102.45094, 40.3095], [-102.45094, 40.22733], [-102.55488, 40.22733], [-102.55672, 40.19257]], [[-99.68435, 40.85965], [-99.41709, 40.85965], [-99.1639, 40.85965]], [[-99.1639, 40.85965], [-99.1639, 40.74829], [-99.42426, 40.76595], [-99.47213, 40.76595], [-99.47213, 40.672], [-99.45139, 40.54298], [-99.34618, 40.46106]], [[-99.1639, 40.85965], [-98.71872, 40.95923], [-98.62272, 40.98278], [-98.2871, 40.98867], [-98.23232, 40.98867]], [[-99.1639, 40.85965], [-99.1639, 40.98867], [-99.1639, 41.0473], [-99.1639, 41.10592], [-99.1639, 41.19373], [-99.21178, 41.21754], [-99.65005, 41.3993]], [[-97.78714, 40.85965], [-97.78714, 40.84107], [-97.78714, 40.80691]], [[-97.78714, 40.85965], [-97.69139, 40.85965], [-97.5337, 40.85965], [-97.5337, 40.90061]], [[-99.96329, 40.88992], [-99.99053, 40.69606], [-100.03814, 40.64333], [-100.14746, 40.35021], [-100.14746, 40.29747]], [[-99.96329, 40.88992], [-99.96314, 40.88986], [-99.68435, 40.85965]], [[-99.96294, 40.89242], [-99.96329, 40.88992]], [[-98.23232, 40.98867], [-98.02701, 41.10003]], [[-98.23232, 40.98867], [-98.09536, 41.14688], [-98.04749, 41.28768], [-98.04749, 41.49299], [-98.04749, 41.56928], [-98.05414, 41.68653]], [[-102.1527, 41.09517], [-102.60582, 41.09491], [-102.66701, 41.11258], [-102.82445, 41.10669], [-102.94042, 41.1008]], [[-102.1527, 41.09517], [-102.04595, 41.09491], [-102.00499, 41.1008], [-101.71136, 41.1008], [-101.26054, 41.12435], [-100.73472, 41.14765], [-100.71377, 41.14043], [-100.49041, 41.07041], [-100.36549, 41.0304], [-100.22963, 40.99533], [-99.96329, 40.88992]], [[-102.94042, 41.1008], [-103.05434, 41.10694]], [[-103.05434, 41.10694], [-103.01286, 41.03654], [-103.01931, 41.00252], [-103.01952, 40.98278], [-103.01952, 40.95332], [-103.01952, 40.77286]], [[-103.03245, 41.19256], [-103.04691, 41.1817]], [[-103.03245, 41.19256], [-103.01327, 41.19622]], [[-103.01327, 41.19622], [-103.05434, 41.10694]], [[-103.01327, 41.19622], [-102.99201, 41.20027]], [[-102.99201, 41.20027], [-102.94042, 41.15354], [-102.94042, 41.1008]], [[-103.0057, 41.21267], [-103.03245, 41.19256]], [[-103.0057, 41.21267], [-103.01327, 41.19622]], [[-103.0057, 41.21267], [-102.99201, 41.20027]], [[-103.00363, 41.6699], [-102.99878, 41.44128], [-103.0057, 41.21267]], [[-103.00363, 41.6699], [-102.96397, 41.54086], [-102.79782, 41.44128], [-102.60326, 41.2887], [-102.49933, 41.2183], [-102.1527, 41.09517]], [[-98.05414, 41.68653], [-97.82144, 41.80966], [-97.75283, 41.83322]], [[-97.75283, 41.83322], [-97.67757, 41.74515], [-97.61587, 41.68064]], [[-97.49965, 41.92691], [-97.75283, 41.83322]], [[-97.49965, 41.92691], [-97.44461, 41.82733], [-97.44461, 41.7513], [-97.44461, 41.6983]], [[-97.49965, 41.92691], [-97.54752, 42.0032], [-97.82144, 42.03264]], [[-96.91725, 41.98579], [-97.02682, 41.98579], [-97.1776, 41.99142], [-97.36934, 41.99757], [-97.41056, 41.99142], [-97.41056, 41.95046], [-97.49965, 41.92691]], [[-104.93773, 42.05133], [-104.83994, 42.28019]], [[-98.05414, 42.09126], [-98.05414, 41.91514], [-98.05414, 41.68653]], [[-98.05414, 42.09126], [-97.84192, 42.25536], [-97.75974, 42.31398], [-97.51322, 42.17344]], [[-104.69299, 42.2272], [-104.66509, 42.21568], [-104.44826, 42.16269], [-104.32422, 42.10998], [-104.05342, 41.99578], [-103.88417, 41.94698], [-103.37152, 41.79917], [-103.00363, 41.6699]], [[-104.83994, 42.28019], [-104.72806, 42.23898]], [[-105.28817, 42.55737], [-105.27334, 42.54413], [-105.15456, 42.48525], [-105.06342, 42.39155], [-104.83994, 42.28019]], [[-105.28817, 42.55737], [-105.2682, 42.54271]], [[-99.09801, 42.56878], [-98.78037, 42.48325], [-98.58155, 42.44668], [-98.30067, 42.20851], [-98.23232, 42.16141], [-98.05414, 42.09126]], [[-108.1472, 42.69645], [-108.0215, 42.76096], [-107.97926, 42.7904], [-107.71379, 42.85466]], [[-105.44523, 42.69769], [-105.28817, 42.55737]], [[-105.64129, 42.7786], [-105.57282, 42.76891], [-105.44523, 42.69676]], [[-106.83645, 42.77898], [-106.85363, 42.87232]], [[-108.28698, 42.7904], [-108.1472, 42.69645]], [[-105.91147, 42.81386], [-105.64108, 42.77855]], [[-106.07365, 42.83673], [-105.91021, 42.81108], [-105.57364, 42.76836], [-105.45029, 42.69862], [-105.40606, 42.65587], [-105.37448, 42.62891], [-105.30415, 42.5691], [-105.28817, 42.55737]], [[-106.07365, 42.83673], [-105.91273, 42.81479]], [[-107.71379, 42.85466], [-107.55968, 42.85466]], [[-107.55968, 42.85466], [-107.50387, 42.85466], [-107.16826, 42.87821]], [[-106.95758, 42.87232], [-106.85363, 42.87232]], [[-106.95758, 42.87232], [-107.00368, 43.01888]], [[-106.85363, 42.87232], [-106.50419, 42.85466], [-106.50419, 42.89587], [-106.27364, 42.89572]], [[-107.16826, 42.87821], [-107.03539, 42.87232], [-106.95758, 42.87232]], [[-107.16826, 42.89468], [-107.16826, 42.87821]], [[-107.16826, 42.89468], [-107.21691, 42.91097]], [[-106.27364, 42.89572], [-106.27391, 42.84265], [-106.27364, 42.89572]], [[-106.27364, 42.89572], [-106.27364, 42.89596]], [[-106.27364, 42.89596], [-106.27328, 42.89587], [-106.27328, 42.84314], [-106.07744, 42.83725], [-106.07365, 42.83673]], [[-106.27364, 42.89596], [-106.27364, 42.89612], [-106.07561, 42.83704], [-106.07365, 42.83673]], [[-108.32896, 42.93094], [-108.21709, 42.84314], [-108.1472, 42.69645]], [[-107.00368, 43.01888], [-106.72781, 43.00415], [-106.27364, 42.89596]], [[-107.16826, 43.05408], [-107.16826, 42.89468]], [[-107.16826, 43.05408], [-107.00368, 43.01888]], [[-107.16826, 43.05408], [-107.24359, 43.24646]], [[-107.72762, 43.15392], [-107.72762, 43.04256], [-107.71379, 42.85466]], [[-107.60192, 43.15392], [-107.72762, 43.15392]], [[-107.60192, 43.15392], [-107.55968, 42.85466]], [[-107.60192, 43.15392], [-107.52372, 43.15392]], [[-107.52372, 43.15392], [-107.50492, 43.15353]], [[-107.52372, 43.15392], [-107.49696, 43.15392], [-107.16826, 43.05408]], [[-107.6021, 43.15557], [-107.60192, 43.15392]], [[-107.6021, 43.15557], [-107.52372, 43.15392]], [[-107.72762, 43.1582], [-107.72762, 43.15392]], [[-107.72762, 43.1582], [-107.6021, 43.15557]], [[-107.73744, 43.15841], [-107.72762, 43.1582]], [[-107.61574, 43.27706], [-107.6021, 43.15557]], [[-107.72762, 43.28294], [-107.72762, 43.1582]]]}, "properties": {"operator": "Tallgrass Interstate Gas Transmission", "pipe_type": "Interstate"}}]}