{"type": "FeatureCollection", "features": [{"type": "Feature", "geometry": {"type": "Point", "coordinates": [-96.74249, 44.67395]}, "properties": {"voltage_kv": 345.0, "owner": "NOT AVAILABLE", "pipeline_operator": "Northern Border PL Co", "distance_miles": 2.19}}, {"type": "Feature", "geometry": {"type": "Point", "coordinates": [-96.63821, 43.46537]}, "properties": {"voltage_kv": 230.0, "owner": "NOT AVAILABLE", "pipeline_operator": "Northern Natural Gas Co", "distance_miles": 2.55}}, {"type": "Feature", "geometry": {"type": "Point", "coordinates": [-97.26821, 44.78266]}, "properties": {"voltage_kv": 230.0, "owner": "NOT AVAILABLE", "pipeline_operator": "Northern Natural Gas Co", "distance_miles": 2.36}}, {"type": "Feature", "geometry": {"type": "Point", "coordinates": [-98.00006, 45.45123]}, "properties": {"voltage_kv": 345.0, "owner": "OTTER TAIL COMPANY", "pipeline_operator": "Northern Natural Gas Co", "distance_miles": 1.79}}, {"type": "Feature", "geometry": {"type": "Point", "coordinates": [-103.25212, 44.0619]}, "properties": {"voltage_kv": 230.0, "owner": "BLACK HILLS POWER, INC.", "pipeline_operator": "WBI Energy Transmission", "distance_miles": 2.89}}]}